http_interactions:
- request:
    method: get
    uri: https://climate.weather.gc.ca/climate_data/bulk_data_e.html?format=csv&stationID=1275&timeframe=1&submit=Download%2BData&Year=2012&Month=11
    body:
      encoding: ''
      string: ''
    headers:
      Accept: application/json, text/xml, application/xml, */*
  response:
    status:
      status_code: 200
      category: Success
      reason: OK
      message: 'Success: (200) OK'
    headers:
      date: Thu, 14 Jan 2021 22:36:18 GMT
      server: Apache/2.4.29 (Ubuntu)
      strict-transport-security: max-age=63072000; preload
      expires: Mon, 26 Jul 1997 05:00:00 GMT
      cache-control: private
      pragma: public
      content-disposition: attachment; filename="en_climate_hourly_BC_1163780_11-2012_P1H.csv"
      vary: Accept-Encoding
      content-encoding: gzip
      content-length: '14318'
      content-type: application/force-download
    body:
      encoding: UTF-8
      file: no
      string: "\uFEFF\"Longitude (x)\",\"Latitude (y)\",\"Station Name\",\"Climate
        ID\",\"Date/Time (LST)\",\"Year\",\"Month\",\"Day\",\"Time (LST)\",\"Temp
        (°C)\",\"Temp Flag\",\"Dew Point Temp (°C)\",\"Dew Point Temp Flag\",\"Rel
        Hum (%)\",\"Rel Hum Flag\",\"Precip. Amount (mm)\",\"Precip. Amount Flag\",\"Wind
        Dir (10s deg)\",\"Wind Dir Flag\",\"Wind Spd (km/h)\",\"Wind Spd Flag\",\"Visibility
        (km)\",\"Visibility Flag\",\"Stn Press (kPa)\",\"Stn Press Flag\",\"Hmdx\",\"Hmdx
        Flag\",\"Wind Chill\",\"Wind Chill Flag\",\"Weather\"\r\n\"-120.44\",\"50.70\",\"KAMLOOPS
        A\",\"1163780\",\"2012-11-01 00:00\",\"2012\",\"11\",\"01\",\"00:00\",\"6.6\",\"\",\"5.3\",\"\",\"91\",\"\",\"\",\"\",\"\",\"\",\"0\",\"\",\"32.2\",\"\",\"96.63\",\"\",\"\",\"\",\"\",\"\",\"Cloudy\"\r\n\"-120.44\",\"50.70\",\"KAMLOOPS
        A\",\"1163780\",\"2012-11-01 01:00\",\"2012\",\"11\",\"01\",\"01:00\",\"6.5\",\"\",\"5.1\",\"\",\"91\",\"\",\"\",\"\",\"7\",\"\",\"6\",\"\",\"32.2\",\"\",\"96.68\",\"\",\"\",\"\",\"\",\"\",\"Cloudy\"\r\n\"-120.44\",\"50.70\",\"KAMLOOPS
        A\",\"1163780\",\"2012-11-01 02:00\",\"2012\",\"11\",\"01\",\"02:00\",\"6.6\",\"\",\"5.0\",\"\",\"90\",\"\",\"\",\"\",\"9\",\"\",\"4\",\"\",\"24.1\",\"\",\"96.73\",\"\",\"\",\"\",\"\",\"\",\"Cloudy\"\r\n\"-120.44\",\"50.70\",\"KAMLOOPS
        A\",\"1163780\",\"2012-11-01 03:00\",\"2012\",\"11\",\"01\",\"03:00\",\"6.4\",\"\",\"5.1\",\"\",\"91\",\"\",\"\",\"\",\"10\",\"\",\"4\",\"\",\"24.1\",\"\",\"96.75\",\"\",\"\",\"\",\"\",\"\",\"Cloudy\"\r\n\"-120.44\",\"50.70\",\"KAMLOOPS
        A\",\"1163780\",\"2012-11-01 04:00\",\"2012\",\"11\",\"01\",\"04:00\",\"6.4\",\"\",\"5.3\",\"\",\"93\",\"\",\"\",\"\",\"8\",\"\",\"4\",\"\",\"24.1\",\"\",\"96.79\",\"\",\"\",\"\",\"\",\"\",\"Cloudy\"\r\n\"-120.44\",\"50.70\",\"KAMLOOPS
        A\",\"1163780\",\"2012-11-01 05:00\",\"2012\",\"11\",\"01\",\"05:00\",\"6.2\",\"\",\"5.5\",\"\",\"95\",\"\",\"\",\"\",\"10\",\"\",\"6\",\"\",\"4.0\",\"\",\"96.82\",\"\",\"\",\"\",\"\",\"\",\"Fog\"\r\n\"-120.44\",\"50.70\",\"KAMLOOPS
        A\",\"1163780\",\"2012-11-01 06:00\",\"2012\",\"11\",\"01\",\"06:00\",\"6.0\",\"\",\"5.9\",\"\",\"99\",\"\",\"\",\"\",\"10\",\"\",\"4\",\"\",\"3.2\",\"\",\"96.83\",\"\",\"\",\"\",\"\",\"\",\"Fog\"\r\n\"-120.44\",\"50.70\",\"KAMLOOPS
        A\",\"1163780\",\"2012-11-01 07:00\",\"2012\",\"11\",\"01\",\"07:00\",\"5.9\",\"\",\"5.8\",\"\",\"99\",\"\",\"\",\"\",\"9\",\"\",\"6\",\"\",\"3.2\",\"\",\"96.87\",\"\",\"\",\"\",\"\",\"\",\"Drizzle,Fog\"\r\n\"-120.44\",\"50.70\",\"KAMLOOPS
        A\",\"1163780\",\"2012-11-01 08:00\",\"2012\",\"11\",\"01\",\"08:00\",\"5.9\",\"\",\"5.7\",\"\",\"99\",\"\",\"\",\"\",\"\",\"\",\"0\",\"\",\"3.2\",\"\",\"96.93\",\"\",\"\",\"\",\"\",\"\",\"Drizzle,Fog\"\r\n\"-120.44\",\"50.70\",\"KAMLOOPS
        A\",\"1163780\",\"2012-11-01 09:00\",\"2012\",\"11\",\"01\",\"09:00\",\"6.5\",\"\",\"6.3\",\"\",\"99\",\"\",\"\",\"\",\"8\",\"\",\"6\",\"\",\"4.8\",\"\",\"96.96\",\"\",\"\",\"\",\"\",\"\",\"Fog\"\r\n\"-120.44\",\"50.70\",\"KAMLOOPS
        A\",\"1163780\",\"2012-11-01 10:00\",\"2012\",\"11\",\"01\",\"10:00\",\"6.9\",\"\",\"6.5\",\"\",\"97\",\"\",\"\",\"\",\"25\",\"\",\"4\",\"\",\"4.8\",\"\",\"96.99\",\"\",\"\",\"\",\"\",\"\",\"Fog\"\r\n\"-120.44\",\"50.70\",\"KAMLOOPS
        A\",\"1163780\",\"2012-11-01 11:00\",\"2012\",\"11\",\"01\",\"11:00\",\"7.9\",\"\",\"6.5\",\"\",\"91\",\"\",\"\",\"\",\"28\",\"\",\"11\",\"\",\"9.7\",\"\",\"97.01\",\"\",\"\",\"\",\"\",\"\",\"Fog\"\r\n\"-120.44\",\"50.70\",\"KAMLOOPS
        A\",\"1163780\",\"2012-11-01 12:00\",\"2012\",\"11\",\"01\",\"12:00\",\"8.1\",\"\",\"6.6\",\"\",\"90\",\"\",\"\",\"\",\"28\",\"\",\"13\",\"\",\"24.1\",\"\",\"97.02\",\"\",\"\",\"\",\"\",\"\",\"Cloudy\"\r\n\"-120.44\",\"50.70\",\"KAMLOOPS
        A\",\"1163780\",\"2012-11-01 13:00\",\"2012\",\"11\",\"01\",\"13:00\",\"8.5\",\"\",\"6.4\",\"\",\"87\",\"\",\"\",\"\",\"27\",\"\",\"7\",\"\",\"32.2\",\"\",\"97.03\",\"\",\"\",\"\",\"\",\"\",\"Cloudy\"\r\n\"-120.44\",\"50.70\",\"KAMLOOPS
        A\",\"1163780\",\"2012-11-01 14:00\",\"2012\",\"11\",\"01\",\"14:00\",\"9.0\",\"\",\"6.8\",\"\",\"86\",\"\",\"\",\"\",\"29\",\"\",\"11\",\"\",\"32.2\",\"\",\"97.05\",\"\",\"\",\"\",\"\",\"\",\"Cloudy\"\r\n\"-120.44\",\"50.70\",\"KAMLOOPS
        A\",\"1163780\",\"2012-11-01 15:00\",\"2012\",\"11\",\"01\",\"15:00\",\"9.1\",\"\",\"6.7\",\"\",\"85\",\"\",\"\",\"\",\"28\",\"\",\"11\",\"\",\"40.2\",\"\",\"97.10\",\"\",\"\",\"\",\"\",\"\",\"Mostly
        Cloudy\"\r\n\"-120.44\",\"50.70\",\"KAMLOOPS A\",\"1163780\",\"2012-11-01
        16:00\",\"2012\",\"11\",\"01\",\"16:00\",\"8.9\",\"\",\"6.9\",\"\",\"87\",\"\",\"\",\"\",\"29\",\"\",\"9\",\"\",\"48.3\",\"\",\"97.15\",\"\",\"\",\"\",\"\",\"\",\"Mostly
        Cloudy\"\r\n\"-120.44\",\"50.70\",\"KAMLOOPS A\",\"1163780\",\"2012-11-01
        17:00\",\"2012\",\"11\",\"01\",\"17:00\",\"8.4\",\"\",\"6.2\",\"\",\"86\",\"\",\"\",\"\",\"29\",\"\",\"9\",\"\",\"64.4\",\"\",\"97.18\",\"\",\"\",\"\",\"\",\"\",\"Mostly
        Cloudy\"\r\n\"-120.44\",\"50.70\",\"KAMLOOPS A\",\"1163780\",\"2012-11-01
        18:00\",\"2012\",\"11\",\"01\",\"18:00\",\"8.8\",\"\",\"6.3\",\"\",\"84\",\"\",\"\",\"\",\"25\",\"\",\"6\",\"\",\"64.4\",\"\",\"97.25\",\"\",\"\",\"\",\"\",\"\",\"Cloudy\"\r\n\"-120.44\",\"50.70\",\"KAMLOOPS
        A\",\"1163780\",\"2012-11-01 19:00\",\"2012\",\"11\",\"01\",\"19:00\",\"9.0\",\"\",\"6.0\",\"\",\"81\",\"\",\"\",\"\",\"27\",\"\",\"9\",\"\",\"64.4\",\"\",\"97.27\",\"\",\"\",\"\",\"\",\"\",\"Cloudy\"\r\n\"-120.44\",\"50.70\",\"KAMLOOPS
        A\",\"1163780\",\"2012-11-01 20:00\",\"2012\",\"11\",\"01\",\"20:00\",\"9.2\",\"\",\"5.9\",\"\",\"80\",\"\",\"\",\"\",\"27\",\"\",\"13\",\"\",\"48.3\",\"\",\"97.31\",\"\",\"\",\"\",\"\",\"\",\"Cloudy\"\r\n\"-120.44\",\"50.70\",\"KAMLOOPS
        A\",\"1163780\",\"2012-11-01 21:00\",\"2012\",\"11\",\"01\",\"21:00\",\"9.1\",\"\",\"6.0\",\"\",\"81\",\"\",\"\",\"\",\"27\",\"\",\"11\",\"\",\"64.4\",\"\",\"97.38\",\"\",\"\",\"\",\"\",\"\",\"Cloudy\"\r\n\"-120.44\",\"50.70\",\"KAMLOOPS
        A\",\"1163780\",\"2012-11-01 22:00\",\"2012\",\"11\",\"01\",\"22:00\",\"9.0\",\"\",\"6.1\",\"\",\"82\",\"\",\"\",\"\",\"27\",\"\",\"7\",\"\",\"48.3\",\"\",\"97.44\",\"\",\"\",\"\",\"\",\"\",\"Cloudy\"\r\n\"-120.44\",\"50.70\",\"KAMLOOPS
        A\",\"1163780\",\"2012-11-01 23:00\",\"2012\",\"11\",\"01\",\"23:00\",\"8.3\",\"\",\"6.4\",\"\",\"88\",\"\",\"\",\"\",\"11\",\"\",\"4\",\"\",\"48.3\",\"\",\"97.50\",\"\",\"\",\"\",\"\",\"\",\"Cloudy\"\r\n\"-120.44\",\"50.70\",\"KAMLOOPS
        A\",\"1163780\",\"2012-11-02 00:00\",\"2012\",\"11\",\"02\",\"00:00\",\"8.2\",\"\",\"6.8\",\"\",\"91\",\"\",\"\",\"\",\"10\",\"\",\"6\",\"\",\"48.3\",\"\",\"97.53\",\"\",\"\",\"\",\"\",\"\",\"Cloudy\"\r\n\"-120.44\",\"50.70\",\"KAMLOOPS
        A\",\"1163780\",\"2012-11-02 01:00\",\"2012\",\"11\",\"02\",\"01:00\",\"7.6\",\"\",\"6.4\",\"\",\"92\",\"\",\"\",\"\",\"\",\"\",\"0\",\"\",\"64.4\",\"\",\"97.53\",\"\",\"\",\"\",\"\",\"\",\"Cloudy\"\r\n\"-120.44\",\"50.70\",\"KAMLOOPS
        A\",\"1163780\",\"2012-11-02 02:00\",\"2012\",\"11\",\"02\",\"02:00\",\"7.7\",\"\",\"6.8\",\"\",\"94\",\"\",\"\",\"\",\"9\",\"\",\"6\",\"\",\"64.4\",\"\",\"97.56\",\"\",\"\",\"\",\"\",\"\",\"Cloudy\"\r\n\"-120.44\",\"50.70\",\"KAMLOOPS
        A\",\"1163780\",\"2012-11-02 03:00\",\"2012\",\"11\",\"02\",\"03:00\",\"6.9\",\"\",\"5.1\",\"\",\"88\",\"\",\"\",\"\",\"9\",\"\",\"9\",\"\",\"64.4\",\"\",\"97.56\",\"\",\"\",\"\",\"\",\"\",\"Cloudy\"\r\n\"-120.44\",\"50.70\",\"KAMLOOPS
        A\",\"1163780\",\"2012-11-02 04:00\",\"2012\",\"11\",\"02\",\"04:00\",\"7.1\",\"\",\"5.4\",\"\",\"89\",\"\",\"\",\"\",\"11\",\"\",\"7\",\"\",\"64.4\",\"\",\"97.58\",\"\",\"\",\"\",\"\",\"\",\"Mostly
        Cloudy\"\r\n\"-120.44\",\"50.70\",\"KAMLOOPS A\",\"1163780\",\"2012-11-02
        05:00\",\"2012\",\"11\",\"02\",\"05:00\",\"6.7\",\"\",\"5.7\",\"\",\"93\",\"\",\"\",\"\",\"\",\"\",\"0\",\"\",\"24.1\",\"\",\"97.62\",\"\",\"\",\"\",\"\",\"\",\"Cloudy\"\r\n\"-120.44\",\"50.70\",\"KAMLOOPS
        A\",\"1163780\",\"2012-11-02 06:00\",\"2012\",\"11\",\"02\",\"06:00\",\"6.8\",\"\",\"5.5\",\"\",\"91\",\"\",\"\",\"\",\"\",\"\",\"0\",\"\",\"48.3\",\"\",\"97.62\",\"\",\"\",\"\",\"\",\"\",\"Mostly
        Cloudy\"\r\n\"-120.44\",\"50.70\",\"KAMLOOPS A\",\"1163780\",\"2012-11-02
        07:00\",\"2012\",\"11\",\"02\",\"07:00\",\"6.3\",\"\",\"5.1\",\"\",\"92\",\"\",\"\",\"\",\"\",\"\",\"0\",\"\",\"32.2\",\"\",\"97.65\",\"\",\"\",\"\",\"\",\"\",\"Mostly
        Cloudy\"\r\n\"-120.44\",\"50.70\",\"KAMLOOPS A\",\"1163780\",\"2012-11-02
        08:00\",\"2012\",\"11\",\"02\",\"08:00\",\"7.2\",\"\",\"6.0\",\"\",\"92\",\"\",\"\",\"\",\"\",\"\",\"0\",\"\",\"32.2\",\"\",\"97.67\",\"\",\"\",\"\",\"\",\"\",\"Mostly
        Cloudy\"\r\n\"-120.44\",\"50.70\",\"KAMLOOPS A\",\"1163780\",\"2012-11-02
        09:00\",\"2012\",\"11\",\"02\",\"09:00\",\"8.2\",\"\",\"6.4\",\"\",\"88\",\"\",\"\",\"\",\"9\",\"\",\"6\",\"\",\"40.2\",\"\",\"97.69\",\"\",\"\",\"\",\"\",\"\",\"Mostly
        Cloudy\"\r\n\"-120.44\",\"50.70\",\"KAMLOOPS A\",\"1163780\",\"2012-11-02
        10:00\",\"2012\",\"11\",\"02\",\"10:00\",\"8.4\",\"\",\"6.5\",\"\",\"88\",\"\",\"\",\"\",\"24\",\"\",\"4\",\"\",\"48.3\",\"\",\"97.67\",\"\",\"\",\"\",\"\",\"\",\"Mostly
        Cloudy\"\r\n\"-120.44\",\"50.70\",\"KAMLOOPS A\",\"1163780\",\"2012-11-02
        11:00\",\"2012\",\"11\",\"02\",\"11:00\",\"10.4\",\"\",\"6.7\",\"\",\"78\",\"\",\"\",\"\",\"20\",\"\",\"4\",\"\",\"48.3\",\"\",\"97.64\",\"\",\"\",\"\",\"\",\"\",\"Mostly
        Cloudy\"\r\n\"-120.44\",\"50.70\",\"KAMLOOPS A\",\"1163780\",\"2012-11-02
        12:00\",\"2012\",\"11\",\"02\",\"12:00\",\"11.5\",\"\",\"7.8\",\"\",\"78\",\"\",\"\",\"\",\"\",\"\",\"0\",\"\",\"48.3\",\"\",\"97.57\",\"\",\"\",\"\",\"\",\"\",\"Mostly
        Cloudy\"\r\n\"-120.44\",\"50.70\",\"KAMLOOPS A\",\"1163780\",\"2012-11-02
        13:00\",\"2012\",\"11\",\"02\",\"13:00\",\"12.3\",\"\",\"7.4\",\"\",\"72\",\"\",\"\",\"\",\"20\",\"\",\"4\",\"\",\"56.3\",\"\",\"97.51\",\"\",\"\",\"\",\"\",\"\",\"Mostly
        Cloudy\"\r\n\"-120.44\",\"50.70\",\"KAMLOOPS A\",\"1163780\",\"2012-11-02
        14:00\",\"2012\",\"11\",\"02\",\"14:00\",\"13.0\",\"\",\"7.2\",\"\",\"68\",\"\",\"\",\"\",\"9\",\"\",\"30\",\"\",\"64.4\",\"\",\"97.44\",\"\",\"\",\"\",\"\",\"\",\"Mostly
        Cloudy\"\r\n\"-120.44\",\"50.70\",\"KAMLOOPS A\",\"1163780\",\"2012-11-02
        15:00\",\"2012\",\"11\",\"02\",\"15:00\",\"13.1\",\"\",\"6.6\",\"\",\"65\",\"\",\"\",\"\",\"10\",\"\",\"28\",\"\",\"64.4\",\"\",\"97.44\",\"\",\"\",\"\",\"\",\"\",\"Mostly
        Cloudy\"\r\n\"-120.44\",\"50.70\",\"KAMLOOPS A\",\"1163780\",\"2012-11-02
        16:00\",\"2012\",\"11\",\"02\",\"16:00\",\"12.4\",\"\",\"6.8\",\"\",\"69\",\"\",\"\",\"\",\"9\",\"\",\"17\",\"\",\"64.4\",\"\",\"97.44\",\"\",\"\",\"\",\"\",\"\",\"Mostly
        Cloudy\"\r\n\"-120.44\",\"50.70\",\"KAMLOOPS A\",\"1163780\",\"2012-11-02
        17:00\",\"2012\",\"11\",\"02\",\"17:00\",\"11.3\",\"\",\"6.6\",\"\",\"73\",\"\",\"\",\"\",\"6\",\"\",\"13\",\"\",\"64.4\",\"\",\"97.43\",\"\",\"\",\"\",\"\",\"\",\"Mostly
        Cloudy\"\r\n\"-120.44\",\"50.70\",\"KAMLOOPS A\",\"1163780\",\"2012-11-02
        18:00\",\"2012\",\"11\",\"02\",\"18:00\",\"10.7\",\"\",\"6.5\",\"\",\"75\",\"\",\"\",\"\",\"9\",\"\",\"13\",\"\",\"64.4\",\"\",\"97.44\",\"\",\"\",\"\",\"\",\"\",\"Mostly
        Cloudy\"\r\n\"-120.44\",\"50.70\",\"KAMLOOPS A\",\"1163780\",\"2012-11-02
        19:00\",\"2012\",\"11\",\"02\",\"19:00\",\"10.3\",\"\",\"6.5\",\"\",\"77\",\"\",\"\",\"\",\"7\",\"\",\"11\",\"\",\"64.4\",\"\",\"97.42\",\"\",\"\",\"\",\"\",\"\",\"Mostly
        Cloudy\"\r\n\"-120.44\",\"50.70\",\"KAMLOOPS A\",\"1163780\",\"2012-11-02
        20:00\",\"2012\",\"11\",\"02\",\"20:00\",\"10.3\",\"\",\"6.4\",\"\",\"77\",\"\",\"\",\"\",\"9\",\"\",\"15\",\"\",\"64.4\",\"\",\"97.42\",\"\",\"\",\"\",\"\",\"\",\"Mostly
        Cloudy\"\r\n\"-120.44\",\"50.70\",\"KAMLOOPS A\",\"1163780\",\"2012-11-02
        21:00\",\"2012\",\"11\",\"02\",\"21:00\",\"9.1\",\"\",\"6.6\",\"\",\"84\",\"\",\"\",\"\",\"9\",\"\",\"15\",\"\",\"64.4\",\"\",\"97.41\",\"\",\"\",\"\",\"\",\"\",\"Mostly
        Cloudy\"\r\n\"-120.44\",\"50.70\",\"KAMLOOPS A\",\"1163780\",\"2012-11-02
        22:00\",\"2012\",\"11\",\"02\",\"22:00\",\"9.5\",\"\",\"6.4\",\"\",\"81\",\"\",\"\",\"\",\"9\",\"\",\"13\",\"\",\"64.4\",\"\",\"97.40\",\"\",\"\",\"\",\"\",\"\",\"Mostly
        Cloudy\"\r\n\"-120.44\",\"50.70\",\"KAMLOOPS A\",\"1163780\",\"2012-11-02
        23:00\",\"2012\",\"11\",\"02\",\"23:00\",\"9.7\",\"\",\"6.5\",\"\",\"80\",\"\",\"\",\"\",\"10\",\"\",\"15\",\"\",\"64.4\",\"\",\"97.35\",\"\",\"\",\"\",\"\",\"\",\"Mostly
        Cloudy\"\r\n\"-120.44\",\"50.70\",\"KAMLOOPS A\",\"1163780\",\"2012-11-03
        00:00\",\"2012\",\"11\",\"03\",\"00:00\",\"9.1\",\"\",\"6.5\",\"\",\"84\",\"\",\"\",\"\",\"8\",\"\",\"17\",\"\",\"64.4\",\"\",\"97.36\",\"\",\"\",\"\",\"\",\"\",\"Cloudy\"\r\n\"-120.44\",\"50.70\",\"KAMLOOPS
        A\",\"1163780\",\"2012-11-03 01:00\",\"2012\",\"11\",\"03\",\"01:00\",\"10.0\",\"\",\"6.8\",\"\",\"80\",\"\",\"\",\"\",\"10\",\"\",\"15\",\"\",\"64.4\",\"\",\"97.35\",\"\",\"\",\"\",\"\",\"\",\"Cloudy\"\r\n\"-120.44\",\"50.70\",\"KAMLOOPS
        A\",\"1163780\",\"2012-11-03 02:00\",\"2012\",\"11\",\"03\",\"02:00\",\"9.3\",\"\",\"7.0\",\"\",\"86\",\"\",\"\",\"\",\"11\",\"\",\"15\",\"\",\"64.4\",\"\",\"97.30\",\"\",\"\",\"\",\"\",\"\",\"Cloudy\"\r\n\"-120.44\",\"50.70\",\"KAMLOOPS
        A\",\"1163780\",\"2012-11-03 03:00\",\"2012\",\"11\",\"03\",\"03:00\",\"9.0\",\"\",\"6.5\",\"\",\"84\",\"\",\"\",\"\",\"7\",\"\",\"11\",\"\",\"64.4\",\"\",\"97.26\",\"\",\"\",\"\",\"\",\"\",\"Cloudy\"\r\n\"-120.44\",\"50.70\",\"KAMLOOPS
        A\",\"1163780\",\"2012-11-03 04:00\",\"2012\",\"11\",\"03\",\"04:00\",\"9.3\",\"\",\"6.8\",\"\",\"84\",\"\",\"\",\"\",\"8\",\"\",\"15\",\"\",\"64.4\",\"\",\"97.28\",\"\",\"\",\"\",\"\",\"\",\"Mostly
        Cloudy\"\r\n\"-120.44\",\"50.70\",\"KAMLOOPS A\",\"1163780\",\"2012-11-03
        05:00\",\"2012\",\"11\",\"03\",\"05:00\",\"10.2\",\"\",\"6.8\",\"\",\"79\",\"\",\"\",\"\",\"10\",\"\",\"33\",\"\",\"64.4\",\"\",\"97.22\",\"\",\"\",\"\",\"\",\"\",\"Mostly
        Cloudy\"\r\n\"-120.44\",\"50.70\",\"KAMLOOPS A\",\"1163780\",\"2012-11-03
        06:00\",\"2012\",\"11\",\"03\",\"06:00\",\"10.0\",\"\",\"6.8\",\"\",\"80\",\"\",\"\",\"\",\"9\",\"\",\"30\",\"\",\"64.4\",\"\",\"97.16\",\"\",\"\",\"\",\"\",\"\",\"Mostly
        Cloudy\"\r\n\"-120.44\",\"50.70\",\"KAMLOOPS A\",\"1163780\",\"2012-11-03
        07:00\",\"2012\",\"11\",\"03\",\"07:00\",\"10.2\",\"\",\"6.7\",\"\",\"79\",\"\",\"\",\"\",\"10\",\"\",\"20\",\"\",\"64.4\",\"\",\"97.15\",\"\",\"\",\"\",\"\",\"\",\"Mostly
        Cloudy\"\r\n\"-120.44\",\"50.70\",\"KAMLOOPS A\",\"1163780\",\"2012-11-03
        08:00\",\"2012\",\"11\",\"03\",\"08:00\",\"9.8\",\"\",\"6.9\",\"\",\"82\",\"\",\"\",\"\",\"8\",\"\",\"17\",\"\",\"64.4\",\"\",\"97.18\",\"\",\"\",\"\",\"\",\"\",\"Cloudy\"\r\n\"-120.44\",\"50.70\",\"KAMLOOPS
        A\",\"1163780\",\"2012-11-03 09:00\",\"2012\",\"11\",\"03\",\"09:00\",\"10.4\",\"\",\"7.3\",\"\",\"81\",\"\",\"\",\"\",\"7\",\"\",\"20\",\"\",\"64.4\",\"\",\"97.15\",\"\",\"\",\"\",\"\",\"\",\"Mostly
        Cloudy\"\r\n\"-120.44\",\"50.70\",\"KAMLOOPS A\",\"1163780\",\"2012-11-03
        10:00\",\"2012\",\"11\",\"03\",\"10:00\",\"11.1\",\"\",\"7.3\",\"\",\"77\",\"\",\"\",\"\",\"9\",\"\",\"24\",\"\",\"64.4\",\"\",\"97.15\",\"\",\"\",\"\",\"\",\"\",\"Mostly
        Cloudy\"\r\n\"-120.44\",\"50.70\",\"KAMLOOPS A\",\"1163780\",\"2012-11-03
        11:00\",\"2012\",\"11\",\"03\",\"11:00\",\"11.8\",\"\",\"7.7\",\"\",\"76\",\"\",\"\",\"\",\"11\",\"\",\"41\",\"\",\"64.4\",\"\",\"97.09\",\"\",\"\",\"\",\"\",\"\",\"Mostly
        Cloudy\"\r\n\"-120.44\",\"50.70\",\"KAMLOOPS A\",\"1163780\",\"2012-11-03
        12:00\",\"2012\",\"11\",\"03\",\"12:00\",\"12.5\",\"\",\"7.6\",\"\",\"72\",\"\",\"\",\"\",\"9\",\"\",\"22\",\"\",\"64.4\",\"\",\"97.09\",\"\",\"\",\"\",\"\",\"\",\"Mostly
        Cloudy\"\r\n\"-120.44\",\"50.70\",\"KAMLOOPS A\",\"1163780\",\"2012-11-03
        13:00\",\"2012\",\"11\",\"03\",\"13:00\",\"12.8\",\"\",\"8.0\",\"\",\"73\",\"\",\"\",\"\",\"7\",\"\",\"17\",\"\",\"48.3\",\"\",\"97.14\",\"\",\"\",\"\",\"\",\"\",\"Rain
        Showers\"\r\n\"-120.44\",\"50.70\",\"KAMLOOPS A\",\"1163780\",\"2012-11-03
        14:00\",\"2012\",\"11\",\"03\",\"14:00\",\"11.8\",\"\",\"8.1\",\"\",\"78\",\"\",\"\",\"\",\"7\",\"\",\"11\",\"\",\"64.4\",\"\",\"97.22\",\"\",\"\",\"\",\"\",\"\",\"Cloudy\"\r\n\"-120.44\",\"50.70\",\"KAMLOOPS
        A\",\"1163780\",\"2012-11-03 15:00\",\"2012\",\"11\",\"03\",\"15:00\",\"11.5\",\"\",\"8.1\",\"\",\"80\",\"\",\"\",\"\",\"4\",\"\",\"9\",\"\",\"64.4\",\"\",\"97.26\",\"\",\"\",\"\",\"\",\"\",\"Cloudy\"\r\n\"-120.44\",\"50.70\",\"KAMLOOPS
        A\",\"1163780\",\"2012-11-03 16:00\",\"2012\",\"11\",\"03\",\"16:00\",\"11.0\",\"\",\"8.0\",\"\",\"82\",\"\",\"\",\"\",\"11\",\"\",\"9\",\"\",\"64.4\",\"\",\"97.29\",\"\",\"\",\"\",\"\",\"\",\"Cloudy\"\r\n\"-120.44\",\"50.70\",\"KAMLOOPS
        A\",\"1163780\",\"2012-11-03 17:00\",\"2012\",\"11\",\"03\",\"17:00\",\"10.0\",\"\",\"8.2\",\"\",\"89\",\"\",\"\",\"\",\"21\",\"\",\"6\",\"\",\"64.4\",\"\",\"97.40\",\"\",\"\",\"\",\"\",\"\",\"Mostly
        Cloudy\"\r\n\"-120.44\",\"50.70\",\"KAMLOOPS A\",\"1163780\",\"2012-11-03
        18:00\",\"2012\",\"11\",\"03\",\"18:00\",\"10.4\",\"\",\"8.1\",\"\",\"86\",\"\",\"\",\"\",\"\",\"\",\"0\",\"\",\"64.4\",\"\",\"97.43\",\"\",\"\",\"\",\"\",\"\",\"Cloudy\"\r\n\"-120.44\",\"50.70\",\"KAMLOOPS
        A\",\"1163780\",\"2012-11-03 19:00\",\"2012\",\"11\",\"03\",\"19:00\",\"9.5\",\"\",\"8.1\",\"\",\"91\",\"\",\"\",\"\",\"26\",\"\",\"6\",\"\",\"64.4\",\"\",\"97.48\",\"\",\"\",\"\",\"\",\"\",\"Cloudy\"\r\n\"-120.44\",\"50.70\",\"KAMLOOPS
        A\",\"1163780\",\"2012-11-03 20:00\",\"2012\",\"11\",\"03\",\"20:00\",\"9.8\",\"\",\"7.6\",\"\",\"86\",\"\",\"\",\"\",\"22\",\"\",\"4\",\"\",\"64.4\",\"\",\"97.54\",\"\",\"\",\"\",\"\",\"\",\"Cloudy\"\r\n\"-120.44\",\"50.70\",\"KAMLOOPS
        A\",\"1163780\",\"2012-11-03 21:00\",\"2012\",\"11\",\"03\",\"21:00\",\"9.9\",\"\",\"6.6\",\"\",\"80\",\"\",\"\",\"\",\"24\",\"\",\"7\",\"\",\"64.4\",\"\",\"97.65\",\"\",\"\",\"\",\"\",\"\",\"Mostly
        Cloudy\"\r\n\"-120.44\",\"50.70\",\"KAMLOOPS A\",\"1163780\",\"2012-11-03
        22:00\",\"2012\",\"11\",\"03\",\"22:00\",\"8.0\",\"\",\"6.0\",\"\",\"87\",\"\",\"\",\"\",\"27\",\"\",\"7\",\"\",\"64.4\",\"\",\"97.72\",\"\",\"\",\"\",\"\",\"\",\"Mostly
        Cloudy\"\r\n\"-120.44\",\"50.70\",\"KAMLOOPS A\",\"1163780\",\"2012-11-03
        23:00\",\"2012\",\"11\",\"03\",\"23:00\",\"8.4\",\"\",\"5.6\",\"\",\"83\",\"\",\"\",\"\",\"25\",\"\",\"9\",\"\",\"64.4\",\"\",\"97.80\",\"\",\"\",\"\",\"\",\"\",\"Mostly
        Cloudy\"\r\n\"-120.44\",\"50.70\",\"KAMLOOPS A\",\"1163780\",\"2012-11-04
        00:00\",\"2012\",\"11\",\"04\",\"00:00\",\"6.6\",\"\",\"5.4\",\"\",\"92\",\"\",\"\",\"\",\"32\",\"\",\"4\",\"\",\"64.4\",\"\",\"97.88\",\"\",\"\",\"\",\"\",\"\",\"Cloudy\"\r\n\"-120.44\",\"50.70\",\"KAMLOOPS
        A\",\"1163780\",\"2012-11-04 01:00\",\"2012\",\"11\",\"04\",\"01:00\",\"6.1\",\"\",\"5.1\",\"\",\"93\",\"\",\"\",\"\",\"4\",\"\",\"7\",\"\",\"64.4\",\"\",\"97.91\",\"\",\"\",\"\",\"\",\"\",\"Mostly
        Cloudy\"\r\n\"-120.44\",\"50.70\",\"KAMLOOPS A\",\"1163780\",\"2012-11-04
        02:00\",\"2012\",\"11\",\"04\",\"02:00\",\"7.5\",\"\",\"6.9\",\"\",\"96\",\"\",\"\",\"\",\"6\",\"\",\"7\",\"\",\"32.2\",\"\",\"97.98\",\"\",\"\",\"\",\"\",\"\",\"Cloudy\"\r\n\"-120.44\",\"50.70\",\"KAMLOOPS
        A\",\"1163780\",\"2012-11-04 03:00\",\"2012\",\"11\",\"04\",\"03:00\",\"7.8\",\"\",\"7.2\",\"\",\"96\",\"\",\"\",\"\",\"14\",\"\",\"4\",\"\",\"32.2\",\"\",\"98.04\",\"\",\"\",\"\",\"\",\"\",\"Cloudy\"\r\n\"-120.44\",\"50.70\",\"KAMLOOPS
        A\",\"1163780\",\"2012-11-04 04:00\",\"2012\",\"11\",\"04\",\"04:00\",\"7.2\",\"\",\"6.2\",\"\",\"93\",\"\",\"\",\"\",\"8\",\"\",\"9\",\"\",\"32.2\",\"\",\"98.02\",\"\",\"\",\"\",\"\",\"\",\"Cloudy\"\r\n\"-120.44\",\"50.70\",\"KAMLOOPS
        A\",\"1163780\",\"2012-11-04 05:00\",\"2012\",\"11\",\"04\",\"05:00\",\"7.9\",\"\",\"6.1\",\"\",\"88\",\"\",\"\",\"\",\"10\",\"\",\"15\",\"\",\"32.2\",\"\",\"98.07\",\"\",\"\",\"\",\"\",\"\",\"Cloudy\"\r\n\"-120.44\",\"50.70\",\"KAMLOOPS
        A\",\"1163780\",\"2012-11-04 06:00\",\"2012\",\"11\",\"04\",\"06:00\",\"7.3\",\"\",\"5.9\",\"\",\"91\",\"\",\"\",\"\",\"11\",\"\",\"17\",\"\",\"24.1\",\"\",\"98.08\",\"\",\"\",\"\",\"\",\"\",\"Cloudy\"\r\n\"-120.44\",\"50.70\",\"KAMLOOPS
        A\",\"1163780\",\"2012-11-04 07:00\",\"2012\",\"11\",\"04\",\"07:00\",\"7.5\",\"\",\"6.3\",\"\",\"92\",\"\",\"\",\"\",\"9\",\"\",\"22\",\"\",\"24.1\",\"\",\"98.04\",\"\",\"\",\"\",\"\",\"\",\"Rain
        Showers\"\r\n\"-120.44\",\"50.70\",\"KAMLOOPS A\",\"1163780\",\"2012-11-04
        08:00\",\"2012\",\"11\",\"04\",\"08:00\",\"8.4\",\"\",\"6.9\",\"\",\"90\",\"\",\"\",\"\",\"11\",\"\",\"28\",\"\",\"32.2\",\"\",\"98.04\",\"\",\"\",\"\",\"\",\"\",\"Cloudy\"\r\n\"-120.44\",\"50.70\",\"KAMLOOPS
        A\",\"1163780\",\"2012-11-04 09:00\",\"2012\",\"11\",\"04\",\"09:00\",\"8.2\",\"\",\"6.8\",\"\",\"91\",\"\",\"\",\"\",\"10\",\"\",\"26\",\"\",\"48.3\",\"\",\"98.01\",\"\",\"\",\"\",\"\",\"\",\"Cloudy\"\r\n\"-120.44\",\"50.70\",\"KAMLOOPS
        A\",\"1163780\",\"2012-11-04 10:00\",\"2012\",\"11\",\"04\",\"10:00\",\"9.1\",\"\",\"7.5\",\"\",\"90\",\"\",\"\",\"\",\"9\",\"\",\"19\",\"\",\"64.4\",\"\",\"97.94\",\"\",\"\",\"\",\"\",\"\",\"Cloudy\"\r\n\"-120.44\",\"50.70\",\"KAMLOOPS
        A\",\"1163780\",\"2012-11-04 11:00\",\"2012\",\"11\",\"04\",\"11:00\",\"10.3\",\"\",\"8.3\",\"\",\"87\",\"\",\"\",\"\",\"10\",\"\",\"22\",\"\",\"64.4\",\"\",\"97.90\",\"\",\"\",\"\",\"\",\"\",\"Cloudy\"\r\n\"-120.44\",\"50.70\",\"KAMLOOPS
        A\",\"1163780\",\"2012-11-04 12:00\",\"2012\",\"11\",\"04\",\"12:00\",\"11.1\",\"\",\"8.3\",\"\",\"83\",\"\",\"\",\"\",\"10\",\"\",\"28\",\"\",\"64.4\",\"\",\"97.85\",\"\",\"\",\"\",\"\",\"\",\"Cloudy\"\r\n\"-120.44\",\"50.70\",\"KAMLOOPS
        A\",\"1163780\",\"2012-11-04 13:00\",\"2012\",\"11\",\"04\",\"13:00\",\"11.1\",\"\",\"8.5\",\"\",\"84\",\"\",\"\",\"\",\"9\",\"\",\"28\",\"\",\"64.4\",\"\",\"97.76\",\"\",\"\",\"\",\"\",\"\",\"Cloudy\"\r\n\"-120.44\",\"50.70\",\"KAMLOOPS
        A\",\"1163780\",\"2012-11-04 14:00\",\"2012\",\"11\",\"04\",\"14:00\",\"11.6\",\"\",\"8.1\",\"\",\"79\",\"\",\"\",\"\",\"11\",\"\",\"28\",\"\",\"64.4\",\"\",\"97.76\",\"\",\"\",\"\",\"\",\"\",\"Cloudy\"\r\n\"-120.44\",\"50.70\",\"KAMLOOPS
        A\",\"1163780\",\"2012-11-04 15:00\",\"2012\",\"11\",\"04\",\"15:00\",\"12.5\",\"\",\"8.5\",\"\",\"77\",\"\",\"\",\"\",\"11\",\"\",\"30\",\"\",\"64.4\",\"\",\"97.66\",\"\",\"\",\"\",\"\",\"\",\"Cloudy\"\r\n\"-120.44\",\"50.70\",\"KAMLOOPS
        A\",\"1163780\",\"2012-11-04 16:00\",\"2012\",\"11\",\"04\",\"16:00\",\"12.8\",\"\",\"8.5\",\"\",\"75\",\"\",\"\",\"\",\"10\",\"\",\"35\",\"\",\"64.4\",\"\",\"97.61\",\"\",\"\",\"\",\"\",\"\",\"Mostly
        Cloudy\"\r\n\"-120.44\",\"50.70\",\"KAMLOOPS A\",\"1163780\",\"2012-11-04
        17:00\",\"2012\",\"11\",\"04\",\"17:00\",\"12.9\",\"\",\"8.1\",\"\",\"73\",\"\",\"\",\"\",\"11\",\"\",\"37\",\"\",\"64.4\",\"\",\"97.58\",\"\",\"\",\"\",\"\",\"\",\"Mostly
        Cloudy\"\r\n\"-120.44\",\"50.70\",\"KAMLOOPS A\",\"1163780\",\"2012-11-04
        18:00\",\"2012\",\"11\",\"04\",\"18:00\",\"12.8\",\"\",\"8.4\",\"\",\"75\",\"\",\"\",\"\",\"11\",\"\",\"41\",\"\",\"64.4\",\"\",\"97.50\",\"\",\"\",\"\",\"\",\"\",\"Mostly
        Cloudy\"\r\n\"-120.44\",\"50.70\",\"KAMLOOPS A\",\"1163780\",\"2012-11-04
        19:00\",\"2012\",\"11\",\"04\",\"19:00\",\"13.3\",\"\",\"8.5\",\"\",\"73\",\"\",\"\",\"\",\"11\",\"\",\"35\",\"\",\"64.4\",\"\",\"97.54\",\"\",\"\",\"\",\"\",\"\",\"Mostly
        Cloudy\"\r\n\"-120.44\",\"50.70\",\"KAMLOOPS A\",\"1163780\",\"2012-11-04
        20:00\",\"2012\",\"11\",\"04\",\"20:00\",\"12.9\",\"\",\"8.4\",\"\",\"74\",\"\",\"\",\"\",\"11\",\"\",\"35\",\"\",\"64.4\",\"\",\"97.46\",\"\",\"\",\"\",\"\",\"\",\"Mostly
        Cloudy\"\r\n\"-120.44\",\"50.70\",\"KAMLOOPS A\",\"1163780\",\"2012-11-04
        21:00\",\"2012\",\"11\",\"04\",\"21:00\",\"12.4\",\"\",\"8.3\",\"\",\"76\",\"\",\"\",\"\",\"12\",\"\",\"46\",\"\",\"64.4\",\"\",\"97.32\",\"\",\"\",\"\",\"\",\"\",\"Mainly
        Clear\"\r\n\"-120.44\",\"50.70\",\"KAMLOOPS A\",\"1163780\",\"2012-11-04 22:00\",\"2012\",\"11\",\"04\",\"22:00\",\"12.6\",\"\",\"8.8\",\"\",\"78\",\"\",\"\",\"\",\"9\",\"\",\"26\",\"\",\"64.4\",\"\",\"97.33\",\"\",\"\",\"\",\"\",\"\",\"Mostly
        Cloudy\"\r\n\"-120.44\",\"50.70\",\"KAMLOOPS A\",\"1163780\",\"2012-11-04
        23:00\",\"2012\",\"11\",\"04\",\"23:00\",\"11.4\",\"\",\"8.5\",\"\",\"82\",\"\",\"\",\"\",\"9\",\"\",\"7\",\"\",\"64.4\",\"\",\"97.36\",\"\",\"\",\"\",\"\",\"\",\"Mostly
        Cloudy\"\r\n\"-120.44\",\"50.70\",\"KAMLOOPS A\",\"1163780\",\"2012-11-05
        00:00\",\"2012\",\"11\",\"05\",\"00:00\",\"11.9\",\"\",\"8.4\",\"\",\"79\",\"\",\"\",\"\",\"11\",\"\",\"17\",\"\",\"64.4\",\"\",\"97.39\",\"\",\"\",\"\",\"\",\"\",\"Mostly
        Cloudy\"\r\n\"-120.44\",\"50.70\",\"KAMLOOPS A\",\"1163780\",\"2012-11-05
        01:00\",\"2012\",\"11\",\"05\",\"01:00\",\"11.1\",\"\",\"8.2\",\"\",\"82\",\"\",\"\",\"\",\"31\",\"\",\"4\",\"\",\"64.4\",\"\",\"97.45\",\"\",\"\",\"\",\"\",\"\",\"Mostly
        Cloudy\"\r\n\"-120.44\",\"50.70\",\"KAMLOOPS A\",\"1163780\",\"2012-11-05
        02:00\",\"2012\",\"11\",\"05\",\"02:00\",\"12.1\",\"\",\"7.7\",\"\",\"74\",\"\",\"\",\"\",\"17\",\"\",\"9\",\"\",\"64.4\",\"\",\"97.54\",\"\",\"\",\"\",\"\",\"\",\"Mostly
        Cloudy\"\r\n\"-120.44\",\"50.70\",\"KAMLOOPS A\",\"1163780\",\"2012-11-05
        03:00\",\"2012\",\"11\",\"05\",\"03:00\",\"16.3\",\"\",\"1.1\",\"\",\"36\",\"\",\"\",\"\",\"23\",\"\",\"35\",\"\",\"64.4\",\"\",\"97.53\",\"\",\"\",\"\",\"\",\"\",\"Mostly
        Cloudy\"\r\n\"-120.44\",\"50.70\",\"KAMLOOPS A\",\"1163780\",\"2012-11-05
        04:00\",\"2012\",\"11\",\"05\",\"04:00\",\"16.5\",\"\",\"0.8\",\"\",\"34\",\"\",\"\",\"\",\"24\",\"\",\"20\",\"\",\"64.4\",\"\",\"97.62\",\"\",\"\",\"\",\"\",\"\",\"Cloudy\"\r\n\"-120.44\",\"50.70\",\"KAMLOOPS
        A\",\"1163780\",\"2012-11-05 05:00\",\"2012\",\"11\",\"05\",\"05:00\",\"15.5\",\"\",\"0.6\",\"\",\"36\",\"\",\"\",\"\",\"24\",\"\",\"7\",\"\",\"64.4\",\"\",\"97.70\",\"\",\"\",\"\",\"\",\"\",\"Cloudy\"\r\n\"-120.44\",\"50.70\",\"KAMLOOPS
        A\",\"1163780\",\"2012-11-05 06:00\",\"2012\",\"11\",\"05\",\"06:00\",\"14.5\",\"\",\"0.4\",\"\",\"38\",\"\",\"\",\"\",\"22\",\"\",\"30\",\"\",\"64.4\",\"\",\"97.78\",\"\",\"\",\"\",\"\",\"\",\"Mostly
        Cloudy\"\r\n\"-120.44\",\"50.70\",\"KAMLOOPS A\",\"1163780\",\"2012-11-05
        07:00\",\"2012\",\"11\",\"05\",\"07:00\",\"13.5\",\"\",\"0.1\",\"\",\"40\",\"\",\"\",\"\",\"\",\"\",\"0\",\"\",\"64.4\",\"\",\"97.92\",\"\",\"\",\"\",\"\",\"\",\"Mostly
        Cloudy\"\r\n\"-120.44\",\"50.70\",\"KAMLOOPS A\",\"1163780\",\"2012-11-05
        08:00\",\"2012\",\"11\",\"05\",\"08:00\",\"13.0\",\"\",\"0.3\",\"\",\"42\",\"\",\"\",\"\",\"19\",\"\",\"13\",\"\",\"64.4\",\"\",\"98.05\",\"\",\"\",\"\",\"\",\"\",\"Mostly
        Cloudy\"\r\n\"-120.44\",\"50.70\",\"KAMLOOPS A\",\"1163780\",\"2012-11-05
        09:00\",\"2012\",\"11\",\"05\",\"09:00\",\"13.0\",\"\",\"1.3\",\"\",\"45\",\"\",\"\",\"\",\"7\",\"\",\"9\",\"\",\"64.4\",\"\",\"98.16\",\"\",\"\",\"\",\"\",\"\",\"Mostly
        Cloudy\"\r\n\"-120.44\",\"50.70\",\"KAMLOOPS A\",\"1163780\",\"2012-11-05
        10:00\",\"2012\",\"11\",\"05\",\"10:00\",\"14.9\",\"\",\"1.2\",\"\",\"39\",\"\",\"\",\"\",\"13\",\"\",\"6\",\"\",\"64.4\",\"\",\"98.22\",\"\",\"\",\"\",\"\",\"\",\"Mostly
        Cloudy\"\r\n\"-120.44\",\"50.70\",\"KAMLOOPS A\",\"1163780\",\"2012-11-05
        11:00\",\"2012\",\"11\",\"05\",\"11:00\",\"15.5\",\"\",\"1.4\",\"\",\"38\",\"\",\"\",\"\",\"16\",\"\",\"6\",\"\",\"64.4\",\"\",\"98.24\",\"\",\"\",\"\",\"\",\"\",\"Mostly
        Cloudy\"\r\n\"-120.44\",\"50.70\",\"KAMLOOPS A\",\"1163780\",\"2012-11-05
        12:00\",\"2012\",\"11\",\"05\",\"12:00\",\"15.6\",\"\",\"1.0\",\"\",\"37\",\"\",\"\",\"\",\"\",\"\",\"0\",\"\",\"64.4\",\"\",\"98.22\",\"\",\"\",\"\",\"\",\"\",\"Mostly
        Cloudy\"\r\n\"-120.44\",\"50.70\",\"KAMLOOPS A\",\"1163780\",\"2012-11-05
        13:00\",\"2012\",\"11\",\"05\",\"13:00\",\"15.4\",\"\",\"0.7\",\"\",\"37\",\"\",\"\",\"\",\"8\",\"\",\"13\",\"\",\"64.4\",\"\",\"98.24\",\"\",\"\",\"\",\"\",\"\",\"Mostly
        Cloudy\"\r\n\"-120.44\",\"50.70\",\"KAMLOOPS A\",\"1163780\",\"2012-11-05
        14:00\",\"2012\",\"11\",\"05\",\"14:00\",\"14.9\",\"\",\"1.4\",\"\",\"40\",\"\",\"\",\"\",\"11\",\"\",\"6\",\"\",\"64.4\",\"\",\"98.27\",\"\",\"\",\"\",\"\",\"\",\"Mostly
        Cloudy\"\r\n\"-120.44\",\"50.70\",\"KAMLOOPS A\",\"1163780\",\"2012-11-05
        15:00\",\"2012\",\"11\",\"05\",\"15:00\",\"15.2\",\"\",\"0.9\",\"\",\"38\",\"\",\"\",\"\",\"14\",\"\",\"7\",\"\",\"64.4\",\"\",\"98.25\",\"\",\"\",\"\",\"\",\"\",\"Mostly
        Cloudy\"\r\n\"-120.44\",\"50.70\",\"KAMLOOPS A\",\"1163780\",\"2012-11-05
        16:00\",\"2012\",\"11\",\"05\",\"16:00\",\"13.9\",\"\",\"1.5\",\"\",\"43\",\"\",\"\",\"\",\"13\",\"\",\"6\",\"\",\"64.4\",\"\",\"98.23\",\"\",\"\",\"\",\"\",\"\",\"Mostly
        Cloudy\"\r\n\"-120.44\",\"50.70\",\"KAMLOOPS A\",\"1163780\",\"2012-11-05
        17:00\",\"2012\",\"11\",\"05\",\"17:00\",\"13.0\",\"\",\"0.1\",\"\",\"41\",\"\",\"\",\"\",\"6\",\"\",\"15\",\"\",\"64.4\",\"\",\"98.21\",\"\",\"\",\"\",\"\",\"\",\"Mostly
        Cloudy\"\r\n\"-120.44\",\"50.70\",\"KAMLOOPS A\",\"1163780\",\"2012-11-05
        18:00\",\"2012\",\"11\",\"05\",\"18:00\",\"12.1\",\"\",\"1.1\",\"\",\"47\",\"\",\"\",\"\",\"11\",\"\",\"7\",\"\",\"64.4\",\"\",\"98.26\",\"\",\"\",\"\",\"\",\"\",\"Mostly
        Cloudy\"\r\n\"-120.44\",\"50.70\",\"KAMLOOPS A\",\"1163780\",\"2012-11-05
        19:00\",\"2012\",\"11\",\"05\",\"19:00\",\"10.8\",\"\",\"1.6\",\"\",\"53\",\"\",\"\",\"\",\"12\",\"\",\"7\",\"\",\"64.4\",\"\",\"98.21\",\"\",\"\",\"\",\"\",\"\",\"Cloudy\"\r\n\"-120.44\",\"50.70\",\"KAMLOOPS
        A\",\"1163780\",\"2012-11-05 20:00\",\"2012\",\"11\",\"05\",\"20:00\",\"10.4\",\"\",\"2.2\",\"\",\"57\",\"\",\"\",\"\",\"11\",\"\",\"17\",\"\",\"64.4\",\"\",\"98.18\",\"\",\"\",\"\",\"\",\"\",\"Cloudy\"\r\n\"-120.44\",\"50.70\",\"KAMLOOPS
        A\",\"1163780\",\"2012-11-05 21:00\",\"2012\",\"11\",\"05\",\"21:00\",\"10.0\",\"\",\"1.5\",\"\",\"55\",\"\",\"\",\"\",\"11\",\"\",\"19\",\"\",\"64.4\",\"\",\"98.14\",\"\",\"\",\"\",\"\",\"\",\"Cloudy\"\r\n\"-120.44\",\"50.70\",\"KAMLOOPS
        A\",\"1163780\",\"2012-11-05 22:00\",\"2012\",\"11\",\"05\",\"22:00\",\"9.8\",\"\",\"1.5\",\"\",\"56\",\"\",\"\",\"\",\"11\",\"\",\"15\",\"\",\"64.4\",\"\",\"98.08\",\"\",\"\",\"\",\"\",\"\",\"Cloudy\"\r\n\"-120.44\",\"50.70\",\"KAMLOOPS
        A\",\"1163780\",\"2012-11-05 23:00\",\"2012\",\"11\",\"05\",\"23:00\",\"9.0\",\"\",\"1.8\",\"\",\"61\",\"\",\"\",\"\",\"11\",\"\",\"19\",\"\",\"64.4\",\"\",\"98.03\",\"\",\"\",\"\",\"\",\"\",\"Cloudy\"\r\n\"-120.44\",\"50.70\",\"KAMLOOPS
        A\",\"1163780\",\"2012-11-06 00:00\",\"2012\",\"11\",\"06\",\"00:00\",\"8.6\",\"\",\"1.8\",\"\",\"62\",\"\",\"\",\"\",\"12\",\"\",\"17\",\"\",\"64.4\",\"\",\"98.06\",\"\",\"\",\"\",\"\",\"\",\"Cloudy\"\r\n\"-120.44\",\"50.70\",\"KAMLOOPS
        A\",\"1163780\",\"2012-11-06 01:00\",\"2012\",\"11\",\"06\",\"01:00\",\"8.5\",\"\",\"2.6\",\"\",\"66\",\"\",\"\",\"\",\"13\",\"\",\"13\",\"\",\"64.4\",\"\",\"98.04\",\"\",\"\",\"\",\"\",\"\",\"Cloudy\"\r\n\"-120.44\",\"50.70\",\"KAMLOOPS
        A\",\"1163780\",\"2012-11-06 02:00\",\"2012\",\"11\",\"06\",\"02:00\",\"8.2\",\"\",\"2.2\",\"\",\"66\",\"\",\"\",\"\",\"12\",\"\",\"19\",\"\",\"64.4\",\"\",\"98.01\",\"\",\"\",\"\",\"\",\"\",\"Cloudy\"\r\n\"-120.44\",\"50.70\",\"KAMLOOPS
        A\",\"1163780\",\"2012-11-06 03:00\",\"2012\",\"11\",\"06\",\"03:00\",\"7.6\",\"\",\"2.4\",\"\",\"70\",\"\",\"\",\"\",\"12\",\"\",\"17\",\"\",\"64.4\",\"\",\"97.93\",\"\",\"\",\"\",\"\",\"\",\"Cloudy\"\r\n\"-120.44\",\"50.70\",\"KAMLOOPS
        A\",\"1163780\",\"2012-11-06 04:00\",\"2012\",\"11\",\"06\",\"04:00\",\"7.3\",\"\",\"1.9\",\"\",\"69\",\"\",\"\",\"\",\"12\",\"\",\"15\",\"\",\"64.4\",\"\",\"97.86\",\"\",\"\",\"\",\"\",\"\",\"Cloudy\"\r\n\"-120.44\",\"50.70\",\"KAMLOOPS
        A\",\"1163780\",\"2012-11-06 05:00\",\"2012\",\"11\",\"06\",\"05:00\",\"7.5\",\"\",\"1.4\",\"\",\"65\",\"\",\"\",\"\",\"12\",\"\",\"15\",\"\",\"64.4\",\"\",\"97.83\",\"\",\"\",\"\",\"\",\"\",\"Cloudy\"\r\n\"-120.44\",\"50.70\",\"KAMLOOPS
        A\",\"1163780\",\"2012-11-06 06:00\",\"2012\",\"11\",\"06\",\"06:00\",\"7.2\",\"\",\"0.7\",\"\",\"63\",\"\",\"\",\"\",\"8\",\"\",\"11\",\"\",\"64.4\",\"\",\"97.78\",\"\",\"\",\"\",\"\",\"\",\"Cloudy\"\r\n\"-120.44\",\"50.70\",\"KAMLOOPS
        A\",\"1163780\",\"2012-11-06 07:00\",\"2012\",\"11\",\"06\",\"07:00\",\"7.1\",\"\",\"1.0\",\"\",\"65\",\"\",\"\",\"\",\"11\",\"\",\"15\",\"\",\"64.4\",\"\",\"97.77\",\"\",\"\",\"\",\"\",\"\",\"Cloudy\"\r\n\"-120.44\",\"50.70\",\"KAMLOOPS
        A\",\"1163780\",\"2012-11-06 08:00\",\"2012\",\"11\",\"06\",\"08:00\",\"6.5\",\"\",\"1.8\",\"\",\"72\",\"\",\"\",\"\",\"11\",\"\",\"19\",\"\",\"64.4\",\"\",\"97.74\",\"\",\"\",\"\",\"\",\"\",\"Cloudy\"\r\n\"-120.44\",\"50.70\",\"KAMLOOPS
        A\",\"1163780\",\"2012-11-06 09:00\",\"2012\",\"11\",\"06\",\"09:00\",\"6.7\",\"\",\"2.0\",\"\",\"72\",\"\",\"\",\"\",\"10\",\"\",\"19\",\"\",\"64.4\",\"\",\"97.63\",\"\",\"\",\"\",\"\",\"\",\"Cloudy\"\r\n\"-120.44\",\"50.70\",\"KAMLOOPS
        A\",\"1163780\",\"2012-11-06 10:00\",\"2012\",\"11\",\"06\",\"10:00\",\"6.7\",\"\",\"3.4\",\"\",\"79\",\"\",\"\",\"\",\"8\",\"\",\"26\",\"\",\"48.3\",\"\",\"97.54\",\"\",\"\",\"\",\"\",\"\",\"Rain
        Showers\"\r\n\"-120.44\",\"50.70\",\"KAMLOOPS A\",\"1163780\",\"2012-11-06
        11:00\",\"2012\",\"11\",\"06\",\"11:00\",\"6.9\",\"\",\"4.4\",\"\",\"84\",\"\",\"\",\"\",\"7\",\"\",\"30\",\"\",\"48.3\",\"\",\"97.42\",\"\",\"\",\"\",\"\",\"\",\"Rain
        Showers\"\r\n\"-120.44\",\"50.70\",\"KAMLOOPS A\",\"1163780\",\"2012-11-06
        12:00\",\"2012\",\"11\",\"06\",\"12:00\",\"7.5\",\"\",\"5.8\",\"\",\"89\",\"\",\"\",\"\",\"9\",\"\",\"32\",\"\",\"48.3\",\"\",\"97.28\",\"\",\"\",\"\",\"\",\"\",\"Rain
        Showers\"\r\n\"-120.44\",\"50.70\",\"KAMLOOPS A\",\"1163780\",\"2012-11-06
        13:00\",\"2012\",\"11\",\"06\",\"13:00\",\"7.7\",\"\",\"4.5\",\"\",\"80\",\"\",\"\",\"\",\"9\",\"\",\"26\",\"\",\"48.3\",\"\",\"97.14\",\"\",\"\",\"\",\"\",\"\",\"Cloudy\"\r\n\"-120.44\",\"50.70\",\"KAMLOOPS
        A\",\"1163780\",\"2012-11-06 14:00\",\"2012\",\"11\",\"06\",\"14:00\",\"8.1\",\"\",\"4.4\",\"\",\"77\",\"\",\"\",\"\",\"10\",\"\",\"20\",\"\",\"64.4\",\"\",\"97.06\",\"\",\"\",\"\",\"\",\"\",\"Cloudy\"\r\n\"-120.44\",\"50.70\",\"KAMLOOPS
        A\",\"1163780\",\"2012-11-06 15:00\",\"2012\",\"11\",\"06\",\"15:00\",\"9.0\",\"\",\"4.8\",\"\",\"75\",\"\",\"\",\"\",\"9\",\"\",\"22\",\"\",\"48.3\",\"\",\"96.98\",\"\",\"\",\"\",\"\",\"\",\"Cloudy\"\r\n\"-120.44\",\"50.70\",\"KAMLOOPS
        A\",\"1163780\",\"2012-11-06 16:00\",\"2012\",\"11\",\"06\",\"16:00\",\"8.6\",\"\",\"4.8\",\"\",\"77\",\"\",\"\",\"\",\"9\",\"\",\"11\",\"\",\"64.4\",\"\",\"96.97\",\"\",\"\",\"\",\"\",\"\",\"Mostly
        Cloudy\"\r\n\"-120.44\",\"50.70\",\"KAMLOOPS A\",\"1163780\",\"2012-11-06
        17:00\",\"2012\",\"11\",\"06\",\"17:00\",\"8.2\",\"\",\"5.3\",\"\",\"82\",\"\",\"\",\"\",\"12\",\"\",\"33\",\"\",\"64.4\",\"\",\"96.88\",\"\",\"\",\"\",\"\",\"\",\"Mostly
        Cloudy\"\r\n\"-120.44\",\"50.70\",\"KAMLOOPS A\",\"1163780\",\"2012-11-06
        18:00\",\"2012\",\"11\",\"06\",\"18:00\",\"7.6\",\"\",\"5.1\",\"\",\"84\",\"\",\"\",\"\",\"10\",\"\",\"30\",\"\",\"64.4\",\"\",\"96.82\",\"\",\"\",\"\",\"\",\"\",\"Mostly
        Cloudy\"\r\n\"-120.44\",\"50.70\",\"KAMLOOPS A\",\"1163780\",\"2012-11-06
        19:00\",\"2012\",\"11\",\"06\",\"19:00\",\"7.6\",\"\",\"5.1\",\"\",\"84\",\"\",\"\",\"\",\"11\",\"\",\"24\",\"\",\"64.4\",\"\",\"96.80\",\"\",\"\",\"\",\"\",\"\",\"Mainly
        Clear\"\r\n\"-120.44\",\"50.70\",\"KAMLOOPS A\",\"1163780\",\"2012-11-06 20:00\",\"2012\",\"11\",\"06\",\"20:00\",\"7.5\",\"\",\"5.5\",\"\",\"87\",\"\",\"\",\"\",\"11\",\"\",\"28\",\"\",\"64.4\",\"\",\"96.73\",\"\",\"\",\"\",\"\",\"\",\"Mainly
        Clear\"\r\n\"-120.44\",\"50.70\",\"KAMLOOPS A\",\"1163780\",\"2012-11-06 21:00\",\"2012\",\"11\",\"06\",\"21:00\",\"7.3\",\"\",\"5.5\",\"\",\"88\",\"\",\"\",\"\",\"11\",\"\",\"30\",\"\",\"64.4\",\"\",\"96.76\",\"\",\"\",\"\",\"\",\"\",\"Mainly
        Clear\"\r\n\"-120.44\",\"50.70\",\"KAMLOOPS A\",\"1163780\",\"2012-11-06 22:00\",\"2012\",\"11\",\"06\",\"22:00\",\"7.9\",\"\",\"4.6\",\"\",\"80\",\"\",\"\",\"\",\"9\",\"\",\"28\",\"\",\"64.4\",\"\",\"96.69\",\"\",\"\",\"\",\"\",\"\",\"Mainly
        Clear\"\r\n\"-120.44\",\"50.70\",\"KAMLOOPS A\",\"1163780\",\"2012-11-06 23:00\",\"2012\",\"11\",\"06\",\"23:00\",\"7.6\",\"\",\"4.8\",\"\",\"82\",\"\",\"\",\"\",\"12\",\"\",\"22\",\"\",\"64.4\",\"\",\"96.74\",\"\",\"\",\"\",\"\",\"\",\"Mainly
        Clear\"\r\n\"-120.44\",\"50.70\",\"KAMLOOPS A\",\"1163780\",\"2012-11-07 00:00\",\"2012\",\"11\",\"07\",\"00:00\",\"7.5\",\"\",\"4.9\",\"\",\"84\",\"\",\"\",\"\",\"12\",\"\",\"24\",\"\",\"64.4\",\"\",\"96.75\",\"\",\"\",\"\",\"\",\"\",\"Mainly
        Clear\"\r\n\"-120.44\",\"50.70\",\"KAMLOOPS A\",\"1163780\",\"2012-11-07 01:00\",\"2012\",\"11\",\"07\",\"01:00\",\"6.7\",\"\",\"4.0\",\"\",\"83\",\"\",\"\",\"\",\"\",\"\",\"0\",\"\",\"64.4\",\"\",\"96.77\",\"\",\"\",\"\",\"\",\"\",\"Mainly
        Clear\"\r\n\"-120.44\",\"50.70\",\"KAMLOOPS A\",\"1163780\",\"2012-11-07 02:00\",\"2012\",\"11\",\"07\",\"02:00\",\"6.6\",\"\",\"3.8\",\"\",\"82\",\"\",\"\",\"\",\"28\",\"\",\"7\",\"\",\"64.4\",\"\",\"96.78\",\"\",\"\",\"\",\"\",\"\",\"Mainly
        Clear\"\r\n\"-120.44\",\"50.70\",\"KAMLOOPS A\",\"1163780\",\"2012-11-07 03:00\",\"2012\",\"11\",\"07\",\"03:00\",\"5.8\",\"\",\"3.5\",\"\",\"85\",\"\",\"\",\"\",\"14\",\"\",\"6\",\"\",\"64.4\",\"\",\"96.81\",\"\",\"\",\"\",\"\",\"\",\"Mostly
        Cloudy\"\r\n\"-120.44\",\"50.70\",\"KAMLOOPS A\",\"1163780\",\"2012-11-07
        04:00\",\"2012\",\"11\",\"07\",\"04:00\",\"6.5\",\"\",\"3.0\",\"\",\"78\",\"\",\"\",\"\",\"23\",\"\",\"6\",\"\",\"64.4\",\"\",\"96.84\",\"\",\"\",\"\",\"\",\"\",\"Cloudy\"\r\n\"-120.44\",\"50.70\",\"KAMLOOPS
        A\",\"1163780\",\"2012-11-07 05:00\",\"2012\",\"11\",\"07\",\"05:00\",\"6.7\",\"\",\"3.6\",\"\",\"81\",\"\",\"\",\"\",\"28\",\"\",\"20\",\"\",\"48.3\",\"\",\"97.00\",\"\",\"\",\"\",\"\",\"\",\"Cloudy\"\r\n\"-120.44\",\"50.70\",\"KAMLOOPS
        A\",\"1163780\",\"2012-11-07 06:00\",\"2012\",\"11\",\"07\",\"06:00\",\"6.9\",\"\",\"2.2\",\"\",\"72\",\"\",\"\",\"\",\"34\",\"\",\"28\",\"\",\"48.3\",\"\",\"97.16\",\"\",\"\",\"\",\"\",\"\",\"Cloudy\"\r\n\"-120.44\",\"50.70\",\"KAMLOOPS
        A\",\"1163780\",\"2012-11-07 07:00\",\"2012\",\"11\",\"07\",\"07:00\",\"5.9\",\"\",\"2.6\",\"\",\"79\",\"\",\"\",\"\",\"27\",\"\",\"17\",\"\",\"48.3\",\"\",\"97.28\",\"\",\"\",\"\",\"\",\"\",\"Rain
        Showers\"\r\n\"-120.44\",\"50.70\",\"KAMLOOPS A\",\"1163780\",\"2012-11-07
        08:00\",\"2012\",\"11\",\"07\",\"08:00\",\"5.8\",\"\",\"2.9\",\"\",\"82\",\"\",\"\",\"\",\"23\",\"\",\"7\",\"\",\"32.2\",\"\",\"97.36\",\"\",\"\",\"\",\"\",\"\",\"Rain
        Showers\"\r\n\"-120.44\",\"50.70\",\"KAMLOOPS A\",\"1163780\",\"2012-11-07
        09:00\",\"2012\",\"11\",\"07\",\"09:00\",\"5.5\",\"\",\"2.3\",\"\",\"80\",\"\",\"\",\"\",\"32\",\"\",\"20\",\"\",\"32.2\",\"\",\"97.43\",\"\",\"\",\"\",\"\",\"\",\"Rain
        Showers\"\r\n\"-120.44\",\"50.70\",\"KAMLOOPS A\",\"1163780\",\"2012-11-07
        10:00\",\"2012\",\"11\",\"07\",\"10:00\",\"6.3\",\"\",\"2.6\",\"\",\"77\",\"\",\"\",\"\",\"23\",\"\",\"13\",\"\",\"48.3\",\"\",\"97.47\",\"\",\"\",\"\",\"\",\"\",\"Mostly
        Cloudy\"\r\n\"-120.44\",\"50.70\",\"KAMLOOPS A\",\"1163780\",\"2012-11-07
        11:00\",\"2012\",\"11\",\"07\",\"11:00\",\"6.9\",\"\",\"2.7\",\"\",\"75\",\"\",\"\",\"\",\"26\",\"\",\"13\",\"\",\"48.3\",\"\",\"97.51\",\"\",\"\",\"\",\"\",\"\",\"Mostly
        Cloudy\"\r\n\"-120.44\",\"50.70\",\"KAMLOOPS A\",\"1163780\",\"2012-11-07
        12:00\",\"2012\",\"11\",\"07\",\"12:00\",\"6.2\",\"\",\"1.0\",\"\",\"69\",\"\",\"\",\"\",\"27\",\"\",\"26\",\"\",\"48.3\",\"\",\"97.55\",\"\",\"\",\"\",\"\",\"\",\"Mostly
        Cloudy\"\r\n\"-120.44\",\"50.70\",\"KAMLOOPS A\",\"1163780\",\"2012-11-07
        13:00\",\"2012\",\"11\",\"07\",\"13:00\",\"7.5\",\"\",\"1.3\",\"\",\"65\",\"\",\"\",\"\",\"23\",\"\",\"22\",\"\",\"64.4\",\"\",\"97.54\",\"\",\"\",\"\",\"\",\"\",\"Mainly
        Clear\"\r\n\"-120.44\",\"50.70\",\"KAMLOOPS A\",\"1163780\",\"2012-11-07 14:00\",\"2012\",\"11\",\"07\",\"14:00\",\"7.5\",\"\",\"0.5\",\"\",\"61\",\"\",\"\",\"\",\"31\",\"\",\"9\",\"\",\"64.4\",\"\",\"97.56\",\"\",\"\",\"\",\"\",\"\",\"Mostly
        Cloudy\"\r\n\"-120.44\",\"50.70\",\"KAMLOOPS A\",\"1163780\",\"2012-11-07
        15:00\",\"2012\",\"11\",\"07\",\"15:00\",\"7.6\",\"\",\"0.3\",\"\",\"60\",\"\",\"\",\"\",\"30\",\"\",\"13\",\"\",\"64.4\",\"\",\"97.54\",\"\",\"\",\"\",\"\",\"\",\"Mainly
        Clear\"\r\n\"-120.44\",\"50.70\",\"KAMLOOPS A\",\"1163780\",\"2012-11-07 16:00\",\"2012\",\"11\",\"07\",\"16:00\",\"6.1\",\"\",\"0.8\",\"\",\"69\",\"\",\"\",\"\",\"28\",\"\",\"9\",\"\",\"64.4\",\"\",\"97.57\",\"\",\"\",\"\",\"\",\"\",\"Mostly
        Cloudy\"\r\n\"-120.44\",\"50.70\",\"KAMLOOPS A\",\"1163780\",\"2012-11-07
        17:00\",\"2012\",\"11\",\"07\",\"17:00\",\"5.1\",\"\",\"1.1\",\"\",\"75\",\"\",\"\",\"\",\"28\",\"\",\"7\",\"\",\"64.4\",\"\",\"97.60\",\"\",\"\",\"\",\"\",\"\",\"Mostly
        Cloudy\"\r\n\"-120.44\",\"50.70\",\"KAMLOOPS A\",\"1163780\",\"2012-11-07
        18:00\",\"2012\",\"11\",\"07\",\"18:00\",\"4.8\",\"\",\"1.2\",\"\",\"77\",\"\",\"\",\"\",\"\",\"\",\"0\",\"\",\"64.4\",\"\",\"97.65\",\"\",\"\",\"\",\"\",\"\",\"Mainly
        Clear\"\r\n\"-120.44\",\"50.70\",\"KAMLOOPS A\",\"1163780\",\"2012-11-07 19:00\",\"2012\",\"11\",\"07\",\"19:00\",\"3.9\",\"\",\"0.9\",\"\",\"81\",\"\",\"\",\"\",\"\",\"\",\"0\",\"\",\"64.4\",\"\",\"97.70\",\"\",\"\",\"\",\"\",\"\",\"Mostly
        Cloudy\"\r\n\"-120.44\",\"50.70\",\"KAMLOOPS A\",\"1163780\",\"2012-11-07
        20:00\",\"2012\",\"11\",\"07\",\"20:00\",\"3.9\",\"\",\"1.5\",\"\",\"84\",\"\",\"\",\"\",\"29\",\"\",\"9\",\"\",\"64.4\",\"\",\"97.71\",\"\",\"\",\"\",\"\",\"\",\"Mostly
        Cloudy\"\r\n\"-120.44\",\"50.70\",\"KAMLOOPS A\",\"1163780\",\"2012-11-07
        21:00\",\"2012\",\"11\",\"07\",\"21:00\",\"3.4\",\"\",\"0.9\",\"\",\"84\",\"\",\"\",\"\",\"28\",\"\",\"11\",\"\",\"64.4\",\"\",\"97.71\",\"\",\"\",\"\",\"\",\"\",\"Mainly
        Clear\"\r\n\"-120.44\",\"50.70\",\"KAMLOOPS A\",\"1163780\",\"2012-11-07 22:00\",\"2012\",\"11\",\"07\",\"22:00\",\"1.1\",\"\",\"0.0\",\"\",\"92\",\"\",\"\",\"\",\"34\",\"\",\"9\",\"\",\"64.4\",\"\",\"97.71\",\"\",\"\",\"\",\"\",\"\",\"Mainly
        Clear\"\r\n\"-120.44\",\"50.70\",\"KAMLOOPS A\",\"1163780\",\"2012-11-07 23:00\",\"2012\",\"11\",\"07\",\"23:00\",\"2.2\",\"\",\"1.1\",\"\",\"92\",\"\",\"\",\"\",\"\",\"\",\"0\",\"\",\"64.4\",\"\",\"97.72\",\"\",\"\",\"\",\"\",\"\",\"Mostly
        Cloudy\"\r\n\"-120.44\",\"50.70\",\"KAMLOOPS A\",\"1163780\",\"2012-11-08
        00:00\",\"2012\",\"11\",\"08\",\"00:00\",\"2.2\",\"\",\"1.1\",\"\",\"92\",\"\",\"\",\"\",\"\",\"\",\"0\",\"\",\"64.4\",\"\",\"97.70\",\"\",\"\",\"\",\"\",\"\",\"Cloudy\"\r\n\"-120.44\",\"50.70\",\"KAMLOOPS
        A\",\"1163780\",\"2012-11-08 01:00\",\"2012\",\"11\",\"08\",\"01:00\",\"2.6\",\"\",\"1.3\",\"\",\"91\",\"\",\"\",\"\",\"\",\"\",\"0\",\"\",\"64.4\",\"\",\"97.69\",\"\",\"\",\"\",\"\",\"\",\"Cloudy\"\r\n\"-120.44\",\"50.70\",\"KAMLOOPS
        A\",\"1163780\",\"2012-11-08 02:00\",\"2012\",\"11\",\"08\",\"02:00\",\"3.0\",\"\",\"1.5\",\"\",\"90\",\"\",\"\",\"\",\"9\",\"\",\"6\",\"\",\"64.4\",\"\",\"97.66\",\"\",\"\",\"\",\"\",\"\",\"Cloudy\"\r\n\"-120.44\",\"50.70\",\"KAMLOOPS
        A\",\"1163780\",\"2012-11-08 03:00\",\"2012\",\"11\",\"08\",\"03:00\",\"3.3\",\"\",\"1.0\",\"\",\"85\",\"\",\"\",\"\",\"11\",\"\",\"7\",\"\",\"64.4\",\"\",\"97.65\",\"\",\"\",\"\",\"\",\"\",\"Cloudy\"\r\n\"-120.44\",\"50.70\",\"KAMLOOPS
        A\",\"1163780\",\"2012-11-08 04:00\",\"2012\",\"11\",\"08\",\"04:00\",\"3.1\",\"\",\"0.5\",\"\",\"83\",\"\",\"\",\"\",\"10\",\"\",\"13\",\"\",\"64.4\",\"\",\"97.65\",\"\",\"\",\"\",\"\",\"\",\"Cloudy\"\r\n\"-120.44\",\"50.70\",\"KAMLOOPS
        A\",\"1163780\",\"2012-11-08 05:00\",\"2012\",\"11\",\"08\",\"05:00\",\"2.5\",\"\",\"0.4\",\"\",\"86\",\"\",\"\",\"\",\"\",\"\",\"0\",\"\",\"64.4\",\"\",\"97.65\",\"\",\"\",\"\",\"\",\"\",\"Cloudy\"\r\n\"-120.44\",\"50.70\",\"KAMLOOPS
        A\",\"1163780\",\"2012-11-08 06:00\",\"2012\",\"11\",\"08\",\"06:00\",\"2.5\",\"\",\"0.2\",\"\",\"85\",\"\",\"\",\"\",\"\",\"\",\"0\",\"\",\"64.4\",\"\",\"97.64\",\"\",\"\",\"\",\"\",\"\",\"Cloudy\"\r\n\"-120.44\",\"50.70\",\"KAMLOOPS
        A\",\"1163780\",\"2012-11-08 07:00\",\"2012\",\"11\",\"08\",\"07:00\",\"3.1\",\"\",\"0.7\",\"\",\"84\",\"\",\"\",\"\",\"13\",\"\",\"6\",\"\",\"64.4\",\"\",\"97.62\",\"\",\"\",\"\",\"\",\"\",\"Mostly
        Cloudy\"\r\n\"-120.44\",\"50.70\",\"KAMLOOPS A\",\"1163780\",\"2012-11-08
        08:00\",\"2012\",\"11\",\"08\",\"08:00\",\"3.2\",\"\",\"-0.3\",\"\",\"78\",\"\",\"\",\"\",\"10\",\"\",\"7\",\"\",\"64.4\",\"\",\"97.62\",\"\",\"\",\"\",\"\",\"\",\"Mostly
        Cloudy\"\r\n\"-120.44\",\"50.70\",\"KAMLOOPS A\",\"1163780\",\"2012-11-08
        09:00\",\"2012\",\"11\",\"08\",\"09:00\",\"3.1\",\"\",\"-0.4\",\"\",\"78\",\"\",\"\",\"\",\"11\",\"\",\"13\",\"\",\"64.4\",\"\",\"97.59\",\"\",\"\",\"\",\"\",\"\",\"Mostly
        Cloudy\"\r\n\"-120.44\",\"50.70\",\"KAMLOOPS A\",\"1163780\",\"2012-11-08
        10:00\",\"2012\",\"11\",\"08\",\"10:00\",\"3.4\",\"\",\"-0.9\",\"\",\"73\",\"\",\"\",\"\",\"12\",\"\",\"11\",\"\",\"64.4\",\"\",\"97.56\",\"\",\"\",\"\",\"\",\"\",\"Mostly
        Cloudy\"\r\n\"-120.44\",\"50.70\",\"KAMLOOPS A\",\"1163780\",\"2012-11-08
        11:00\",\"2012\",\"11\",\"08\",\"11:00\",\"4.0\",\"\",\"-0.5\",\"\",\"72\",\"\",\"\",\"\",\"12\",\"\",\"6\",\"\",\"64.4\",\"\",\"97.49\",\"\",\"\",\"\",\"\",\"\",\"Mostly
        Cloudy\"\r\n\"-120.44\",\"50.70\",\"KAMLOOPS A\",\"1163780\",\"2012-11-08
        12:00\",\"2012\",\"11\",\"08\",\"12:00\",\"4.4\",\"\",\"-0.3\",\"\",\"71\",\"\",\"\",\"\",\"16\",\"\",\"4\",\"\",\"64.4\",\"\",\"97.39\",\"\",\"\",\"\",\"\",\"\",\"Mostly
        Cloudy\"\r\n\"-120.44\",\"50.70\",\"KAMLOOPS A\",\"1163780\",\"2012-11-08
        13:00\",\"2012\",\"11\",\"08\",\"13:00\",\"5.2\",\"\",\"-1.3\",\"\",\"63\",\"\",\"\",\"\",\"29\",\"\",\"26\",\"\",\"64.4\",\"\",\"97.33\",\"\",\"\",\"\",\"\",\"\",\"Mostly
        Cloudy\"\r\n\"-120.44\",\"50.70\",\"KAMLOOPS A\",\"1163780\",\"2012-11-08
        14:00\",\"2012\",\"11\",\"08\",\"14:00\",\"4.9\",\"\",\"-3.1\",\"\",\"56\",\"\",\"\",\"\",\"27\",\"\",\"32\",\"\",\"64.4\",\"\",\"97.29\",\"\",\"\",\"\",\"\",\"\",\"Mostly
        Cloudy\"\r\n\"-120.44\",\"50.70\",\"KAMLOOPS A\",\"1163780\",\"2012-11-08
        15:00\",\"2012\",\"11\",\"08\",\"15:00\",\"4.1\",\"\",\"-2.7\",\"\",\"61\",\"\",\"\",\"\",\"27\",\"\",\"37\",\"\",\"64.4\",\"\",\"97.31\",\"\",\"\",\"\",\"\",\"\",\"Mostly
        Cloudy\"\r\n\"-120.44\",\"50.70\",\"KAMLOOPS A\",\"1163780\",\"2012-11-08
        16:00\",\"2012\",\"11\",\"08\",\"16:00\",\"3.3\",\"\",\"-3.7\",\"\",\"60\",\"\",\"\",\"\",\"27\",\"\",\"37\",\"\",\"64.4\",\"\",\"97.35\",\"\",\"\",\"\",\"\",\"\",\"Mostly
        Cloudy\"\r\n\"-120.44\",\"50.70\",\"KAMLOOPS A\",\"1163780\",\"2012-11-08
        17:00\",\"2012\",\"11\",\"08\",\"17:00\",\"2.8\",\"\",\"-3.8\",\"\",\"62\",\"\",\"\",\"\",\"27\",\"\",\"33\",\"\",\"64.4\",\"\",\"97.37\",\"\",\"\",\"\",\"\",\"\",\"Cloudy\"\r\n\"-120.44\",\"50.70\",\"KAMLOOPS
        A\",\"1163780\",\"2012-11-08 18:00\",\"2012\",\"11\",\"08\",\"18:00\",\"2.8\",\"\",\"-3.6\",\"\",\"63\",\"\",\"\",\"\",\"28\",\"\",\"35\",\"\",\"64.4\",\"\",\"97.35\",\"\",\"\",\"\",\"\",\"\",\"Cloudy\"\r\n\"-120.44\",\"50.70\",\"KAMLOOPS
        A\",\"1163780\",\"2012-11-08 19:00\",\"2012\",\"11\",\"08\",\"19:00\",\"2.7\",\"\",\"-3.9\",\"\",\"62\",\"\",\"\",\"\",\"28\",\"\",\"30\",\"\",\"64.4\",\"\",\"97.35\",\"\",\"\",\"\",\"\",\"\",\"Cloudy\"\r\n\"-120.44\",\"50.70\",\"KAMLOOPS
        A\",\"1163780\",\"2012-11-08 20:00\",\"2012\",\"11\",\"08\",\"20:00\",\"2.5\",\"\",\"-3.8\",\"\",\"63\",\"\",\"\",\"\",\"28\",\"\",\"33\",\"\",\"64.4\",\"\",\"97.35\",\"\",\"\",\"\",\"\",\"\",\"Cloudy\"\r\n\"-120.44\",\"50.70\",\"KAMLOOPS
        A\",\"1163780\",\"2012-11-08 21:00\",\"2012\",\"11\",\"08\",\"21:00\",\"2.3\",\"\",\"-4.3\",\"\",\"62\",\"\",\"\",\"\",\"28\",\"\",\"37\",\"\",\"64.4\",\"\",\"97.34\",\"\",\"\",\"\",\"\",\"\",\"Cloudy\"\r\n\"-120.44\",\"50.70\",\"KAMLOOPS
        A\",\"1163780\",\"2012-11-08 22:00\",\"2012\",\"11\",\"08\",\"22:00\",\"2.0\",\"\",\"-6.1\",\"\",\"55\",\"\",\"\",\"\",\"28\",\"\",\"35\",\"\",\"64.4\",\"\",\"97.33\",\"\",\"\",\"\",\"\",\"\",\"Cloudy\"\r\n\"-120.44\",\"50.70\",\"KAMLOOPS
        A\",\"1163780\",\"2012-11-08 23:00\",\"2012\",\"11\",\"08\",\"23:00\",\"1.9\",\"\",\"-5.3\",\"\",\"59\",\"\",\"\",\"\",\"29\",\"\",\"30\",\"\",\"64.4\",\"\",\"97.31\",\"\",\"\",\"\",\"\",\"\",\"Cloudy\"\r\n\"-120.44\",\"50.70\",\"KAMLOOPS
        A\",\"1163780\",\"2012-11-09 00:00\",\"2012\",\"11\",\"09\",\"00:00\",\"1.9\",\"\",\"-5.9\",\"\",\"56\",\"\",\"\",\"\",\"28\",\"\",\"37\",\"\",\"64.4\",\"\",\"97.32\",\"\",\"\",\"\",\"\",\"\",\"Cloudy\"\r\n\"-120.44\",\"50.70\",\"KAMLOOPS
        A\",\"1163780\",\"2012-11-09 01:00\",\"2012\",\"11\",\"09\",\"01:00\",\"1.6\",\"\",\"-6.1\",\"\",\"57\",\"\",\"\",\"\",\"28\",\"\",\"32\",\"\",\"64.4\",\"\",\"97.30\",\"\",\"\",\"\",\"\",\"\",\"Cloudy\"\r\n\"-120.44\",\"50.70\",\"KAMLOOPS
        A\",\"1163780\",\"2012-11-09 02:00\",\"2012\",\"11\",\"09\",\"02:00\",\"1.5\",\"\",\"-6.2\",\"\",\"57\",\"\",\"\",\"\",\"27\",\"\",\"35\",\"\",\"64.4\",\"\",\"97.32\",\"\",\"\",\"\",\"\",\"\",\"Cloudy\"\r\n\"-120.44\",\"50.70\",\"KAMLOOPS
        A\",\"1163780\",\"2012-11-09 03:00\",\"2012\",\"11\",\"09\",\"03:00\",\"1.0\",\"\",\"-7.1\",\"\",\"55\",\"\",\"\",\"\",\"27\",\"\",\"32\",\"\",\"64.4\",\"\",\"97.34\",\"\",\"\",\"\",\"\",\"\",\"Cloudy\"\r\n\"-120.44\",\"50.70\",\"KAMLOOPS
        A\",\"1163780\",\"2012-11-09 04:00\",\"2012\",\"11\",\"09\",\"04:00\",\"0.9\",\"\",\"-7.5\",\"\",\"53\",\"\",\"\",\"\",\"27\",\"\",\"43\",\"\",\"64.4\",\"\",\"97.35\",\"\",\"\",\"\",\"\",\"\",\"Cloudy\"\r\n\"-120.44\",\"50.70\",\"KAMLOOPS
        A\",\"1163780\",\"2012-11-09 05:00\",\"2012\",\"11\",\"09\",\"05:00\",\"0.9\",\"\",\"-7.6\",\"\",\"53\",\"\",\"\",\"\",\"28\",\"\",\"30\",\"\",\"64.4\",\"\",\"97.37\",\"\",\"\",\"\",\"\",\"\",\"Cloudy\"\r\n\"-120.44\",\"50.70\",\"KAMLOOPS
        A\",\"1163780\",\"2012-11-09 06:00\",\"2012\",\"11\",\"09\",\"06:00\",\"0.4\",\"\",\"-7.7\",\"\",\"55\",\"\",\"\",\"\",\"29\",\"\",\"30\",\"\",\"64.4\",\"\",\"97.39\",\"\",\"\",\"\",\"\",\"\",\"Cloudy\"\r\n\"-120.44\",\"50.70\",\"KAMLOOPS
        A\",\"1163780\",\"2012-11-09 07:00\",\"2012\",\"11\",\"09\",\"07:00\",\"0.0\",\"\",\"-8.1\",\"\",\"54\",\"\",\"\",\"\",\"27\",\"\",\"20\",\"\",\"64.4\",\"\",\"97.44\",\"\",\"\",\"\",\"-5\",\"\",\"Cloudy\"\r\n\"-120.44\",\"50.70\",\"KAMLOOPS
        A\",\"1163780\",\"2012-11-09 08:00\",\"2012\",\"11\",\"09\",\"08:00\",\"0.0\",\"\",\"-8.5\",\"\",\"53\",\"\",\"\",\"\",\"27\",\"\",\"30\",\"\",\"40.2\",\"\",\"97.49\",\"\",\"\",\"\",\"-6\",\"\",\"Cloudy\"\r\n\"-120.44\",\"50.70\",\"KAMLOOPS
        A\",\"1163780\",\"2012-11-09 09:00\",\"2012\",\"11\",\"09\",\"09:00\",\"-0.1\",\"\",\"-9.5\",\"\",\"49\",\"\",\"\",\"\",\"27\",\"\",\"32\",\"\",\"48.3\",\"\",\"97.50\",\"\",\"\",\"\",\"-7\",\"\",\"Cloudy\"\r\n\"-120.44\",\"50.70\",\"KAMLOOPS
        A\",\"1163780\",\"2012-11-09 10:00\",\"2012\",\"11\",\"09\",\"10:00\",\"0.2\",\"\",\"-8.8\",\"\",\"51\",\"\",\"\",\"\",\"29\",\"\",\"26\",\"\",\"64.4\",\"\",\"97.54\",\"\",\"\",\"\",\"\",\"\",\"Cloudy\"\r\n\"-120.44\",\"50.70\",\"KAMLOOPS
        A\",\"1163780\",\"2012-11-09 11:00\",\"2012\",\"11\",\"09\",\"11:00\",\"0.6\",\"\",\"-9.0\",\"\",\"49\",\"\",\"\",\"\",\"28\",\"\",\"32\",\"\",\"64.4\",\"\",\"97.54\",\"\",\"\",\"\",\"\",\"\",\"Cloudy\"\r\n\"-120.44\",\"50.70\",\"KAMLOOPS
        A\",\"1163780\",\"2012-11-09 12:00\",\"2012\",\"11\",\"09\",\"12:00\",\"0.6\",\"\",\"-8.7\",\"\",\"50\",\"\",\"\",\"\",\"28\",\"\",\"33\",\"\",\"64.4\",\"\",\"97.51\",\"\",\"\",\"\",\"\",\"\",\"Cloudy\"\r\n\"-120.44\",\"50.70\",\"KAMLOOPS
        A\",\"1163780\",\"2012-11-09 13:00\",\"2012\",\"11\",\"09\",\"13:00\",\"0.5\",\"\",\"-8.7\",\"\",\"50\",\"\",\"\",\"\",\"28\",\"\",\"28\",\"\",\"64.4\",\"\",\"97.50\",\"\",\"\",\"\",\"\",\"\",\"Cloudy\"\r\n\"-120.44\",\"50.70\",\"KAMLOOPS
        A\",\"1163780\",\"2012-11-09 14:00\",\"2012\",\"11\",\"09\",\"14:00\",\"0.7\",\"\",\"-8.2\",\"\",\"51\",\"\",\"\",\"\",\"27\",\"\",\"28\",\"\",\"64.4\",\"\",\"97.49\",\"\",\"\",\"\",\"\",\"\",\"Cloudy\"\r\n\"-120.44\",\"50.70\",\"KAMLOOPS
        A\",\"1163780\",\"2012-11-09 15:00\",\"2012\",\"11\",\"09\",\"15:00\",\"0.2\",\"\",\"-8.7\",\"\",\"51\",\"\",\"\",\"\",\"31\",\"\",\"20\",\"\",\"64.4\",\"\",\"97.52\",\"\",\"\",\"\",\"\",\"\",\"Cloudy\"\r\n\"-120.44\",\"50.70\",\"KAMLOOPS
        A\",\"1163780\",\"2012-11-09 16:00\",\"2012\",\"11\",\"09\",\"16:00\",\"-0.5\",\"\",\"-9.0\",\"\",\"53\",\"\",\"\",\"\",\"28\",\"\",\"13\",\"\",\"64.4\",\"\",\"97.55\",\"\",\"\",\"\",\"-5\",\"\",\"Cloudy\"\r\n\"-120.44\",\"50.70\",\"KAMLOOPS
        A\",\"1163780\",\"2012-11-09 17:00\",\"2012\",\"11\",\"09\",\"17:00\",\"-0.9\",\"\",\"-8.2\",\"\",\"58\",\"\",\"\",\"\",\"29\",\"\",\"19\",\"\",\"64.4\",\"\",\"97.59\",\"\",\"\",\"\",\"-6\",\"\",\"Cloudy\"\r\n\"-120.44\",\"50.70\",\"KAMLOOPS
        A\",\"1163780\",\"2012-11-09 18:00\",\"2012\",\"11\",\"09\",\"18:00\",\"-2.5\",\"\",\"-9.5\",\"\",\"59\",\"\",\"\",\"\",\"30\",\"\",\"13\",\"\",\"64.4\",\"\",\"97.66\",\"\",\"\",\"\",\"-7\",\"\",\"Mostly
        Cloudy\"\r\n\"-120.44\",\"50.70\",\"KAMLOOPS A\",\"1163780\",\"2012-11-09
        19:00\",\"2012\",\"11\",\"09\",\"19:00\",\"-2.2\",\"\",\"-10.9\",\"\",\"51\",\"\",\"\",\"\",\"29\",\"\",\"9\",\"\",\"64.4\",\"\",\"97.70\",\"\",\"\",\"\",\"-6\",\"\",\"Mostly
        Cloudy\"\r\n\"-120.44\",\"50.70\",\"KAMLOOPS A\",\"1163780\",\"2012-11-09
        20:00\",\"2012\",\"11\",\"09\",\"20:00\",\"-2.2\",\"\",\"-10.5\",\"\",\"53\",\"\",\"\",\"\",\"28\",\"\",\"22\",\"\",\"64.4\",\"\",\"97.73\",\"\",\"\",\"\",\"-8\",\"\",\"Mostly
        Cloudy\"\r\n\"-120.44\",\"50.70\",\"KAMLOOPS A\",\"1163780\",\"2012-11-09
        21:00\",\"2012\",\"11\",\"09\",\"21:00\",\"-2.4\",\"\",\"-9.9\",\"\",\"56\",\"\",\"\",\"\",\"27\",\"\",\"20\",\"\",\"64.4\",\"\",\"97.80\",\"\",\"\",\"\",\"-8\",\"\",\"Mostly
        Cloudy\"\r\n\"-120.44\",\"50.70\",\"KAMLOOPS A\",\"1163780\",\"2012-11-09
        22:00\",\"2012\",\"11\",\"09\",\"22:00\",\"-2.4\",\"\",\"-10.5\",\"\",\"54\",\"\",\"\",\"\",\"28\",\"\",\"24\",\"\",\"64.4\",\"\",\"97.81\",\"\",\"\",\"\",\"-9\",\"\",\"Cloudy\"\r\n\"-120.44\",\"50.70\",\"KAMLOOPS
        A\",\"1163780\",\"2012-11-09 23:00\",\"2012\",\"11\",\"09\",\"23:00\",\"-2.6\",\"\",\"-10.3\",\"\",\"55\",\"\",\"\",\"\",\"28\",\"\",\"28\",\"\",\"64.4\",\"\",\"97.82\",\"\",\"\",\"\",\"-10\",\"\",\"Cloudy\"\r\n\"-120.44\",\"50.70\",\"KAMLOOPS
        A\",\"1163780\",\"2012-11-10 00:00\",\"2012\",\"11\",\"10\",\"00:00\",\"-2.5\",\"\",\"-10.7\",\"\",\"53\",\"\",\"\",\"\",\"28\",\"\",\"24\",\"\",\"64.4\",\"\",\"97.85\",\"\",\"\",\"\",\"-9\",\"\",\"Cloudy\"\r\n\"-120.44\",\"50.70\",\"KAMLOOPS
        A\",\"1163780\",\"2012-11-10 01:00\",\"2012\",\"11\",\"10\",\"01:00\",\"-2.7\",\"\",\"-11.1\",\"\",\"52\",\"\",\"\",\"\",\"29\",\"\",\"26\",\"\",\"64.4\",\"\",\"97.87\",\"\",\"\",\"\",\"-10\",\"\",\"Cloudy\"\r\n\"-120.44\",\"50.70\",\"KAMLOOPS
        A\",\"1163780\",\"2012-11-10 02:00\",\"2012\",\"11\",\"10\",\"02:00\",\"-2.7\",\"\",\"-11.0\",\"\",\"53\",\"\",\"\",\"\",\"29\",\"\",\"26\",\"\",\"64.4\",\"\",\"97.91\",\"\",\"\",\"\",\"-10\",\"\",\"Cloudy\"\r\n\"-120.44\",\"50.70\",\"KAMLOOPS
        A\",\"1163780\",\"2012-11-10 03:00\",\"2012\",\"11\",\"10\",\"03:00\",\"-3.0\",\"\",\"-11.0\",\"\",\"54\",\"\",\"\",\"\",\"28\",\"\",\"15\",\"\",\"64.4\",\"\",\"97.91\",\"\",\"\",\"\",\"-8\",\"\",\"Cloudy\"\r\n\"-120.44\",\"50.70\",\"KAMLOOPS
        A\",\"1163780\",\"2012-11-10 04:00\",\"2012\",\"11\",\"10\",\"04:00\",\"-3.3\",\"\",\"-11.0\",\"\",\"55\",\"\",\"\",\"\",\"27\",\"\",\"15\",\"\",\"64.4\",\"\",\"97.91\",\"\",\"\",\"\",\"-8\",\"\",\"Mostly
        Cloudy\"\r\n\"-120.44\",\"50.70\",\"KAMLOOPS A\",\"1163780\",\"2012-11-10
        05:00\",\"2012\",\"11\",\"10\",\"05:00\",\"-3.8\",\"\",\"-10.8\",\"\",\"58\",\"\",\"\",\"\",\"28\",\"\",\"15\",\"\",\"64.4\",\"\",\"97.96\",\"\",\"\",\"\",\"-9\",\"\",\"Mainly
        Clear\"\r\n\"-120.44\",\"50.70\",\"KAMLOOPS A\",\"1163780\",\"2012-11-10 06:00\",\"2012\",\"11\",\"10\",\"06:00\",\"-3.8\",\"\",\"-11.2\",\"\",\"56\",\"\",\"\",\"\",\"28\",\"\",\"17\",\"\",\"64.4\",\"\",\"98.00\",\"\",\"\",\"\",\"-10\",\"\",\"Mainly
        Clear\"\r\n\"-120.44\",\"50.70\",\"KAMLOOPS A\",\"1163780\",\"2012-11-10 07:00\",\"2012\",\"11\",\"10\",\"07:00\",\"-3.4\",\"\",\"-11.3\",\"\",\"54\",\"\",\"\",\"\",\"27\",\"\",\"15\",\"\",\"64.4\",\"\",\"98.04\",\"\",\"\",\"\",\"-9\",\"\",\"Mostly
        Cloudy\"\r\n\"-120.44\",\"50.70\",\"KAMLOOPS A\",\"1163780\",\"2012-11-10
        08:00\",\"2012\",\"11\",\"10\",\"08:00\",\"-3.2\",\"\",\"-11.1\",\"\",\"54\",\"\",\"\",\"\",\"29\",\"\",\"15\",\"\",\"64.4\",\"\",\"98.11\",\"\",\"\",\"\",\"-8\",\"\",\"Mostly
        Cloudy\"\r\n\"-120.44\",\"50.70\",\"KAMLOOPS A\",\"1163780\",\"2012-11-10
        09:00\",\"2012\",\"11\",\"10\",\"09:00\",\"-2.6\",\"\",\"-10.7\",\"\",\"54\",\"\",\"\",\"\",\"29\",\"\",\"13\",\"\",\"64.4\",\"\",\"98.14\",\"\",\"\",\"\",\"-7\",\"\",\"Mostly
        Cloudy\"\r\n\"-120.44\",\"50.70\",\"KAMLOOPS A\",\"1163780\",\"2012-11-10
        10:00\",\"2012\",\"11\",\"10\",\"10:00\",\"-1.6\",\"\",\"-10.9\",\"\",\"49\",\"\",\"\",\"\",\"27\",\"\",\"13\",\"\",\"64.4\",\"\",\"98.16\",\"\",\"\",\"\",\"-6\",\"\",\"Mainly
        Clear\"\r\n\"-120.44\",\"50.70\",\"KAMLOOPS A\",\"1163780\",\"2012-11-10 11:00\",\"2012\",\"11\",\"10\",\"11:00\",\"-0.8\",\"\",\"-11.5\",\"\",\"44\",\"\",\"\",\"\",\"27\",\"\",\"19\",\"\",\"64.4\",\"\",\"98.15\",\"\",\"\",\"\",\"-6\",\"\",\"Mainly
        Clear\"\r\n\"-120.44\",\"50.70\",\"KAMLOOPS A\",\"1163780\",\"2012-11-10 12:00\",\"2012\",\"11\",\"10\",\"12:00\",\"-0.6\",\"\",\"-11.0\",\"\",\"45\",\"\",\"\",\"\",\"28\",\"\",\"20\",\"\",\"64.4\",\"\",\"98.15\",\"\",\"\",\"\",\"-6\",\"\",\"Mostly
        Cloudy\"\r\n\"-120.44\",\"50.70\",\"KAMLOOPS A\",\"1163780\",\"2012-11-10
        13:00\",\"2012\",\"11\",\"10\",\"13:00\",\"-0.5\",\"\",\"-11.3\",\"\",\"44\",\"\",\"\",\"\",\"27\",\"\",\"26\",\"\",\"64.4\",\"\",\"98.14\",\"\",\"\",\"\",\"-7\",\"\",\"Mainly
        Clear\"\r\n\"-120.44\",\"50.70\",\"KAMLOOPS A\",\"1163780\",\"2012-11-10 14:00\",\"2012\",\"11\",\"10\",\"14:00\",\"-0.6\",\"\",\"-11.4\",\"\",\"44\",\"\",\"\",\"\",\"28\",\"\",\"20\",\"\",\"64.4\",\"\",\"98.17\",\"\",\"\",\"\",\"-6\",\"\",\"Mainly
        Clear\"\r\n\"-120.44\",\"50.70\",\"KAMLOOPS A\",\"1163780\",\"2012-11-10 15:00\",\"2012\",\"11\",\"10\",\"15:00\",\"-0.8\",\"\",\"-11.8\",\"\",\"43\",\"\",\"\",\"\",\"26\",\"\",\"13\",\"\",\"64.4\",\"\",\"98.16\",\"\",\"\",\"\",\"-5\",\"\",\"Mainly
        Clear\"\r\n\"-120.44\",\"50.70\",\"KAMLOOPS A\",\"1163780\",\"2012-11-10 16:00\",\"2012\",\"11\",\"10\",\"16:00\",\"-1.5\",\"\",\"-10.8\",\"\",\"49\",\"\",\"\",\"\",\"23\",\"\",\"11\",\"\",\"64.4\",\"\",\"98.19\",\"\",\"\",\"\",\"-5\",\"\",\"Mainly
        Clear\"\r\n\"-120.44\",\"50.70\",\"KAMLOOPS A\",\"1163780\",\"2012-11-10 17:00\",\"2012\",\"11\",\"10\",\"17:00\",\"-2.3\",\"\",\"-11.1\",\"\",\"51\",\"\",\"\",\"\",\"19\",\"\",\"11\",\"\",\"64.4\",\"\",\"98.19\",\"\",\"\",\"\",\"-6\",\"\",\"Mainly
        Clear\"\r\n\"-120.44\",\"50.70\",\"KAMLOOPS A\",\"1163780\",\"2012-11-10 18:00\",\"2012\",\"11\",\"10\",\"18:00\",\"-3.6\",\"\",\"-9.8\",\"\",\"62\",\"\",\"\",\"\",\"\",\"\",\"0\",\"\",\"64.4\",\"\",\"98.20\",\"\",\"\",\"\",\"\",\"\",\"Mainly
        Clear\"\r\n\"-120.44\",\"50.70\",\"KAMLOOPS A\",\"1163780\",\"2012-11-10 19:00\",\"2012\",\"11\",\"10\",\"19:00\",\"-5.7\",\"\",\"-10.9\",\"\",\"67\",\"\",\"\",\"\",\"32\",\"\",\"6\",\"\",\"64.4\",\"\",\"98.20\",\"\",\"\",\"\",\"-9\",\"\",\"Mainly
        Clear\"\r\n\"-120.44\",\"50.70\",\"KAMLOOPS A\",\"1163780\",\"2012-11-10 20:00\",\"2012\",\"11\",\"10\",\"20:00\",\"-6.3\",\"\",\"-10.8\",\"\",\"70\",\"\",\"\",\"\",\"31\",\"\",\"6\",\"\",\"64.4\",\"\",\"98.21\",\"\",\"\",\"\",\"-9\",\"\",\"Mainly
        Clear\"\r\n\"-120.44\",\"50.70\",\"KAMLOOPS A\",\"1163780\",\"2012-11-10 21:00\",\"2012\",\"11\",\"10\",\"21:00\",\"-6.9\",\"\",\"-11.2\",\"\",\"71\",\"\",\"\",\"\",\"5\",\"\",\"6\",\"\",\"64.4\",\"\",\"98.22\",\"\",\"\",\"\",\"-10\",\"\",\"Mainly
        Clear\"\r\n\"-120.44\",\"50.70\",\"KAMLOOPS A\",\"1163780\",\"2012-11-10 22:00\",\"2012\",\"11\",\"10\",\"22:00\",\"-7.4\",\"\",\"-10.9\",\"\",\"76\",\"\",\"\",\"\",\"\",\"\",\"0\",\"\",\"64.4\",\"\",\"98.22\",\"\",\"\",\"\",\"\",\"\",\"Clear\"\r\n\"-120.44\",\"50.70\",\"KAMLOOPS
        A\",\"1163780\",\"2012-11-10 23:00\",\"2012\",\"11\",\"10\",\"23:00\",\"-6.5\",\"\",\"-10.1\",\"\",\"76\",\"\",\"\",\"\",\"24\",\"\",\"6\",\"\",\"64.4\",\"\",\"98.26\",\"\",\"\",\"\",\"-9\",\"\",\"Clear\"\r\n\"-120.44\",\"50.70\",\"KAMLOOPS
        A\",\"1163780\",\"2012-11-11 00:00\",\"2012\",\"11\",\"11\",\"00:00\",\"-8.0\",\"\",\"-10.8\",\"\",\"80\",\"\",\"\",\"\",\"\",\"\",\"0\",\"\",\"64.4\",\"\",\"98.28\",\"\",\"\",\"\",\"\",\"\",\"Clear\"\r\n\"-120.44\",\"50.70\",\"KAMLOOPS
        A\",\"1163780\",\"2012-11-11 01:00\",\"2012\",\"11\",\"11\",\"01:00\",\"-7.9\",\"\",\"-11.1\",\"\",\"78\",\"\",\"\",\"\",\"\",\"\",\"0\",\"\",\"64.4\",\"\",\"98.30\",\"\",\"\",\"\",\"\",\"\",\"Clear\"\r\n\"-120.44\",\"50.70\",\"KAMLOOPS
        A\",\"1163780\",\"2012-11-11 02:00\",\"2012\",\"11\",\"11\",\"02:00\",\"-8.2\",\"\",\"-11.3\",\"\",\"78\",\"\",\"\",\"\",\"9\",\"\",\"9\",\"\",\"64.4\",\"\",\"98.29\",\"\",\"\",\"\",\"-13\",\"\",\"Clear\"\r\n\"-120.44\",\"50.70\",\"KAMLOOPS
        A\",\"1163780\",\"2012-11-11 03:00\",\"2012\",\"11\",\"11\",\"03:00\",\"-7.6\",\"\",\"-11.2\",\"\",\"75\",\"\",\"\",\"\",\"\",\"\",\"0\",\"\",\"64.4\",\"\",\"98.32\",\"\",\"\",\"\",\"\",\"\",\"Clear\"\r\n\"-120.44\",\"50.70\",\"KAMLOOPS
        A\",\"1163780\",\"2012-11-11 04:00\",\"2012\",\"11\",\"11\",\"04:00\",\"-8.2\",\"\",\"-11.1\",\"\",\"80\",\"\",\"\",\"\",\"\",\"\",\"0\",\"\",\"64.4\",\"\",\"98.30\",\"\",\"\",\"\",\"\",\"\",\"Mainly
        Clear\"\r\n\"-120.44\",\"50.70\",\"KAMLOOPS A\",\"1163780\",\"2012-11-11 05:00\",\"2012\",\"11\",\"11\",\"05:00\",\"-7.7\",\"\",\"-10.7\",\"\",\"79\",\"\",\"\",\"\",\"8\",\"\",\"6\",\"\",\"64.4\",\"\",\"98.33\",\"\",\"\",\"\",\"-11\",\"\",\"Mainly
        Clear\"\r\n\"-120.44\",\"50.70\",\"KAMLOOPS A\",\"1163780\",\"2012-11-11 06:00\",\"2012\",\"11\",\"11\",\"06:00\",\"-7.8\",\"\",\"-9.9\",\"\",\"85\",\"\",\"\",\"\",\"9\",\"\",\"9\",\"\",\"64.4\",\"\",\"98.34\",\"\",\"\",\"\",\"-12\",\"\",\"Mainly
        Clear\"\r\n\"-120.44\",\"50.70\",\"KAMLOOPS A\",\"1163780\",\"2012-11-11 07:00\",\"2012\",\"11\",\"11\",\"07:00\",\"-6.4\",\"\",\"-9.9\",\"\",\"76\",\"\",\"\",\"\",\"6\",\"\",\"6\",\"\",\"32.2\",\"\",\"98.38\",\"\",\"\",\"\",\"-9\",\"\",\"Mostly
        Cloudy\"\r\n\"-120.44\",\"50.70\",\"KAMLOOPS A\",\"1163780\",\"2012-11-11
        08:00\",\"2012\",\"11\",\"11\",\"08:00\",\"-6.7\",\"\",\"-9.9\",\"\",\"78\",\"\",\"\",\"\",\"9\",\"\",\"9\",\"\",\"32.2\",\"\",\"98.39\",\"\",\"\",\"\",\"-11\",\"\",\"Mostly
        Cloudy\"\r\n\"-120.44\",\"50.70\",\"KAMLOOPS A\",\"1163780\",\"2012-11-11
        09:00\",\"2012\",\"11\",\"11\",\"09:00\",\"-6.0\",\"\",\"-9.7\",\"\",\"75\",\"\",\"\",\"\",\"8\",\"\",\"9\",\"\",\"64.4\",\"\",\"98.40\",\"\",\"\",\"\",\"-10\",\"\",\"Mostly
        Cloudy\"\r\n\"-120.44\",\"50.70\",\"KAMLOOPS A\",\"1163780\",\"2012-11-11
        10:00\",\"2012\",\"11\",\"11\",\"10:00\",\"-4.8\",\"\",\"-9.2\",\"\",\"71\",\"\",\"\",\"\",\"9\",\"\",\"7\",\"\",\"32.2\",\"\",\"98.42\",\"\",\"\",\"\",\"-8\",\"\",\"Cloudy\"\r\n\"-120.44\",\"50.70\",\"KAMLOOPS
        A\",\"1163780\",\"2012-11-11 11:00\",\"2012\",\"11\",\"11\",\"11:00\",\"-3.6\",\"\",\"-9.3\",\"\",\"65\",\"\",\"\",\"\",\"10\",\"\",\"11\",\"\",\"32.2\",\"\",\"98.39\",\"\",\"\",\"\",\"-8\",\"\",\"Mostly
        Cloudy\"\r\n\"-120.44\",\"50.70\",\"KAMLOOPS A\",\"1163780\",\"2012-11-11
        12:00\",\"2012\",\"11\",\"11\",\"12:00\",\"-2.6\",\"\",\"-8.3\",\"\",\"65\",\"\",\"\",\"\",\"10\",\"\",\"11\",\"\",\"40.2\",\"\",\"98.35\",\"\",\"\",\"\",\"-7\",\"\",\"Cloudy\"\r\n\"-120.44\",\"50.70\",\"KAMLOOPS
        A\",\"1163780\",\"2012-11-11 13:00\",\"2012\",\"11\",\"11\",\"13:00\",\"-1.2\",\"\",\"-8.0\",\"\",\"60\",\"\",\"\",\"\",\"12\",\"\",\"7\",\"\",\"32.2\",\"\",\"98.32\",\"\",\"\",\"\",\"-4\",\"\",\"Mostly
        Cloudy\"\r\n\"-120.44\",\"50.70\",\"KAMLOOPS A\",\"1163780\",\"2012-11-11
        14:00\",\"2012\",\"11\",\"11\",\"14:00\",\"-0.3\",\"\",\"-8.4\",\"\",\"54\",\"\",\"\",\"\",\"7\",\"\",\"11\",\"\",\"48.3\",\"\",\"98.26\",\"\",\"\",\"\",\"-4\",\"\",\"Mostly
        Cloudy\"\r\n\"-120.44\",\"50.70\",\"KAMLOOPS A\",\"1163780\",\"2012-11-11
        15:00\",\"2012\",\"11\",\"11\",\"15:00\",\"-0.5\",\"\",\"-7.8\",\"\",\"58\",\"\",\"\",\"\",\"12\",\"\",\"9\",\"\",\"48.3\",\"\",\"98.28\",\"\",\"\",\"\",\"-4\",\"\",\"Mostly
        Cloudy\"\r\n\"-120.44\",\"50.70\",\"KAMLOOPS A\",\"1163780\",\"2012-11-11
        16:00\",\"2012\",\"11\",\"11\",\"16:00\",\"-0.3\",\"\",\"-8.2\",\"\",\"55\",\"\",\"\",\"\",\"8\",\"\",\"9\",\"\",\"48.3\",\"\",\"98.28\",\"\",\"\",\"\",\"-3\",\"\",\"Mostly
        Cloudy\"\r\n\"-120.44\",\"50.70\",\"KAMLOOPS A\",\"1163780\",\"2012-11-11
        17:00\",\"2012\",\"11\",\"11\",\"17:00\",\"0.0\",\"\",\"-7.3\",\"\",\"58\",\"\",\"\",\"\",\"9\",\"\",\"15\",\"\",\"40.2\",\"\",\"98.27\",\"\",\"\",\"\",\"-4\",\"\",\"Cloudy\"\r\n\"-120.44\",\"50.70\",\"KAMLOOPS
        A\",\"1163780\",\"2012-11-11 18:00\",\"2012\",\"11\",\"11\",\"18:00\",\"-0.7\",\"\",\"-5.2\",\"\",\"72\",\"\",\"\",\"\",\"8\",\"\",\"19\",\"\",\"8.0\",\"\",\"98.27\",\"\",\"\",\"\",\"-6\",\"\",\"Snow
        Showers\"\r\n\"-120.44\",\"50.70\",\"KAMLOOPS A\",\"1163780\",\"2012-11-11
        19:00\",\"2012\",\"11\",\"11\",\"19:00\",\"-1.7\",\"\",\"-3.7\",\"\",\"86\",\"\",\"\",\"\",\"8\",\"\",\"15\",\"\",\"4.0\",\"\",\"98.24\",\"\",\"\",\"\",\"-7\",\"\",\"Snow
        Showers\"\r\n\"-120.44\",\"50.70\",\"KAMLOOPS A\",\"1163780\",\"2012-11-11
        20:00\",\"2012\",\"11\",\"11\",\"20:00\",\"-1.6\",\"\",\"-4.3\",\"\",\"82\",\"\",\"\",\"\",\"8\",\"\",\"13\",\"\",\"6.4\",\"\",\"98.20\",\"\",\"\",\"\",\"-6\",\"\",\"Snow
        Showers\"\r\n\"-120.44\",\"50.70\",\"KAMLOOPS A\",\"1163780\",\"2012-11-11
        21:00\",\"2012\",\"11\",\"11\",\"21:00\",\"-1.0\",\"\",\"-4.1\",\"\",\"79\",\"\",\"\",\"\",\"9\",\"\",\"17\",\"\",\"48.3\",\"\",\"98.19\",\"\",\"\",\"\",\"-6\",\"\",\"Cloudy\"\r\n\"-120.44\",\"50.70\",\"KAMLOOPS
        A\",\"1163780\",\"2012-11-11 22:00\",\"2012\",\"11\",\"11\",\"22:00\",\"-1.0\",\"\",\"-3.8\",\"\",\"81\",\"\",\"\",\"\",\"9\",\"\",\"15\",\"\",\"8.0\",\"\",\"98.18\",\"\",\"\",\"\",\"-6\",\"\",\"Snow
        Showers\"\r\n\"-120.44\",\"50.70\",\"KAMLOOPS A\",\"1163780\",\"2012-11-11
        23:00\",\"2012\",\"11\",\"11\",\"23:00\",\"-1.7\",\"\",\"-2.3\",\"\",\"96\",\"\",\"\",\"\",\"9\",\"\",\"13\",\"\",\"1.6\",\"\",\"98.18\",\"\",\"\",\"\",\"-6\",\"\",\"Snow
        Showers\"\r\n\"-120.44\",\"50.70\",\"KAMLOOPS A\",\"1163780\",\"2012-11-12
        00:00\",\"2012\",\"11\",\"12\",\"00:00\",\"-1.5\",\"\",\"-2.0\",\"\",\"96\",\"\",\"\",\"\",\"9\",\"\",\"15\",\"\",\"2.4\",\"\",\"98.16\",\"\",\"\",\"\",\"-6\",\"\",\"Snow
        Showers\"\r\n\"-120.44\",\"50.70\",\"KAMLOOPS A\",\"1163780\",\"2012-11-12
        01:00\",\"2012\",\"11\",\"12\",\"01:00\",\"-1.5\",\"\",\"-2.1\",\"\",\"96\",\"\",\"\",\"\",\"10\",\"\",\"17\",\"\",\"3.2\",\"\",\"98.12\",\"\",\"\",\"\",\"-7\",\"\",\"Snow
        Showers\"\r\n\"-120.44\",\"50.70\",\"KAMLOOPS A\",\"1163780\",\"2012-11-12
        02:00\",\"2012\",\"11\",\"12\",\"02:00\",\"-1.2\",\"\",\"-1.9\",\"\",\"95\",\"\",\"\",\"\",\"11\",\"\",\"19\",\"\",\"9.7\",\"\",\"98.09\",\"\",\"\",\"\",\"-7\",\"\",\"Snow
        Showers\"\r\n\"-120.44\",\"50.70\",\"KAMLOOPS A\",\"1163780\",\"2012-11-12
        03:00\",\"2012\",\"11\",\"12\",\"03:00\",\"-1.1\",\"\",\"-1.9\",\"\",\"94\",\"\",\"\",\"\",\"11\",\"\",\"19\",\"\",\"12.9\",\"\",\"98.08\",\"\",\"\",\"\",\"-6\",\"\",\"Snow\"\r\n\"-120.44\",\"50.70\",\"KAMLOOPS
        A\",\"1163780\",\"2012-11-12 04:00\",\"2012\",\"11\",\"12\",\"04:00\",\"-1.3\",\"\",\"-2.0\",\"\",\"95\",\"\",\"\",\"\",\"11\",\"\",\"17\",\"\",\"12.9\",\"\",\"98.06\",\"\",\"\",\"\",\"-6\",\"\",\"Snow\"\r\n\"-120.44\",\"50.70\",\"KAMLOOPS
        A\",\"1163780\",\"2012-11-12 05:00\",\"2012\",\"11\",\"12\",\"05:00\",\"-1.1\",\"\",\"-1.8\",\"\",\"95\",\"\",\"\",\"\",\"11\",\"\",\"17\",\"\",\"16.1\",\"\",\"98.07\",\"\",\"\",\"\",\"-6\",\"\",\"Snow\"\r\n\"-120.44\",\"50.70\",\"KAMLOOPS
        A\",\"1163780\",\"2012-11-12 06:00\",\"2012\",\"11\",\"12\",\"06:00\",\"-0.9\",\"\",\"-1.8\",\"\",\"94\",\"\",\"\",\"\",\"11\",\"\",\"15\",\"\",\"16.1\",\"\",\"98.06\",\"\",\"\",\"\",\"-6\",\"\",\"Snow\"\r\n\"-120.44\",\"50.70\",\"KAMLOOPS
        A\",\"1163780\",\"2012-11-12 07:00\",\"2012\",\"11\",\"12\",\"07:00\",\"-0.7\",\"\",\"-1.7\",\"\",\"93\",\"\",\"\",\"\",\"10\",\"\",\"13\",\"\",\"24.1\",\"\",\"98.07\",\"\",\"\",\"\",\"-5\",\"\",\"Cloudy\"\r\n\"-120.44\",\"50.70\",\"KAMLOOPS
        A\",\"1163780\",\"2012-11-12 08:00\",\"2012\",\"11\",\"12\",\"08:00\",\"-0.6\",\"\",\"-1.8\",\"\",\"92\",\"\",\"\",\"\",\"11\",\"\",\"15\",\"\",\"32.2\",\"\",\"98.06\",\"\",\"\",\"\",\"-5\",\"\",\"Cloudy\"\r\n\"-120.44\",\"50.70\",\"KAMLOOPS
        A\",\"1163780\",\"2012-11-12 09:00\",\"2012\",\"11\",\"12\",\"09:00\",\"0.0\",\"\",\"-1.5\",\"\",\"90\",\"\",\"\",\"\",\"11\",\"\",\"13\",\"\",\"32.2\",\"\",\"98.07\",\"\",\"\",\"\",\"-4\",\"\",\"Cloudy\"\r\n\"-120.44\",\"50.70\",\"KAMLOOPS
        A\",\"1163780\",\"2012-11-12 10:00\",\"2012\",\"11\",\"12\",\"10:00\",\"0.7\",\"\",\"-0.9\",\"\",\"89\",\"\",\"\",\"\",\"11\",\"\",\"11\",\"\",\"48.3\",\"\",\"98.04\",\"\",\"\",\"\",\"\",\"\",\"Cloudy\"\r\n\"-120.44\",\"50.70\",\"KAMLOOPS
        A\",\"1163780\",\"2012-11-12 11:00\",\"2012\",\"11\",\"12\",\"11:00\",\"1.1\",\"\",\"-0.5\",\"\",\"89\",\"\",\"\",\"\",\"12\",\"\",\"13\",\"\",\"48.3\",\"\",\"98.04\",\"\",\"\",\"\",\"\",\"\",\"Cloudy\"\r\n\"-120.44\",\"50.70\",\"KAMLOOPS
        A\",\"1163780\",\"2012-11-12 12:00\",\"2012\",\"11\",\"12\",\"12:00\",\"1.5\",\"\",\"0.0\",\"\",\"90\",\"\",\"\",\"\",\"12\",\"\",\"15\",\"\",\"48.3\",\"\",\"98.00\",\"\",\"\",\"\",\"\",\"\",\"Cloudy\"\r\n\"-120.44\",\"50.70\",\"KAMLOOPS
        A\",\"1163780\",\"2012-11-12 13:00\",\"2012\",\"11\",\"12\",\"13:00\",\"2.0\",\"\",\"0.0\",\"\",\"87\",\"\",\"\",\"\",\"11\",\"\",\"15\",\"\",\"48.3\",\"\",\"97.99\",\"\",\"\",\"\",\"\",\"\",\"Cloudy\"\r\n\"-120.44\",\"50.70\",\"KAMLOOPS
        A\",\"1163780\",\"2012-11-12 14:00\",\"2012\",\"11\",\"12\",\"14:00\",\"2.2\",\"\",\"0.2\",\"\",\"87\",\"\",\"\",\"\",\"12\",\"\",\"15\",\"\",\"48.3\",\"\",\"97.97\",\"\",\"\",\"\",\"\",\"\",\"Cloudy\"\r\n\"-120.44\",\"50.70\",\"KAMLOOPS
        A\",\"1163780\",\"2012-11-12 15:00\",\"2012\",\"11\",\"12\",\"15:00\",\"2.4\",\"\",\"-0.8\",\"\",\"79\",\"\",\"\",\"\",\"11\",\"\",\"13\",\"\",\"48.3\",\"\",\"97.99\",\"\",\"\",\"\",\"\",\"\",\"Cloudy\"\r\n\"-120.44\",\"50.70\",\"KAMLOOPS
        A\",\"1163780\",\"2012-11-12 16:00\",\"2012\",\"11\",\"12\",\"16:00\",\"2.2\",\"\",\"-0.5\",\"\",\"82\",\"\",\"\",\"\",\"12\",\"\",\"9\",\"\",\"48.3\",\"\",\"97.99\",\"\",\"\",\"\",\"\",\"\",\"Cloudy\"\r\n\"-120.44\",\"50.70\",\"KAMLOOPS
        A\",\"1163780\",\"2012-11-12 17:00\",\"2012\",\"11\",\"12\",\"17:00\",\"1.7\",\"\",\"-0.6\",\"\",\"85\",\"\",\"\",\"\",\"9\",\"\",\"4\",\"\",\"48.3\",\"\",\"98.00\",\"\",\"\",\"\",\"\",\"\",\"Cloudy\"\r\n\"-120.44\",\"50.70\",\"KAMLOOPS
        A\",\"1163780\",\"2012-11-12 18:00\",\"2012\",\"11\",\"12\",\"18:00\",\"2.0\",\"\",\"-0.3\",\"\",\"85\",\"\",\"\",\"\",\"11\",\"\",\"13\",\"\",\"48.3\",\"\",\"98.01\",\"\",\"\",\"\",\"\",\"\",\"Cloudy\"\r\n\"-120.44\",\"50.70\",\"KAMLOOPS
        A\",\"1163780\",\"2012-11-12 19:00\",\"2012\",\"11\",\"12\",\"19:00\",\"1.6\",\"\",\"-0.2\",\"\",\"88\",\"\",\"\",\"\",\"8\",\"\",\"4\",\"\",\"48.3\",\"\",\"98.04\",\"\",\"\",\"\",\"\",\"\",\"Cloudy\"\r\n\"-120.44\",\"50.70\",\"KAMLOOPS
        A\",\"1163780\",\"2012-11-12 20:00\",\"2012\",\"11\",\"12\",\"20:00\",\"1.4\",\"\",\"-0.1\",\"\",\"90\",\"\",\"\",\"\",\"7\",\"\",\"7\",\"\",\"48.3\",\"\",\"98.04\",\"\",\"\",\"\",\"\",\"\",\"Cloudy\"\r\n\"-120.44\",\"50.70\",\"KAMLOOPS
        A\",\"1163780\",\"2012-11-12 21:00\",\"2012\",\"11\",\"12\",\"21:00\",\"1.6\",\"\",\"-0.1\",\"\",\"88\",\"\",\"\",\"\",\"6\",\"\",\"6\",\"\",\"48.3\",\"\",\"98.06\",\"\",\"\",\"\",\"\",\"\",\"Cloudy\"\r\n\"-120.44\",\"50.70\",\"KAMLOOPS
        A\",\"1163780\",\"2012-11-12 22:00\",\"2012\",\"11\",\"12\",\"22:00\",\"1.2\",\"\",\"-0.2\",\"\",\"90\",\"\",\"\",\"\",\"8\",\"\",\"7\",\"\",\"48.3\",\"\",\"98.07\",\"\",\"\",\"\",\"\",\"\",\"Cloudy\"\r\n\"-120.44\",\"50.70\",\"KAMLOOPS
        A\",\"1163780\",\"2012-11-12 23:00\",\"2012\",\"11\",\"12\",\"23:00\",\"1.2\",\"\",\"-0.4\",\"\",\"89\",\"\",\"\",\"\",\"9\",\"\",\"9\",\"\",\"64.4\",\"\",\"98.10\",\"\",\"\",\"\",\"\",\"\",\"Cloudy\"\r\n\"-120.44\",\"50.70\",\"KAMLOOPS
        A\",\"1163780\",\"2012-11-13 00:00\",\"2012\",\"11\",\"13\",\"00:00\",\"1.2\",\"\",\"-0.4\",\"\",\"89\",\"\",\"\",\"\",\"8\",\"\",\"7\",\"\",\"64.4\",\"\",\"98.09\",\"\",\"\",\"\",\"\",\"\",\"Cloudy\"\r\n\"-120.44\",\"50.70\",\"KAMLOOPS
        A\",\"1163780\",\"2012-11-13 01:00\",\"2012\",\"11\",\"13\",\"01:00\",\"1.1\",\"\",\"-0.3\",\"\",\"90\",\"\",\"\",\"\",\"11\",\"\",\"4\",\"\",\"64.4\",\"\",\"98.08\",\"\",\"\",\"\",\"\",\"\",\"Cloudy\"\r\n\"-120.44\",\"50.70\",\"KAMLOOPS
        A\",\"1163780\",\"2012-11-13 02:00\",\"2012\",\"11\",\"13\",\"02:00\",\"0.8\",\"\",\"-0.5\",\"\",\"91\",\"\",\"\",\"\",\"9\",\"\",\"7\",\"\",\"64.4\",\"\",\"98.06\",\"\",\"\",\"\",\"\",\"\",\"Cloudy\"\r\n\"-120.44\",\"50.70\",\"KAMLOOPS
        A\",\"1163780\",\"2012-11-13 03:00\",\"2012\",\"11\",\"13\",\"03:00\",\"0.9\",\"\",\"-0.4\",\"\",\"91\",\"\",\"\",\"\",\"5\",\"\",\"4\",\"\",\"64.4\",\"\",\"98.06\",\"\",\"\",\"\",\"\",\"\",\"Cloudy\"\r\n\"-120.44\",\"50.70\",\"KAMLOOPS
        A\",\"1163780\",\"2012-11-13 04:00\",\"2012\",\"11\",\"13\",\"04:00\",\"0.9\",\"\",\"-0.3\",\"\",\"92\",\"\",\"\",\"\",\"7\",\"\",\"6\",\"\",\"64.4\",\"\",\"98.07\",\"\",\"\",\"\",\"\",\"\",\"Cloudy\"\r\n\"-120.44\",\"50.70\",\"KAMLOOPS
        A\",\"1163780\",\"2012-11-13 05:00\",\"2012\",\"11\",\"13\",\"05:00\",\"1.7\",\"\",\"0.4\",\"\",\"91\",\"\",\"\",\"\",\"9\",\"\",\"4\",\"\",\"64.4\",\"\",\"98.07\",\"\",\"\",\"\",\"\",\"\",\"Cloudy\"\r\n\"-120.44\",\"50.70\",\"KAMLOOPS
        A\",\"1163780\",\"2012-11-13 06:00\",\"2012\",\"11\",\"13\",\"06:00\",\"1.0\",\"\",\"-0.2\",\"\",\"92\",\"\",\"\",\"\",\"6\",\"\",\"4\",\"\",\"64.4\",\"\",\"98.07\",\"\",\"\",\"\",\"\",\"\",\"Cloudy\"\r\n\"-120.44\",\"50.70\",\"KAMLOOPS
        A\",\"1163780\",\"2012-11-13 07:00\",\"2012\",\"11\",\"13\",\"07:00\",\"1.3\",\"\",\"0.0\",\"\",\"91\",\"\",\"\",\"\",\"\",\"\",\"0\",\"\",\"32.2\",\"\",\"98.07\",\"\",\"\",\"\",\"\",\"\",\"Cloudy\"\r\n\"-120.44\",\"50.70\",\"KAMLOOPS
        A\",\"1163780\",\"2012-11-13 08:00\",\"2012\",\"11\",\"13\",\"08:00\",\"1.9\",\"\",\"-0.1\",\"\",\"87\",\"\",\"\",\"\",\"28\",\"\",\"4\",\"\",\"40.2\",\"\",\"98.07\",\"\",\"\",\"\",\"\",\"\",\"Cloudy\"\r\n\"-120.44\",\"50.70\",\"KAMLOOPS
        A\",\"1163780\",\"2012-11-13 09:00\",\"2012\",\"11\",\"13\",\"09:00\",\"1.8\",\"\",\"0.5\",\"\",\"91\",\"\",\"\",\"\",\"10\",\"\",\"4\",\"\",\"48.3\",\"\",\"98.09\",\"\",\"\",\"\",\"\",\"\",\"Cloudy\"\r\n\"-120.44\",\"50.70\",\"KAMLOOPS
        A\",\"1163780\",\"2012-11-13 10:00\",\"2012\",\"11\",\"13\",\"10:00\",\"1.9\",\"\",\"0.8\",\"\",\"92\",\"\",\"\",\"\",\"\",\"\",\"0\",\"\",\"48.3\",\"\",\"98.10\",\"\",\"\",\"\",\"\",\"\",\"Cloudy\"\r\n\"-120.44\",\"50.70\",\"KAMLOOPS
        A\",\"1163780\",\"2012-11-13 11:00\",\"2012\",\"11\",\"13\",\"11:00\",\"2.5\",\"\",\"0.5\",\"\",\"87\",\"\",\"\",\"\",\"\",\"\",\"0\",\"\",\"48.3\",\"\",\"98.07\",\"\",\"\",\"\",\"\",\"\",\"Cloudy\"\r\n\"-120.44\",\"50.70\",\"KAMLOOPS
        A\",\"1163780\",\"2012-11-13 12:00\",\"2012\",\"11\",\"13\",\"12:00\",\"2.6\",\"\",\"0.5\",\"\",\"86\",\"\",\"\",\"\",\"\",\"\",\"0\",\"\",\"48.3\",\"\",\"98.03\",\"\",\"\",\"\",\"\",\"\",\"Cloudy\"\r\n\"-120.44\",\"50.70\",\"KAMLOOPS
        A\",\"1163780\",\"2012-11-13 13:00\",\"2012\",\"11\",\"13\",\"13:00\",\"3.0\",\"\",\"0.7\",\"\",\"85\",\"\",\"\",\"\",\"\",\"\",\"0\",\"\",\"48.3\",\"\",\"97.99\",\"\",\"\",\"\",\"\",\"\",\"Cloudy\"\r\n\"-120.44\",\"50.70\",\"KAMLOOPS
        A\",\"1163780\",\"2012-11-13 14:00\",\"2012\",\"11\",\"13\",\"14:00\",\"3.1\",\"\",\"0.9\",\"\",\"85\",\"\",\"\",\"\",\"23\",\"\",\"4\",\"\",\"40.2\",\"\",\"97.96\",\"\",\"\",\"\",\"\",\"\",\"Cloudy\"\r\n\"-120.44\",\"50.70\",\"KAMLOOPS
        A\",\"1163780\",\"2012-11-13 15:00\",\"2012\",\"11\",\"13\",\"15:00\",\"3.2\",\"\",\"0.8\",\"\",\"84\",\"\",\"\",\"\",\"\",\"\",\"0\",\"\",\"40.2\",\"\",\"97.92\",\"\",\"\",\"\",\"\",\"\",\"Cloudy\"\r\n\"-120.44\",\"50.70\",\"KAMLOOPS
        A\",\"1163780\",\"2012-11-13 16:00\",\"2012\",\"11\",\"13\",\"16:00\",\"3.1\",\"\",\"0.8\",\"\",\"85\",\"\",\"\",\"\",\"27\",\"\",\"4\",\"\",\"40.2\",\"\",\"97.91\",\"\",\"\",\"\",\"\",\"\",\"Cloudy\"\r\n\"-120.44\",\"50.70\",\"KAMLOOPS
        A\",\"1163780\",\"2012-11-13 17:00\",\"2012\",\"11\",\"13\",\"17:00\",\"3.3\",\"\",\"1.3\",\"\",\"87\",\"\",\"\",\"\",\"\",\"\",\"0\",\"\",\"32.2\",\"\",\"97.87\",\"\",\"\",\"\",\"\",\"\",\"Cloudy\"\r\n\"-120.44\",\"50.70\",\"KAMLOOPS
        A\",\"1163780\",\"2012-11-13 18:00\",\"2012\",\"11\",\"13\",\"18:00\",\"2.7\",\"\",\"0.9\",\"\",\"88\",\"\",\"\",\"\",\"7\",\"\",\"6\",\"\",\"32.2\",\"\",\"97.87\",\"\",\"\",\"\",\"\",\"\",\"Cloudy\"\r\n\"-120.44\",\"50.70\",\"KAMLOOPS
        A\",\"1163780\",\"2012-11-13 19:00\",\"2012\",\"11\",\"13\",\"19:00\",\"2.5\",\"\",\"1.0\",\"\",\"90\",\"\",\"\",\"\",\"9\",\"\",\"6\",\"\",\"32.2\",\"\",\"97.86\",\"\",\"\",\"\",\"\",\"\",\"Cloudy\"\r\n\"-120.44\",\"50.70\",\"KAMLOOPS
        A\",\"1163780\",\"2012-11-13 20:00\",\"2012\",\"11\",\"13\",\"20:00\",\"2.5\",\"\",\"1.0\",\"\",\"90\",\"\",\"\",\"\",\"\",\"\",\"0\",\"\",\"32.2\",\"\",\"97.87\",\"\",\"\",\"\",\"\",\"\",\"Cloudy\"\r\n\"-120.44\",\"50.70\",\"KAMLOOPS
        A\",\"1163780\",\"2012-11-13 21:00\",\"2012\",\"11\",\"13\",\"21:00\",\"2.2\",\"\",\"0.8\",\"\",\"90\",\"\",\"\",\"\",\"9\",\"\",\"4\",\"\",\"32.2\",\"\",\"97.86\",\"\",\"\",\"\",\"\",\"\",\"Cloudy\"\r\n\"-120.44\",\"50.70\",\"KAMLOOPS
        A\",\"1163780\",\"2012-11-13 22:00\",\"2012\",\"11\",\"13\",\"22:00\",\"2.5\",\"\",\"1.1\",\"\",\"90\",\"\",\"\",\"\",\"\",\"\",\"0\",\"\",\"32.2\",\"\",\"97.87\",\"\",\"\",\"\",\"\",\"\",\"Cloudy\"\r\n\"-120.44\",\"50.70\",\"KAMLOOPS
        A\",\"1163780\",\"2012-11-13 23:00\",\"2012\",\"11\",\"13\",\"23:00\",\"2.2\",\"\",\"1.0\",\"\",\"92\",\"\",\"\",\"\",\"\",\"\",\"0\",\"\",\"32.2\",\"\",\"97.85\",\"\",\"\",\"\",\"\",\"\",\"Cloudy\"\r\n\"-120.44\",\"50.70\",\"KAMLOOPS
        A\",\"1163780\",\"2012-11-14 00:00\",\"2012\",\"11\",\"14\",\"00:00\",\"2.0\",\"\",\"1.3\",\"\",\"95\",\"\",\"\",\"\",\"\",\"\",\"0\",\"\",\"32.2\",\"\",\"97.86\",\"\",\"\",\"\",\"\",\"\",\"Cloudy\"\r\n\"-120.44\",\"50.70\",\"KAMLOOPS
        A\",\"1163780\",\"2012-11-14 01:00\",\"2012\",\"11\",\"14\",\"01:00\",\"1.6\",\"\",\"0.9\",\"\",\"95\",\"\",\"\",\"\",\"36\",\"\",\"7\",\"\",\"32.2\",\"\",\"97.86\",\"\",\"\",\"\",\"\",\"\",\"Cloudy\"\r\n\"-120.44\",\"50.70\",\"KAMLOOPS
        A\",\"1163780\",\"2012-11-14 02:00\",\"2012\",\"11\",\"14\",\"02:00\",\"2.3\",\"\",\"1.3\",\"\",\"93\",\"\",\"\",\"\",\"26\",\"\",\"4\",\"\",\"32.2\",\"\",\"97.92\",\"\",\"\",\"\",\"\",\"\",\"Cloudy\"\r\n\"-120.44\",\"50.70\",\"KAMLOOPS
        A\",\"1163780\",\"2012-11-14 03:00\",\"2012\",\"11\",\"14\",\"03:00\",\"1.6\",\"\",\"0.9\",\"\",\"95\",\"\",\"\",\"\",\"8\",\"\",\"6\",\"\",\"32.2\",\"\",\"97.92\",\"\",\"\",\"\",\"\",\"\",\"Cloudy\"\r\n\"-120.44\",\"50.70\",\"KAMLOOPS
        A\",\"1163780\",\"2012-11-14 04:00\",\"2012\",\"11\",\"14\",\"04:00\",\"2.0\",\"\",\"0.9\",\"\",\"92\",\"\",\"\",\"\",\"6\",\"\",\"6\",\"\",\"32.2\",\"\",\"97.94\",\"\",\"\",\"\",\"\",\"\",\"Cloudy\"\r\n\"-120.44\",\"50.70\",\"KAMLOOPS
        A\",\"1163780\",\"2012-11-14 05:00\",\"2012\",\"11\",\"14\",\"05:00\",\"2.3\",\"\",\"1.3\",\"\",\"93\",\"\",\"\",\"\",\"\",\"\",\"0\",\"\",\"32.2\",\"\",\"98.01\",\"\",\"\",\"\",\"\",\"\",\"Cloudy\"\r\n\"-120.44\",\"50.70\",\"KAMLOOPS
        A\",\"1163780\",\"2012-11-14 06:00\",\"2012\",\"11\",\"14\",\"06:00\",\"1.6\",\"\",\"1.0\",\"\",\"96\",\"\",\"\",\"\",\"6\",\"\",\"4\",\"\",\"24.1\",\"\",\"98.08\",\"\",\"\",\"\",\"\",\"\",\"Rain
        Showers\"\r\n\"-120.44\",\"50.70\",\"KAMLOOPS A\",\"1163780\",\"2012-11-14
        07:00\",\"2012\",\"11\",\"14\",\"07:00\",\"1.8\",\"\",\"1.3\",\"\",\"96\",\"\",\"\",\"\",\"\",\"\",\"0\",\"\",\"24.1\",\"\",\"98.15\",\"\",\"\",\"\",\"\",\"\",\"Cloudy\"\r\n\"-120.44\",\"50.70\",\"KAMLOOPS
        A\",\"1163780\",\"2012-11-14 08:00\",\"2012\",\"11\",\"14\",\"08:00\",\"2.0\",\"\",\"1.4\",\"\",\"96\",\"\",\"\",\"\",\"18\",\"\",\"4\",\"\",\"24.1\",\"\",\"98.23\",\"\",\"\",\"\",\"\",\"\",\"Mostly
        Cloudy\"\r\n\"-120.44\",\"50.70\",\"KAMLOOPS A\",\"1163780\",\"2012-11-14
        09:00\",\"2012\",\"11\",\"14\",\"09:00\",\"2.3\",\"\",\"1.3\",\"\",\"93\",\"\",\"\",\"\",\"\",\"\",\"0\",\"\",\"32.2\",\"\",\"98.28\",\"\",\"\",\"\",\"\",\"\",\"Mostly
        Cloudy\"\r\n\"-120.44\",\"50.70\",\"KAMLOOPS A\",\"1163780\",\"2012-11-14
        10:00\",\"2012\",\"11\",\"14\",\"10:00\",\"3.3\",\"\",\"1.6\",\"\",\"89\",\"\",\"\",\"\",\"\",\"\",\"0\",\"\",\"32.2\",\"\",\"98.32\",\"\",\"\",\"\",\"\",\"\",\"Mostly
        Cloudy\"\r\n\"-120.44\",\"50.70\",\"KAMLOOPS A\",\"1163780\",\"2012-11-14
        11:00\",\"2012\",\"11\",\"14\",\"11:00\",\"3.9\",\"\",\"2.1\",\"\",\"88\",\"\",\"\",\"\",\"9\",\"\",\"4\",\"\",\"32.2\",\"\",\"98.36\",\"\",\"\",\"\",\"\",\"\",\"Mostly
        Cloudy\"\r\n\"-120.44\",\"50.70\",\"KAMLOOPS A\",\"1163780\",\"2012-11-14
        12:00\",\"2012\",\"11\",\"14\",\"12:00\",\"4.7\",\"\",\"1.7\",\"\",\"81\",\"\",\"\",\"\",\"\",\"\",\"0\",\"\",\"40.2\",\"\",\"98.35\",\"\",\"\",\"\",\"\",\"\",\"Mostly
        Cloudy\"\r\n\"-120.44\",\"50.70\",\"KAMLOOPS A\",\"1163780\",\"2012-11-14
        13:00\",\"2012\",\"11\",\"14\",\"13:00\",\"5.2\",\"\",\"1.5\",\"\",\"77\",\"\",\"\",\"\",\"20\",\"\",\"4\",\"\",\"48.3\",\"\",\"98.35\",\"\",\"\",\"\",\"\",\"\",\"Mostly
        Cloudy\"\r\n\"-120.44\",\"50.70\",\"KAMLOOPS A\",\"1163780\",\"2012-11-14
        14:00\",\"2012\",\"11\",\"14\",\"14:00\",\"4.7\",\"\",\"1.9\",\"\",\"82\",\"\",\"\",\"\",\"\",\"\",\"0\",\"\",\"48.3\",\"\",\"98.33\",\"\",\"\",\"\",\"\",\"\",\"Mainly
        Clear\"\r\n\"-120.44\",\"50.70\",\"KAMLOOPS A\",\"1163780\",\"2012-11-14 15:00\",\"2012\",\"11\",\"14\",\"15:00\",\"4.5\",\"\",\"1.9\",\"\",\"83\",\"\",\"\",\"\",\"16\",\"\",\"4\",\"\",\"48.3\",\"\",\"98.31\",\"\",\"\",\"\",\"\",\"\",\"Mainly
        Clear\"\r\n\"-120.44\",\"50.70\",\"KAMLOOPS A\",\"1163780\",\"2012-11-14 16:00\",\"2012\",\"11\",\"14\",\"16:00\",\"3.8\",\"\",\"1.8\",\"\",\"87\",\"\",\"\",\"\",\"\",\"\",\"0\",\"\",\"48.3\",\"\",\"98.34\",\"\",\"\",\"\",\"\",\"\",\"Mostly
        Cloudy\"\r\n\"-120.44\",\"50.70\",\"KAMLOOPS A\",\"1163780\",\"2012-11-14
        17:00\",\"2012\",\"11\",\"14\",\"17:00\",\"2.1\",\"\",\"1.1\",\"\",\"93\",\"\",\"\",\"\",\"\",\"\",\"0\",\"\",\"48.3\",\"\",\"98.35\",\"\",\"\",\"\",\"\",\"\",\"Mostly
        Cloudy\"\r\n\"-120.44\",\"50.70\",\"KAMLOOPS A\",\"1163780\",\"2012-11-14
        18:00\",\"2012\",\"11\",\"14\",\"18:00\",\"1.3\",\"\",\"0.3\",\"\",\"93\",\"\",\"\",\"\",\"\",\"\",\"0\",\"\",\"48.3\",\"\",\"98.39\",\"\",\"\",\"\",\"\",\"\",\"Mostly
        Cloudy\"\r\n\"-120.44\",\"50.70\",\"KAMLOOPS A\",\"1163780\",\"2012-11-14
        19:00\",\"2012\",\"11\",\"14\",\"19:00\",\"1.5\",\"\",\"0.5\",\"\",\"93\",\"\",\"\",\"\",\"10\",\"\",\"6\",\"\",\"48.3\",\"\",\"98.41\",\"\",\"\",\"\",\"\",\"\",\"Mostly
        Cloudy\"\r\n\"-120.44\",\"50.70\",\"KAMLOOPS A\",\"1163780\",\"2012-11-14
        20:00\",\"2012\",\"11\",\"14\",\"20:00\",\"0.9\",\"\",\"0.4\",\"\",\"96\",\"\",\"\",\"\",\"\",\"\",\"0\",\"\",\"48.3\",\"\",\"98.41\",\"\",\"\",\"\",\"\",\"\",\"Mostly
        Cloudy\"\r\n\"-120.44\",\"50.70\",\"KAMLOOPS A\",\"1163780\",\"2012-11-14
        21:00\",\"2012\",\"11\",\"14\",\"21:00\",\"0.1\",\"\",\"-0.5\",\"\",\"96\",\"\",\"\",\"\",\"\",\"\",\"0\",\"\",\"48.3\",\"\",\"98.43\",\"\",\"\",\"\",\"\",\"\",\"Mostly
        Cloudy\"\r\n\"-120.44\",\"50.70\",\"KAMLOOPS A\",\"1163780\",\"2012-11-14
        22:00\",\"2012\",\"11\",\"14\",\"22:00\",\"-0.3\",\"\",\"-1.0\",\"\",\"95\",\"\",\"\",\"\",\"7\",\"\",\"7\",\"\",\"48.3\",\"\",\"98.46\",\"\",\"\",\"\",\"-3\",\"\",\"Mostly
        Cloudy\"\r\n\"-120.44\",\"50.70\",\"KAMLOOPS A\",\"1163780\",\"2012-11-14
        23:00\",\"2012\",\"11\",\"14\",\"23:00\",\"-0.2\",\"\",\"-0.9\",\"\",\"95\",\"\",\"\",\"\",\"7\",\"\",\"6\",\"\",\"48.3\",\"\",\"98.46\",\"\",\"\",\"\",\"-2\",\"\",\"Mostly
        Cloudy\"\r\n\"-120.44\",\"50.70\",\"KAMLOOPS A\",\"1163780\",\"2012-11-15
        00:00\",\"2012\",\"11\",\"15\",\"00:00\",\"0.4\",\"\",\"-0.4\",\"\",\"94\",\"\",\"\",\"\",\"\",\"\",\"0\",\"\",\"64.4\",\"\",\"98.46\",\"\",\"\",\"\",\"\",\"\",\"Mainly
        Clear\"\r\n\"-120.44\",\"50.70\",\"KAMLOOPS A\",\"1163780\",\"2012-11-15 01:00\",\"2012\",\"11\",\"15\",\"01:00\",\"-0.3\",\"\",\"-0.9\",\"\",\"96\",\"\",\"\",\"\",\"5\",\"\",\"4\",\"\",\"64.4\",\"\",\"98.43\",\"\",\"\",\"\",\"-2\",\"\",\"Mostly
        Cloudy\"\r\n\"-120.44\",\"50.70\",\"KAMLOOPS A\",\"1163780\",\"2012-11-15
        02:00\",\"2012\",\"11\",\"15\",\"02:00\",\"0.6\",\"\",\"-0.5\",\"\",\"92\",\"\",\"\",\"\",\"11\",\"\",\"4\",\"\",\"64.4\",\"\",\"98.40\",\"\",\"\",\"\",\"\",\"\",\"Mainly
        Clear\"\r\n\"-120.44\",\"50.70\",\"KAMLOOPS A\",\"1163780\",\"2012-11-15 03:00\",\"2012\",\"11\",\"15\",\"03:00\",\"-1.0\",\"\",\"-1.7\",\"\",\"95\",\"\",\"\",\"\",\"36\",\"\",\"6\",\"\",\"64.4\",\"\",\"98.39\",\"\",\"\",\"\",\"-3\",\"\",\"Mainly
        Clear\"\r\n\"-120.44\",\"50.70\",\"KAMLOOPS A\",\"1163780\",\"2012-11-15 04:00\",\"2012\",\"11\",\"15\",\"04:00\",\"-1.5\",\"\",\"-2.4\",\"\",\"94\",\"\",\"\",\"\",\"5\",\"\",\"7\",\"\",\"64.4\",\"\",\"98.32\",\"\",\"\",\"\",\"-4\",\"\",\"Mainly
        Clear\"\r\n\"-120.44\",\"50.70\",\"KAMLOOPS A\",\"1163780\",\"2012-11-15 05:00\",\"2012\",\"11\",\"15\",\"05:00\",\"0.2\",\"\",\"-0.6\",\"\",\"94\",\"\",\"\",\"\",\"9\",\"\",\"11\",\"\",\"64.4\",\"\",\"98.30\",\"\",\"\",\"\",\"\",\"\",\"Mainly
        Clear\"\r\n\"-120.44\",\"50.70\",\"KAMLOOPS A\",\"1163780\",\"2012-11-15 06:00\",\"2012\",\"11\",\"15\",\"06:00\",\"0.1\",\"\",\"-0.8\",\"\",\"94\",\"\",\"\",\"\",\"8\",\"\",\"9\",\"\",\"64.4\",\"\",\"98.26\",\"\",\"\",\"\",\"\",\"\",\"Mainly
        Clear\"\r\n\"-120.44\",\"50.70\",\"KAMLOOPS A\",\"1163780\",\"2012-11-15 07:00\",\"2012\",\"11\",\"15\",\"07:00\",\"0.0\",\"\",\"-1.1\",\"\",\"92\",\"\",\"\",\"\",\"9\",\"\",\"17\",\"\",\"64.4\",\"\",\"98.22\",\"\",\"\",\"\",\"-5\",\"\",\"Mostly
        Cloudy\"\r\n\"-120.44\",\"50.70\",\"KAMLOOPS A\",\"1163780\",\"2012-11-15
        08:00\",\"2012\",\"11\",\"15\",\"08:00\",\"0.8\",\"\",\"-0.4\",\"\",\"92\",\"\",\"\",\"\",\"9\",\"\",\"15\",\"\",\"64.4\",\"\",\"98.19\",\"\",\"\",\"\",\"\",\"\",\"Mostly
        Cloudy\"\r\n\"-120.44\",\"50.70\",\"KAMLOOPS A\",\"1163780\",\"2012-11-15
        09:00\",\"2012\",\"11\",\"15\",\"09:00\",\"1.4\",\"\",\"0.0\",\"\",\"90\",\"\",\"\",\"\",\"8\",\"\",\"17\",\"\",\"64.4\",\"\",\"98.14\",\"\",\"\",\"\",\"\",\"\",\"Mostly
        Cloudy\"\r\n\"-120.44\",\"50.70\",\"KAMLOOPS A\",\"1163780\",\"2012-11-15
        10:00\",\"2012\",\"11\",\"15\",\"10:00\",\"2.8\",\"\",\"0.9\",\"\",\"87\",\"\",\"\",\"\",\"10\",\"\",\"19\",\"\",\"64.4\",\"\",\"98.09\",\"\",\"\",\"\",\"\",\"\",\"Mostly
        Cloudy\"\r\n\"-120.44\",\"50.70\",\"KAMLOOPS A\",\"1163780\",\"2012-11-15
        11:00\",\"2012\",\"11\",\"15\",\"11:00\",\"4.5\",\"\",\"1.2\",\"\",\"79\",\"\",\"\",\"\",\"11\",\"\",\"20\",\"\",\"64.4\",\"\",\"97.99\",\"\",\"\",\"\",\"\",\"\",\"Mostly
        Cloudy\"\r\n\"-120.44\",\"50.70\",\"KAMLOOPS A\",\"1163780\",\"2012-11-15
        12:00\",\"2012\",\"11\",\"15\",\"12:00\",\"6.0\",\"\",\"1.6\",\"\",\"73\",\"\",\"\",\"\",\"11\",\"\",\"17\",\"\",\"64.4\",\"\",\"97.87\",\"\",\"\",\"\",\"\",\"\",\"Mostly
        Cloudy\"\r\n\"-120.44\",\"50.70\",\"KAMLOOPS A\",\"1163780\",\"2012-11-15
        13:00\",\"2012\",\"11\",\"15\",\"13:00\",\"7.4\",\"\",\"0.4\",\"\",\"61\",\"\",\"\",\"\",\"7\",\"\",\"17\",\"\",\"64.4\",\"\",\"97.77\",\"\",\"\",\"\",\"\",\"\",\"Mainly
        Clear\"\r\n\"-120.44\",\"50.70\",\"KAMLOOPS A\",\"1163780\",\"2012-11-15 14:00\",\"2012\",\"11\",\"15\",\"14:00\",\"7.5\",\"\",\"-0.5\",\"\",\"57\",\"\",\"\",\"\",\"10\",\"\",\"24\",\"\",\"64.4\",\"\",\"97.64\",\"\",\"\",\"\",\"\",\"\",\"Mostly
        Cloudy\"\r\n\"-120.44\",\"50.70\",\"KAMLOOPS A\",\"1163780\",\"2012-11-15
        15:00\",\"2012\",\"11\",\"15\",\"15:00\",\"7.5\",\"\",\"-0.1\",\"\",\"59\",\"\",\"\",\"\",\"11\",\"\",\"17\",\"\",\"64.4\",\"\",\"97.59\",\"\",\"\",\"\",\"\",\"\",\"Mostly
        Cloudy\"\r\n\"-120.44\",\"50.70\",\"KAMLOOPS A\",\"1163780\",\"2012-11-15
        16:00\",\"2012\",\"11\",\"15\",\"16:00\",\"6.4\",\"\",\"-0.3\",\"\",\"62\",\"\",\"\",\"\",\"10\",\"\",\"15\",\"\",\"64.4\",\"\",\"97.54\",\"\",\"\",\"\",\"\",\"\",\"Mostly
        Cloudy\"\r\n\"-120.44\",\"50.70\",\"KAMLOOPS A\",\"1163780\",\"2012-11-15
        17:00\",\"2012\",\"11\",\"15\",\"17:00\",\"5.2\",\"\",\"-0.2\",\"\",\"68\",\"\",\"\",\"\",\"10\",\"\",\"13\",\"\",\"64.4\",\"\",\"97.49\",\"\",\"\",\"\",\"\",\"\",\"Mostly
        Cloudy\"\r\n\"-120.44\",\"50.70\",\"KAMLOOPS A\",\"1163780\",\"2012-11-15
        18:00\",\"2012\",\"11\",\"15\",\"18:00\",\"3.9\",\"\",\"0.3\",\"\",\"77\",\"\",\"\",\"\",\"10\",\"\",\"15\",\"\",\"64.4\",\"\",\"97.47\",\"\",\"\",\"\",\"\",\"\",\"Mainly
        Clear\"\r\n\"-120.44\",\"50.70\",\"KAMLOOPS A\",\"1163780\",\"2012-11-15 19:00\",\"2012\",\"11\",\"15\",\"19:00\",\"3.3\",\"\",\"-0.2\",\"\",\"78\",\"\",\"\",\"\",\"9\",\"\",\"17\",\"\",\"64.4\",\"\",\"97.47\",\"\",\"\",\"\",\"\",\"\",\"Mainly
        Clear\"\r\n\"-120.44\",\"50.70\",\"KAMLOOPS A\",\"1163780\",\"2012-11-15 20:00\",\"2012\",\"11\",\"15\",\"20:00\",\"3.4\",\"\",\"0.1\",\"\",\"79\",\"\",\"\",\"\",\"9\",\"\",\"13\",\"\",\"64.4\",\"\",\"97.48\",\"\",\"\",\"\",\"\",\"\",\"Mainly
        Clear\"\r\n\"-120.44\",\"50.70\",\"KAMLOOPS A\",\"1163780\",\"2012-11-15 21:00\",\"2012\",\"11\",\"15\",\"21:00\",\"2.9\",\"\",\"-0.3\",\"\",\"79\",\"\",\"\",\"\",\"8\",\"\",\"17\",\"\",\"64.4\",\"\",\"97.43\",\"\",\"\",\"\",\"\",\"\",\"Mostly
        Cloudy\"\r\n\"-120.44\",\"50.70\",\"KAMLOOPS A\",\"1163780\",\"2012-11-15
        22:00\",\"2012\",\"11\",\"15\",\"22:00\",\"2.4\",\"\",\"-0.4\",\"\",\"82\",\"\",\"\",\"\",\"8\",\"\",\"13\",\"\",\"64.4\",\"\",\"97.42\",\"\",\"\",\"\",\"\",\"\",\"Mostly
        Cloudy\"\r\n\"-120.44\",\"50.70\",\"KAMLOOPS A\",\"1163780\",\"2012-11-15
        23:00\",\"2012\",\"11\",\"15\",\"23:00\",\"2.0\",\"\",\"-0.4\",\"\",\"84\",\"\",\"\",\"\",\"8\",\"\",\"17\",\"\",\"64.4\",\"\",\"97.40\",\"\",\"\",\"\",\"\",\"\",\"Mostly
        Cloudy\"\r\n\"-120.44\",\"50.70\",\"KAMLOOPS A\",\"1163780\",\"2012-11-16
        00:00\",\"2012\",\"11\",\"16\",\"00:00\",\"1.3\",\"\",\"-0.7\",\"\",\"87\",\"\",\"\",\"\",\"8\",\"\",\"19\",\"\",\"64.4\",\"\",\"97.39\",\"\",\"\",\"\",\"\",\"\",\"Mostly
        Cloudy\"\r\n\"-120.44\",\"50.70\",\"KAMLOOPS A\",\"1163780\",\"2012-11-16
        01:00\",\"2012\",\"11\",\"16\",\"01:00\",\"2.5\",\"\",\"-0.2\",\"\",\"82\",\"\",\"\",\"\",\"10\",\"\",\"20\",\"\",\"64.4\",\"\",\"97.31\",\"\",\"\",\"\",\"\",\"\",\"Mostly
        Cloudy\"\r\n\"-120.44\",\"50.70\",\"KAMLOOPS A\",\"1163780\",\"2012-11-16
        02:00\",\"2012\",\"11\",\"16\",\"02:00\",\"2.1\",\"\",\"-0.3\",\"\",\"84\",\"\",\"\",\"\",\"10\",\"\",\"15\",\"\",\"64.4\",\"\",\"97.29\",\"\",\"\",\"\",\"\",\"\",\"Mostly
        Cloudy\"\r\n\"-120.44\",\"50.70\",\"KAMLOOPS A\",\"1163780\",\"2012-11-16
        03:00\",\"2012\",\"11\",\"16\",\"03:00\",\"0.6\",\"\",\"-1.4\",\"\",\"86\",\"\",\"\",\"\",\"6\",\"\",\"6\",\"\",\"64.4\",\"\",\"97.30\",\"\",\"\",\"\",\"\",\"\",\"Mostly
        Cloudy\"\r\n\"-120.44\",\"50.70\",\"KAMLOOPS A\",\"1163780\",\"2012-11-16
        04:00\",\"2012\",\"11\",\"16\",\"04:00\",\"0.4\",\"\",\"-1.4\",\"\",\"88\",\"\",\"\",\"\",\"3\",\"\",\"4\",\"\",\"64.4\",\"\",\"97.27\",\"\",\"\",\"\",\"\",\"\",\"Mostly
        Cloudy\"\r\n\"-120.44\",\"50.70\",\"KAMLOOPS A\",\"1163780\",\"2012-11-16
        05:00\",\"2012\",\"11\",\"16\",\"05:00\",\"1.4\",\"\",\"-0.6\",\"\",\"87\",\"\",\"\",\"\",\"10\",\"\",\"19\",\"\",\"64.4\",\"\",\"97.25\",\"\",\"\",\"\",\"\",\"\",\"Mainly
        Clear\"\r\n\"-120.44\",\"50.70\",\"KAMLOOPS A\",\"1163780\",\"2012-11-16 06:00\",\"2012\",\"11\",\"16\",\"06:00\",\"2.0\",\"\",\"-0.7\",\"\",\"82\",\"\",\"\",\"\",\"9\",\"\",\"15\",\"\",\"64.4\",\"\",\"97.20\",\"\",\"\",\"\",\"\",\"\",\"Mainly
        Clear\"\r\n\"-120.44\",\"50.70\",\"KAMLOOPS A\",\"1163780\",\"2012-11-16 07:00\",\"2012\",\"11\",\"16\",\"07:00\",\"0.9\",\"\",\"-1.1\",\"\",\"86\",\"\",\"\",\"\",\"9\",\"\",\"15\",\"\",\"64.4\",\"\",\"97.22\",\"\",\"\",\"\",\"\",\"\",\"Mostly
        Cloudy\"\r\n\"-120.44\",\"50.70\",\"KAMLOOPS A\",\"1163780\",\"2012-11-16
        08:00\",\"2012\",\"11\",\"16\",\"08:00\",\"1.8\",\"\",\"-0.8\",\"\",\"83\",\"\",\"\",\"\",\"8\",\"\",\"17\",\"\",\"64.4\",\"\",\"97.22\",\"\",\"\",\"\",\"\",\"\",\"Mainly
        Clear\"\r\n\"-120.44\",\"50.70\",\"KAMLOOPS A\",\"1163780\",\"2012-11-16 09:00\",\"2012\",\"11\",\"16\",\"09:00\",\"2.7\",\"\",\"-0.5\",\"\",\"79\",\"\",\"\",\"\",\"8\",\"\",\"17\",\"\",\"64.4\",\"\",\"97.22\",\"\",\"\",\"\",\"\",\"\",\"Mainly
        Clear\"\r\n\"-120.44\",\"50.70\",\"KAMLOOPS A\",\"1163780\",\"2012-11-16 10:00\",\"2012\",\"11\",\"16\",\"10:00\",\"3.9\",\"\",\"-0.2\",\"\",\"75\",\"\",\"\",\"\",\"7\",\"\",\"15\",\"\",\"64.4\",\"\",\"97.20\",\"\",\"\",\"\",\"\",\"\",\"Mostly
        Cloudy\"\r\n\"-120.44\",\"50.70\",\"KAMLOOPS A\",\"1163780\",\"2012-11-16
        11:00\",\"2012\",\"11\",\"16\",\"11:00\",\"5.3\",\"\",\"0.0\",\"\",\"69\",\"\",\"\",\"\",\"7\",\"\",\"19\",\"\",\"64.4\",\"\",\"97.15\",\"\",\"\",\"\",\"\",\"\",\"Mostly
        Cloudy\"\r\n\"-120.44\",\"50.70\",\"KAMLOOPS A\",\"1163780\",\"2012-11-16
        12:00\",\"2012\",\"11\",\"16\",\"12:00\",\"6.5\",\"\",\"-0.5\",\"\",\"61\",\"\",\"\",\"\",\"9\",\"\",\"15\",\"\",\"64.4\",\"\",\"97.07\",\"\",\"\",\"\",\"\",\"\",\"Mostly
        Cloudy\"\r\n\"-120.44\",\"50.70\",\"KAMLOOPS A\",\"1163780\",\"2012-11-16
        13:00\",\"2012\",\"11\",\"16\",\"13:00\",\"7.5\",\"\",\"-1.1\",\"\",\"54\",\"\",\"\",\"\",\"9\",\"\",\"22\",\"\",\"64.4\",\"\",\"97.01\",\"\",\"\",\"\",\"\",\"\",\"Mostly
        Cloudy\"\r\n\"-120.44\",\"50.70\",\"KAMLOOPS A\",\"1163780\",\"2012-11-16
        14:00\",\"2012\",\"11\",\"16\",\"14:00\",\"7.8\",\"\",\"-1.1\",\"\",\"53\",\"\",\"\",\"\",\"10\",\"\",\"28\",\"\",\"64.4\",\"\",\"96.97\",\"\",\"\",\"\",\"\",\"\",\"Mostly
        Cloudy\"\r\n\"-120.44\",\"50.70\",\"KAMLOOPS A\",\"1163780\",\"2012-11-16
        15:00\",\"2012\",\"11\",\"16\",\"15:00\",\"7.5\",\"\",\"-1.4\",\"\",\"53\",\"\",\"\",\"\",\"12\",\"\",\"20\",\"\",\"64.4\",\"\",\"96.94\",\"\",\"\",\"\",\"\",\"\",\"Mostly
        Cloudy\"\r\n\"-120.44\",\"50.70\",\"KAMLOOPS A\",\"1163780\",\"2012-11-16
        16:00\",\"2012\",\"11\",\"16\",\"16:00\",\"6.9\",\"\",\"-1.5\",\"\",\"55\",\"\",\"\",\"\",\"6\",\"\",\"13\",\"\",\"64.4\",\"\",\"96.98\",\"\",\"\",\"\",\"\",\"\",\"Mostly
        Cloudy\"\r\n\"-120.44\",\"50.70\",\"KAMLOOPS A\",\"1163780\",\"2012-11-16
        17:00\",\"2012\",\"11\",\"16\",\"17:00\",\"6.0\",\"\",\"-0.5\",\"\",\"63\",\"\",\"\",\"\",\"5\",\"\",\"15\",\"\",\"64.4\",\"\",\"96.97\",\"\",\"\",\"\",\"\",\"\",\"Mostly
        Cloudy\"\r\n\"-120.44\",\"50.70\",\"KAMLOOPS A\",\"1163780\",\"2012-11-16
        18:00\",\"2012\",\"11\",\"16\",\"18:00\",\"5.7\",\"\",\"-0.5\",\"\",\"64\",\"\",\"\",\"\",\"4\",\"\",\"17\",\"\",\"64.4\",\"\",\"96.96\",\"\",\"\",\"\",\"\",\"\",\"Mostly
        Cloudy\"\r\n\"-120.44\",\"50.70\",\"KAMLOOPS A\",\"1163780\",\"2012-11-16
        19:00\",\"2012\",\"11\",\"16\",\"19:00\",\"5.1\",\"\",\"-0.5\",\"\",\"67\",\"\",\"\",\"\",\"5\",\"\",\"17\",\"\",\"64.4\",\"\",\"96.96\",\"\",\"\",\"\",\"\",\"\",\"Mostly
        Cloudy\"\r\n\"-120.44\",\"50.70\",\"KAMLOOPS A\",\"1163780\",\"2012-11-16
        20:00\",\"2012\",\"11\",\"16\",\"20:00\",\"5.3\",\"\",\"-0.3\",\"\",\"67\",\"\",\"\",\"\",\"7\",\"\",\"15\",\"\",\"64.4\",\"\",\"96.96\",\"\",\"\",\"\",\"\",\"\",\"Mostly
        Cloudy\"\r\n\"-120.44\",\"50.70\",\"KAMLOOPS A\",\"1163780\",\"2012-11-16
        21:00\",\"2012\",\"11\",\"16\",\"21:00\",\"5.2\",\"\",\"0.2\",\"\",\"70\",\"\",\"\",\"\",\"9\",\"\",\"17\",\"\",\"64.4\",\"\",\"96.93\",\"\",\"\",\"\",\"\",\"\",\"Cloudy\"\r\n\"-120.44\",\"50.70\",\"KAMLOOPS
        A\",\"1163780\",\"2012-11-16 22:00\",\"2012\",\"11\",\"16\",\"22:00\",\"4.5\",\"\",\"-0.1\",\"\",\"72\",\"\",\"\",\"\",\"8\",\"\",\"11\",\"\",\"64.4\",\"\",\"96.91\",\"\",\"\",\"\",\"\",\"\",\"Cloudy\"\r\n\"-120.44\",\"50.70\",\"KAMLOOPS
        A\",\"1163780\",\"2012-11-16 23:00\",\"2012\",\"11\",\"16\",\"23:00\",\"4.5\",\"\",\"0.5\",\"\",\"75\",\"\",\"\",\"\",\"9\",\"\",\"15\",\"\",\"64.4\",\"\",\"96.86\",\"\",\"\",\"\",\"\",\"\",\"Mostly
        Cloudy\"\r\n\"-120.44\",\"50.70\",\"KAMLOOPS A\",\"1163780\",\"2012-11-17
        00:00\",\"2012\",\"11\",\"17\",\"00:00\",\"4.1\",\"\",\"0.2\",\"\",\"76\",\"\",\"\",\"\",\"9\",\"\",\"19\",\"\",\"64.4\",\"\",\"96.83\",\"\",\"\",\"\",\"\",\"\",\"Mostly
        Cloudy\"\r\n\"-120.44\",\"50.70\",\"KAMLOOPS A\",\"1163780\",\"2012-11-17
        01:00\",\"2012\",\"11\",\"17\",\"01:00\",\"4.1\",\"\",\"1.1\",\"\",\"81\",\"\",\"\",\"\",\"8\",\"\",\"11\",\"\",\"48.3\",\"\",\"96.74\",\"\",\"\",\"\",\"\",\"\",\"Mostly
        Cloudy\"\r\n\"-120.44\",\"50.70\",\"KAMLOOPS A\",\"1163780\",\"2012-11-17
        02:00\",\"2012\",\"11\",\"17\",\"02:00\",\"3.8\",\"\",\"0.8\",\"\",\"81\",\"\",\"\",\"\",\"8\",\"\",\"11\",\"\",\"64.4\",\"\",\"96.67\",\"\",\"\",\"\",\"\",\"\",\"Mostly
        Cloudy\"\r\n\"-120.44\",\"50.70\",\"KAMLOOPS A\",\"1163780\",\"2012-11-17
        03:00\",\"2012\",\"11\",\"17\",\"03:00\",\"3.9\",\"\",\"0.5\",\"\",\"78\",\"\",\"\",\"\",\"10\",\"\",\"17\",\"\",\"48.3\",\"\",\"96.59\",\"\",\"\",\"\",\"\",\"\",\"Cloudy\"\r\n\"-120.44\",\"50.70\",\"KAMLOOPS
        A\",\"1163780\",\"2012-11-17 04:00\",\"2012\",\"11\",\"17\",\"04:00\",\"4.7\",\"\",\"1.5\",\"\",\"80\",\"\",\"\",\"\",\"10\",\"\",\"15\",\"\",\"48.3\",\"\",\"96.53\",\"\",\"\",\"\",\"\",\"\",\"Cloudy\"\r\n\"-120.44\",\"50.70\",\"KAMLOOPS
        A\",\"1163780\",\"2012-11-17 05:00\",\"2012\",\"11\",\"17\",\"05:00\",\"4.8\",\"\",\"0.9\",\"\",\"76\",\"\",\"\",\"\",\"9\",\"\",\"17\",\"\",\"48.3\",\"\",\"96.46\",\"\",\"\",\"\",\"\",\"\",\"Mostly
        Cloudy\"\r\n\"-120.44\",\"50.70\",\"KAMLOOPS A\",\"1163780\",\"2012-11-17
        06:00\",\"2012\",\"11\",\"17\",\"06:00\",\"4.9\",\"\",\"0.9\",\"\",\"75\",\"\",\"\",\"\",\"6\",\"\",\"11\",\"\",\"48.3\",\"\",\"96.39\",\"\",\"\",\"\",\"\",\"\",\"Mostly
        Cloudy\"\r\n\"-120.44\",\"50.70\",\"KAMLOOPS A\",\"1163780\",\"2012-11-17
        07:00\",\"2012\",\"11\",\"17\",\"07:00\",\"5.1\",\"\",\"1.2\",\"\",\"76\",\"\",\"\",\"\",\"9\",\"\",\"15\",\"\",\"48.3\",\"\",\"96.30\",\"\",\"\",\"\",\"\",\"\",\"Mostly
        Cloudy\"\r\n\"-120.44\",\"50.70\",\"KAMLOOPS A\",\"1163780\",\"2012-11-17
        08:00\",\"2012\",\"11\",\"17\",\"08:00\",\"5.4\",\"\",\"1.6\",\"\",\"76\",\"\",\"\",\"\",\"7\",\"\",\"19\",\"\",\"48.3\",\"\",\"96.20\",\"\",\"\",\"\",\"\",\"\",\"Cloudy\"\r\n\"-120.44\",\"50.70\",\"KAMLOOPS
        A\",\"1163780\",\"2012-11-17 09:00\",\"2012\",\"11\",\"17\",\"09:00\",\"6.9\",\"\",\"2.3\",\"\",\"72\",\"\",\"\",\"\",\"9\",\"\",\"17\",\"\",\"48.3\",\"\",\"96.13\",\"\",\"\",\"\",\"\",\"\",\"Cloudy\"\r\n\"-120.44\",\"50.70\",\"KAMLOOPS
        A\",\"1163780\",\"2012-11-17 10:00\",\"2012\",\"11\",\"17\",\"10:00\",\"8.3\",\"\",\"2.3\",\"\",\"66\",\"\",\"\",\"\",\"9\",\"\",\"26\",\"\",\"64.4\",\"\",\"96.07\",\"\",\"\",\"\",\"\",\"\",\"Cloudy\"\r\n\"-120.44\",\"50.70\",\"KAMLOOPS
        A\",\"1163780\",\"2012-11-17 11:00\",\"2012\",\"11\",\"17\",\"11:00\",\"9.3\",\"\",\"2.3\",\"\",\"62\",\"\",\"\",\"\",\"9\",\"\",\"35\",\"\",\"64.4\",\"\",\"95.98\",\"\",\"\",\"\",\"\",\"\",\"Cloudy\"\r\n\"-120.44\",\"50.70\",\"KAMLOOPS
        A\",\"1163780\",\"2012-11-17 12:00\",\"2012\",\"11\",\"17\",\"12:00\",\"10.0\",\"\",\"2.4\",\"\",\"59\",\"\",\"\",\"\",\"8\",\"\",\"37\",\"\",\"64.4\",\"\",\"95.84\",\"\",\"\",\"\",\"\",\"\",\"Cloudy\"\r\n\"-120.44\",\"50.70\",\"KAMLOOPS
        A\",\"1163780\",\"2012-11-17 13:00\",\"2012\",\"11\",\"17\",\"13:00\",\"10.3\",\"\",\"2.6\",\"\",\"59\",\"\",\"\",\"\",\"9\",\"\",\"39\",\"\",\"64.4\",\"\",\"95.73\",\"\",\"\",\"\",\"\",\"\",\"Cloudy\"\r\n\"-120.44\",\"50.70\",\"KAMLOOPS
        A\",\"1163780\",\"2012-11-17 14:00\",\"2012\",\"11\",\"17\",\"14:00\",\"11.0\",\"\",\"3.0\",\"\",\"58\",\"\",\"\",\"\",\"8\",\"\",\"33\",\"\",\"64.4\",\"\",\"95.60\",\"\",\"\",\"\",\"\",\"\",\"Cloudy\"\r\n\"-120.44\",\"50.70\",\"KAMLOOPS
        A\",\"1163780\",\"2012-11-17 15:00\",\"2012\",\"11\",\"17\",\"15:00\",\"10.7\",\"\",\"2.8\",\"\",\"58\",\"\",\"\",\"\",\"9\",\"\",\"37\",\"\",\"64.4\",\"\",\"95.55\",\"\",\"\",\"\",\"\",\"\",\"Cloudy\"\r\n\"-120.44\",\"50.70\",\"KAMLOOPS
        A\",\"1163780\",\"2012-11-17 16:00\",\"2012\",\"11\",\"17\",\"16:00\",\"10.6\",\"\",\"2.8\",\"\",\"58\",\"\",\"\",\"\",\"9\",\"\",\"30\",\"\",\"64.4\",\"\",\"95.48\",\"\",\"\",\"\",\"\",\"\",\"Cloudy\"\r\n\"-120.44\",\"50.70\",\"KAMLOOPS
        A\",\"1163780\",\"2012-11-17 17:00\",\"2012\",\"11\",\"17\",\"17:00\",\"10.0\",\"\",\"2.7\",\"\",\"60\",\"\",\"\",\"\",\"6\",\"\",\"17\",\"\",\"64.4\",\"\",\"95.51\",\"\",\"\",\"\",\"\",\"\",\"Cloudy\"\r\n\"-120.44\",\"50.70\",\"KAMLOOPS
        A\",\"1163780\",\"2012-11-17 18:00\",\"2012\",\"11\",\"17\",\"18:00\",\"10.1\",\"\",\"3.0\",\"\",\"61\",\"\",\"\",\"\",\"10\",\"\",\"15\",\"\",\"64.4\",\"\",\"95.62\",\"\",\"\",\"\",\"\",\"\",\"Cloudy\"\r\n\"-120.44\",\"50.70\",\"KAMLOOPS
        A\",\"1163780\",\"2012-11-17 19:00\",\"2012\",\"11\",\"17\",\"19:00\",\"9.9\",\"\",\"2.3\",\"\",\"59\",\"\",\"\",\"\",\"16\",\"\",\"22\",\"\",\"64.4\",\"\",\"95.61\",\"\",\"\",\"\",\"\",\"\",\"Cloudy\"\r\n\"-120.44\",\"50.70\",\"KAMLOOPS
        A\",\"1163780\",\"2012-11-17 20:00\",\"2012\",\"11\",\"17\",\"20:00\",\"8.5\",\"\",\"2.1\",\"\",\"64\",\"\",\"\",\"\",\"6\",\"\",\"13\",\"\",\"64.4\",\"\",\"95.66\",\"\",\"\",\"\",\"\",\"\",\"Cloudy\"\r\n\"-120.44\",\"50.70\",\"KAMLOOPS
        A\",\"1163780\",\"2012-11-17 21:00\",\"2012\",\"11\",\"17\",\"21:00\",\"10.1\",\"\",\"-1.7\",\"\",\"44\",\"\",\"\",\"\",\"23\",\"\",\"28\",\"\",\"64.4\",\"\",\"95.70\",\"\",\"\",\"\",\"\",\"\",\"Cloudy\"\r\n\"-120.44\",\"50.70\",\"KAMLOOPS
        A\",\"1163780\",\"2012-11-17 22:00\",\"2012\",\"11\",\"17\",\"22:00\",\"8.5\",\"\",\"-0.2\",\"\",\"54\",\"\",\"\",\"\",\"\",\"\",\"0\",\"\",\"64.4\",\"\",\"95.75\",\"\",\"\",\"\",\"\",\"\",\"Cloudy\"\r\n\"-120.44\",\"50.70\",\"KAMLOOPS
        A\",\"1163780\",\"2012-11-17 23:00\",\"2012\",\"11\",\"17\",\"23:00\",\"9.1\",\"\",\"-3.3\",\"\",\"41\",\"\",\"\",\"\",\"13\",\"\",\"4\",\"\",\"64.4\",\"\",\"95.78\",\"\",\"\",\"\",\"\",\"\",\"Cloudy\"\r\n\"-120.44\",\"50.70\",\"KAMLOOPS
        A\",\"1163780\",\"2012-11-18 00:00\",\"2012\",\"11\",\"18\",\"00:00\",\"8.9\",\"\",\"-4.4\",\"\",\"39\",\"\",\"\",\"\",\"16\",\"\",\"6\",\"\",\"64.4\",\"\",\"95.91\",\"\",\"\",\"\",\"\",\"\",\"Cloudy\"\r\n\"-120.44\",\"50.70\",\"KAMLOOPS
        A\",\"1163780\",\"2012-11-18 01:00\",\"2012\",\"11\",\"18\",\"01:00\",\"6.7\",\"\",\"-2.2\",\"\",\"53\",\"\",\"\",\"\",\"6\",\"\",\"13\",\"\",\"64.4\",\"\",\"95.91\",\"\",\"\",\"\",\"\",\"\",\"Mostly
        Cloudy\"\r\n\"-120.44\",\"50.70\",\"KAMLOOPS A\",\"1163780\",\"2012-11-18
        02:00\",\"2012\",\"11\",\"18\",\"02:00\",\"5.6\",\"\",\"-1.4\",\"\",\"61\",\"\",\"\",\"\",\"8\",\"\",\"20\",\"\",\"64.4\",\"\",\"95.96\",\"\",\"\",\"\",\"\",\"\",\"Mainly
        Clear\"\r\n\"-120.44\",\"50.70\",\"KAMLOOPS A\",\"1163780\",\"2012-11-18 03:00\",\"2012\",\"11\",\"18\",\"03:00\",\"5.3\",\"\",\"-1.4\",\"\",\"62\",\"\",\"\",\"\",\"5\",\"\",\"24\",\"\",\"64.4\",\"\",\"96.08\",\"\",\"\",\"\",\"\",\"\",\"Mainly
        Clear\"\r\n\"-120.44\",\"50.70\",\"KAMLOOPS A\",\"1163780\",\"2012-11-18 04:00\",\"2012\",\"11\",\"18\",\"04:00\",\"5.9\",\"\",\"-1.2\",\"\",\"60\",\"\",\"\",\"\",\"11\",\"\",\"20\",\"\",\"64.4\",\"\",\"96.15\",\"\",\"\",\"\",\"\",\"\",\"Clear\"\r\n\"-120.44\",\"50.70\",\"KAMLOOPS
        A\",\"1163780\",\"2012-11-18 05:00\",\"2012\",\"11\",\"18\",\"05:00\",\"5.2\",\"\",\"-1.9\",\"\",\"60\",\"\",\"\",\"\",\"10\",\"\",\"20\",\"\",\"64.4\",\"\",\"96.26\",\"\",\"\",\"\",\"\",\"\",\"Clear\"\r\n\"-120.44\",\"50.70\",\"KAMLOOPS
        A\",\"1163780\",\"2012-11-18 06:00\",\"2012\",\"11\",\"18\",\"06:00\",\"4.1\",\"\",\"-1.8\",\"\",\"65\",\"\",\"\",\"\",\"8\",\"\",\"13\",\"\",\"64.4\",\"\",\"96.33\",\"\",\"\",\"\",\"\",\"\",\"Mainly
        Clear\"\r\n\"-120.44\",\"50.70\",\"KAMLOOPS A\",\"1163780\",\"2012-11-18 07:00\",\"2012\",\"11\",\"18\",\"07:00\",\"3.1\",\"\",\"-2.3\",\"\",\"68\",\"\",\"\",\"\",\"9\",\"\",\"20\",\"\",\"64.4\",\"\",\"96.36\",\"\",\"\",\"\",\"\",\"\",\"Mainly
        Clear\"\r\n\"-120.44\",\"50.70\",\"KAMLOOPS A\",\"1163780\",\"2012-11-18 08:00\",\"2012\",\"11\",\"18\",\"08:00\",\"4.3\",\"\",\"-1.8\",\"\",\"64\",\"\",\"\",\"\",\"9\",\"\",\"24\",\"\",\"64.4\",\"\",\"96.42\",\"\",\"\",\"\",\"\",\"\",\"Mostly
        Cloudy\"\r\n\"-120.44\",\"50.70\",\"KAMLOOPS A\",\"1163780\",\"2012-11-18
        09:00\",\"2012\",\"11\",\"18\",\"09:00\",\"5.1\",\"\",\"-2.1\",\"\",\"60\",\"\",\"\",\"\",\"9\",\"\",\"19\",\"\",\"64.4\",\"\",\"96.42\",\"\",\"\",\"\",\"\",\"\",\"Mostly
        Cloudy\"\r\n\"-120.44\",\"50.70\",\"KAMLOOPS A\",\"1163780\",\"2012-11-18
        10:00\",\"2012\",\"11\",\"18\",\"10:00\",\"4.7\",\"\",\"0.2\",\"\",\"73\",\"\",\"\",\"\",\"9\",\"\",\"30\",\"\",\"64.4\",\"\",\"96.44\",\"\",\"\",\"\",\"\",\"\",\"Mostly
        Cloudy\"\r\n\"-120.44\",\"50.70\",\"KAMLOOPS A\",\"1163780\",\"2012-11-18
        11:00\",\"2012\",\"11\",\"18\",\"11:00\",\"5.2\",\"\",\"1.0\",\"\",\"74\",\"\",\"\",\"\",\"11\",\"\",\"26\",\"\",\"64.4\",\"\",\"96.44\",\"\",\"\",\"\",\"\",\"\",\"Mostly
        Cloudy\"\r\n\"-120.44\",\"50.70\",\"KAMLOOPS A\",\"1163780\",\"2012-11-18
        12:00\",\"2012\",\"11\",\"18\",\"12:00\",\"8.0\",\"\",\"0.9\",\"\",\"61\",\"\",\"\",\"\",\"10\",\"\",\"20\",\"\",\"64.4\",\"\",\"96.36\",\"\",\"\",\"\",\"\",\"\",\"Mostly
        Cloudy\"\r\n\"-120.44\",\"50.70\",\"KAMLOOPS A\",\"1163780\",\"2012-11-18
        13:00\",\"2012\",\"11\",\"18\",\"13:00\",\"10.3\",\"\",\"-0.6\",\"\",\"47\",\"\",\"\",\"\",\"9\",\"\",\"26\",\"\",\"64.4\",\"\",\"96.32\",\"\",\"\",\"\",\"\",\"\",\"Mostly
        Cloudy\"\r\n\"-120.44\",\"50.70\",\"KAMLOOPS A\",\"1163780\",\"2012-11-18
        14:00\",\"2012\",\"11\",\"18\",\"14:00\",\"9.6\",\"\",\"-2.2\",\"\",\"44\",\"\",\"\",\"\",\"13\",\"\",\"17\",\"\",\"64.4\",\"\",\"96.33\",\"\",\"\",\"\",\"\",\"\",\"Mostly
        Cloudy\"\r\n\"-120.44\",\"50.70\",\"KAMLOOPS A\",\"1163780\",\"2012-11-18
        15:00\",\"2012\",\"11\",\"18\",\"15:00\",\"9.0\",\"\",\"-1.8\",\"\",\"47\",\"\",\"\",\"\",\"14\",\"\",\"30\",\"\",\"64.4\",\"\",\"96.33\",\"\",\"\",\"\",\"\",\"\",\"Cloudy\"\r\n\"-120.44\",\"50.70\",\"KAMLOOPS
        A\",\"1163780\",\"2012-11-18 16:00\",\"2012\",\"11\",\"18\",\"16:00\",\"8.9\",\"\",\"-1.2\",\"\",\"49\",\"\",\"\",\"\",\"14\",\"\",\"28\",\"\",\"64.4\",\"\",\"96.36\",\"\",\"\",\"\",\"\",\"\",\"Mostly
        Cloudy\"\r\n\"-120.44\",\"50.70\",\"KAMLOOPS A\",\"1163780\",\"2012-11-18
        17:00\",\"2012\",\"11\",\"18\",\"17:00\",\"8.4\",\"\",\"-1.1\",\"\",\"51\",\"\",\"\",\"\",\"13\",\"\",\"22\",\"\",\"64.4\",\"\",\"96.31\",\"\",\"\",\"\",\"\",\"\",\"Mostly
        Cloudy\"\r\n\"-120.44\",\"50.70\",\"KAMLOOPS A\",\"1163780\",\"2012-11-18
        18:00\",\"2012\",\"11\",\"18\",\"18:00\",\"8.0\",\"\",\"-0.9\",\"\",\"53\",\"\",\"\",\"\",\"10\",\"\",\"13\",\"\",\"64.4\",\"\",\"96.25\",\"\",\"\",\"\",\"\",\"\",\"Cloudy\"\r\n\"-120.44\",\"50.70\",\"KAMLOOPS
        A\",\"1163780\",\"2012-11-18 19:00\",\"2012\",\"11\",\"18\",\"19:00\",\"8.2\",\"\",\"-1.1\",\"\",\"52\",\"\",\"\",\"\",\"9\",\"\",\"26\",\"\",\"64.4\",\"\",\"96.16\",\"\",\"\",\"\",\"\",\"\",\"Mostly
        Cloudy\"\r\n\"-120.44\",\"50.70\",\"KAMLOOPS A\",\"1163780\",\"2012-11-18
        20:00\",\"2012\",\"11\",\"18\",\"20:00\",\"7.0\",\"\",\"-1.0\",\"\",\"57\",\"\",\"\",\"\",\"7\",\"\",\"6\",\"\",\"64.4\",\"\",\"96.10\",\"\",\"\",\"\",\"\",\"\",\"Mostly
        Cloudy\"\r\n\"-120.44\",\"50.70\",\"KAMLOOPS A\",\"1163780\",\"2012-11-18
        21:00\",\"2012\",\"11\",\"18\",\"21:00\",\"8.1\",\"\",\"0.8\",\"\",\"60\",\"\",\"\",\"\",\"10\",\"\",\"33\",\"\",\"64.4\",\"\",\"96.05\",\"\",\"\",\"\",\"\",\"\",\"Rain
        Showers\"\r\n\"-120.44\",\"50.70\",\"KAMLOOPS A\",\"1163780\",\"2012-11-18
        22:00\",\"2012\",\"11\",\"18\",\"22:00\",\"6.0\",\"\",\"3.2\",\"\",\"82\",\"\",\"\",\"\",\"8\",\"\",\"19\",\"\",\"64.4\",\"\",\"96.02\",\"\",\"\",\"\",\"\",\"\",\"Rain
        Showers\"\r\n\"-120.44\",\"50.70\",\"KAMLOOPS A\",\"1163780\",\"2012-11-18
        23:00\",\"2012\",\"11\",\"18\",\"23:00\",\"6.9\",\"\",\"2.7\",\"\",\"75\",\"\",\"\",\"\",\"11\",\"\",\"26\",\"\",\"64.4\",\"\",\"95.94\",\"\",\"\",\"\",\"\",\"\",\"Cloudy\"\r\n\"-120.44\",\"50.70\",\"KAMLOOPS
        A\",\"1163780\",\"2012-11-19 00:00\",\"2012\",\"11\",\"19\",\"00:00\",\"8.2\",\"\",\"0.6\",\"\",\"59\",\"\",\"\",\"\",\"8\",\"\",\"32\",\"\",\"64.4\",\"\",\"95.96\",\"\",\"\",\"\",\"\",\"\",\"Mostly
        Cloudy\"\r\n\"-120.44\",\"50.70\",\"KAMLOOPS A\",\"1163780\",\"2012-11-19
        01:00\",\"2012\",\"11\",\"19\",\"01:00\",\"8.6\",\"\",\"0.4\",\"\",\"56\",\"\",\"\",\"\",\"11\",\"\",\"28\",\"\",\"64.4\",\"\",\"96.03\",\"\",\"\",\"\",\"\",\"\",\"Mostly
        Cloudy\"\r\n\"-120.44\",\"50.70\",\"KAMLOOPS A\",\"1163780\",\"2012-11-19
        02:00\",\"2012\",\"11\",\"19\",\"02:00\",\"8.4\",\"\",\"0.2\",\"\",\"56\",\"\",\"\",\"\",\"12\",\"\",\"24\",\"\",\"64.4\",\"\",\"95.99\",\"\",\"\",\"\",\"\",\"\",\"Mostly
        Cloudy\"\r\n\"-120.44\",\"50.70\",\"KAMLOOPS A\",\"1163780\",\"2012-11-19
        03:00\",\"2012\",\"11\",\"19\",\"03:00\",\"8.9\",\"\",\"0.1\",\"\",\"54\",\"\",\"\",\"\",\"11\",\"\",\"28\",\"\",\"64.4\",\"\",\"95.99\",\"\",\"\",\"\",\"\",\"\",\"Mainly
        Clear\"\r\n\"-120.44\",\"50.70\",\"KAMLOOPS A\",\"1163780\",\"2012-11-19 04:00\",\"2012\",\"11\",\"19\",\"04:00\",\"8.7\",\"\",\"-0.5\",\"\",\"52\",\"\",\"\",\"\",\"9\",\"\",\"30\",\"\",\"64.4\",\"\",\"95.99\",\"\",\"\",\"\",\"\",\"\",\"Mostly
        Cloudy\"\r\n\"-120.44\",\"50.70\",\"KAMLOOPS A\",\"1163780\",\"2012-11-19
        05:00\",\"2012\",\"11\",\"19\",\"05:00\",\"7.7\",\"\",\"0.3\",\"\",\"59\",\"\",\"\",\"\",\"7\",\"\",\"24\",\"\",\"64.4\",\"\",\"95.95\",\"\",\"\",\"\",\"\",\"\",\"Mostly
        Cloudy\"\r\n\"-120.44\",\"50.70\",\"KAMLOOPS A\",\"1163780\",\"2012-11-19
        06:00\",\"2012\",\"11\",\"19\",\"06:00\",\"9.0\",\"\",\"1.1\",\"\",\"58\",\"\",\"\",\"\",\"12\",\"\",\"20\",\"\",\"64.4\",\"\",\"95.98\",\"\",\"\",\"\",\"\",\"\",\"Mostly
        Cloudy\"\r\n\"-120.44\",\"50.70\",\"KAMLOOPS A\",\"1163780\",\"2012-11-19
        07:00\",\"2012\",\"11\",\"19\",\"07:00\",\"8.7\",\"\",\"1.1\",\"\",\"59\",\"\",\"\",\"\",\"7\",\"\",\"20\",\"\",\"64.4\",\"\",\"95.99\",\"\",\"\",\"\",\"\",\"\",\"Cloudy\"\r\n\"-120.44\",\"50.70\",\"KAMLOOPS
        A\",\"1163780\",\"2012-11-19 08:00\",\"2012\",\"11\",\"19\",\"08:00\",\"8.1\",\"\",\"1.4\",\"\",\"63\",\"\",\"\",\"\",\"8\",\"\",\"17\",\"\",\"64.4\",\"\",\"95.93\",\"\",\"\",\"\",\"\",\"\",\"Cloudy\"\r\n\"-120.44\",\"50.70\",\"KAMLOOPS
        A\",\"1163780\",\"2012-11-19 09:00\",\"2012\",\"11\",\"19\",\"09:00\",\"8.1\",\"\",\"1.5\",\"\",\"63\",\"\",\"\",\"\",\"7\",\"\",\"13\",\"\",\"64.4\",\"\",\"95.93\",\"\",\"\",\"\",\"\",\"\",\"Cloudy\"\r\n\"-120.44\",\"50.70\",\"KAMLOOPS
        A\",\"1163780\",\"2012-11-19 10:00\",\"2012\",\"11\",\"19\",\"10:00\",\"9.0\",\"\",\"1.7\",\"\",\"60\",\"\",\"\",\"\",\"9\",\"\",\"22\",\"\",\"64.4\",\"\",\"95.87\",\"\",\"\",\"\",\"\",\"\",\"Cloudy\"\r\n\"-120.44\",\"50.70\",\"KAMLOOPS
        A\",\"1163780\",\"2012-11-19 11:00\",\"2012\",\"11\",\"19\",\"11:00\",\"8.9\",\"\",\"2.5\",\"\",\"64\",\"\",\"\",\"\",\"9\",\"\",\"24\",\"\",\"64.4\",\"\",\"95.81\",\"\",\"\",\"\",\"\",\"\",\"Cloudy\"\r\n\"-120.44\",\"50.70\",\"KAMLOOPS
        A\",\"1163780\",\"2012-11-19 12:00\",\"2012\",\"11\",\"19\",\"12:00\",\"7.9\",\"\",\"3.9\",\"\",\"76\",\"\",\"\",\"\",\"9\",\"\",\"20\",\"\",\"40.2\",\"\",\"95.70\",\"\",\"\",\"\",\"\",\"\",\"Rain
        Showers\"\r\n\"-120.44\",\"50.70\",\"KAMLOOPS A\",\"1163780\",\"2012-11-19
        13:00\",\"2012\",\"11\",\"19\",\"13:00\",\"7.4\",\"\",\"4.3\",\"\",\"81\",\"\",\"\",\"\",\"8\",\"\",\"17\",\"\",\"40.2\",\"\",\"95.63\",\"\",\"\",\"\",\"\",\"\",\"Rain
        Showers\"\r\n\"-120.44\",\"50.70\",\"KAMLOOPS A\",\"1163780\",\"2012-11-19
        14:00\",\"2012\",\"11\",\"19\",\"14:00\",\"7.2\",\"\",\"4.2\",\"\",\"81\",\"\",\"\",\"\",\"9\",\"\",\"19\",\"\",\"40.2\",\"\",\"95.51\",\"\",\"\",\"\",\"\",\"\",\"Rain
        Showers\"\r\n\"-120.44\",\"50.70\",\"KAMLOOPS A\",\"1163780\",\"2012-11-19
        15:00\",\"2012\",\"11\",\"19\",\"15:00\",\"6.7\",\"\",\"4.9\",\"\",\"88\",\"\",\"\",\"\",\"11\",\"\",\"19\",\"\",\"40.2\",\"\",\"95.46\",\"\",\"\",\"\",\"\",\"\",\"Rain
        Showers\"\r\n\"-120.44\",\"50.70\",\"KAMLOOPS A\",\"1163780\",\"2012-11-19
        16:00\",\"2012\",\"11\",\"19\",\"16:00\",\"6.8\",\"\",\"4.9\",\"\",\"88\",\"\",\"\",\"\",\"10\",\"\",\"28\",\"\",\"48.3\",\"\",\"95.41\",\"\",\"\",\"\",\"\",\"\",\"Mostly
        Cloudy\"\r\n\"-120.44\",\"50.70\",\"KAMLOOPS A\",\"1163780\",\"2012-11-19
        17:00\",\"2012\",\"11\",\"19\",\"17:00\",\"7.4\",\"\",\"4.1\",\"\",\"80\",\"\",\"\",\"\",\"3\",\"\",\"20\",\"\",\"48.3\",\"\",\"95.36\",\"\",\"\",\"\",\"\",\"\",\"Mostly
        Cloudy\"\r\n\"-120.44\",\"50.70\",\"KAMLOOPS A\",\"1163780\",\"2012-11-19
        18:00\",\"2012\",\"11\",\"19\",\"18:00\",\"7.9\",\"\",\"4.6\",\"\",\"80\",\"\",\"\",\"\",\"8\",\"\",\"11\",\"\",\"40.2\",\"\",\"95.49\",\"\",\"\",\"\",\"\",\"\",\"Rain
        Showers\"\r\n\"-120.44\",\"50.70\",\"KAMLOOPS A\",\"1163780\",\"2012-11-19
        19:00\",\"2012\",\"11\",\"19\",\"19:00\",\"8.3\",\"\",\"4.5\",\"\",\"77\",\"\",\"\",\"\",\"10\",\"\",\"19\",\"\",\"48.3\",\"\",\"95.47\",\"\",\"\",\"\",\"\",\"\",\"Mostly
        Cloudy\"\r\n\"-120.44\",\"50.70\",\"KAMLOOPS A\",\"1163780\",\"2012-11-19
        20:00\",\"2012\",\"11\",\"19\",\"20:00\",\"7.5\",\"\",\"4.3\",\"\",\"80\",\"\",\"\",\"\",\"10\",\"\",\"28\",\"\",\"48.3\",\"\",\"95.52\",\"\",\"\",\"\",\"\",\"\",\"Cloudy\"\r\n\"-120.44\",\"50.70\",\"KAMLOOPS
        A\",\"1163780\",\"2012-11-19 21:00\",\"2012\",\"11\",\"19\",\"21:00\",\"10.3\",\"\",\"2.7\",\"\",\"59\",\"\",\"\",\"\",\"14\",\"\",\"19\",\"\",\"48.3\",\"\",\"95.56\",\"\",\"\",\"\",\"\",\"\",\"Cloudy\"\r\n\"-120.44\",\"50.70\",\"KAMLOOPS
        A\",\"1163780\",\"2012-11-19 22:00\",\"2012\",\"11\",\"19\",\"22:00\",\"8.8\",\"\",\"3.3\",\"\",\"68\",\"\",\"\",\"\",\"22\",\"\",\"9\",\"\",\"48.3\",\"\",\"95.65\",\"\",\"\",\"\",\"\",\"\",\"Mostly
        Cloudy\"\r\n\"-120.44\",\"50.70\",\"KAMLOOPS A\",\"1163780\",\"2012-11-19
        23:00\",\"2012\",\"11\",\"19\",\"23:00\",\"8.3\",\"\",\"3.5\",\"\",\"72\",\"\",\"\",\"\",\"30\",\"\",\"4\",\"\",\"64.4\",\"\",\"95.84\",\"\",\"\",\"\",\"\",\"\",\"Mostly
        Cloudy\"\r\n\"-120.44\",\"50.70\",\"KAMLOOPS A\",\"1163780\",\"2012-11-20
        00:00\",\"2012\",\"11\",\"20\",\"00:00\",\"7.0\",\"\",\"3.2\",\"\",\"77\",\"\",\"\",\"\",\"27\",\"\",\"13\",\"\",\"64.4\",\"\",\"95.98\",\"\",\"\",\"\",\"\",\"\",\"Mostly
        Cloudy\"\r\n\"-120.44\",\"50.70\",\"KAMLOOPS A\",\"1163780\",\"2012-11-20
        01:00\",\"2012\",\"11\",\"20\",\"01:00\",\"5.8\",\"\",\"2.2\",\"\",\"78\",\"\",\"\",\"\",\"27\",\"\",\"13\",\"\",\"64.4\",\"\",\"96.09\",\"\",\"\",\"\",\"\",\"\",\"Mainly
        Clear\"\r\n\"-120.44\",\"50.70\",\"KAMLOOPS A\",\"1163780\",\"2012-11-20 02:00\",\"2012\",\"11\",\"20\",\"02:00\",\"5.7\",\"\",\"2.3\",\"\",\"79\",\"\",\"\",\"\",\"26\",\"\",\"9\",\"\",\"64.4\",\"\",\"96.24\",\"\",\"\",\"\",\"\",\"\",\"Mainly
        Clear\"\r\n\"-120.44\",\"50.70\",\"KAMLOOPS A\",\"1163780\",\"2012-11-20 03:00\",\"2012\",\"11\",\"20\",\"03:00\",\"4.7\",\"\",\"1.5\",\"\",\"80\",\"\",\"\",\"\",\"23\",\"\",\"7\",\"\",\"64.4\",\"\",\"96.32\",\"\",\"\",\"\",\"\",\"\",\"Mainly
        Clear\"\r\n\"-120.44\",\"50.70\",\"KAMLOOPS A\",\"1163780\",\"2012-11-20 04:00\",\"2012\",\"11\",\"20\",\"04:00\",\"3.1\",\"\",\"0.7\",\"\",\"84\",\"\",\"\",\"\",\"30\",\"\",\"4\",\"\",\"64.4\",\"\",\"96.35\",\"\",\"\",\"\",\"\",\"\",\"Mainly
        Clear\"\r\n\"-120.44\",\"50.70\",\"KAMLOOPS A\",\"1163780\",\"2012-11-20 05:00\",\"2012\",\"11\",\"20\",\"05:00\",\"4.6\",\"\",\"1.4\",\"\",\"80\",\"\",\"\",\"\",\"\",\"\",\"0\",\"\",\"64.4\",\"\",\"96.38\",\"\",\"\",\"\",\"\",\"\",\"Mainly
        Clear\"\r\n\"-120.44\",\"50.70\",\"KAMLOOPS A\",\"1163780\",\"2012-11-20 06:00\",\"2012\",\"11\",\"20\",\"06:00\",\"4.0\",\"\",\"1.5\",\"\",\"84\",\"\",\"\",\"\",\"12\",\"\",\"9\",\"\",\"64.4\",\"\",\"96.41\",\"\",\"\",\"\",\"\",\"\",\"Mainly
        Clear\"\r\n\"-120.44\",\"50.70\",\"KAMLOOPS A\",\"1163780\",\"2012-11-20 07:00\",\"2012\",\"11\",\"20\",\"07:00\",\"4.4\",\"\",\"1.8\",\"\",\"83\",\"\",\"\",\"\",\"11\",\"\",\"20\",\"\",\"64.4\",\"\",\"96.41\",\"\",\"\",\"\",\"\",\"\",\"Mostly
        Cloudy\"\r\n\"-120.44\",\"50.70\",\"KAMLOOPS A\",\"1163780\",\"2012-11-20
        08:00\",\"2012\",\"11\",\"20\",\"08:00\",\"4.8\",\"\",\"1.8\",\"\",\"81\",\"\",\"\",\"\",\"11\",\"\",\"24\",\"\",\"64.4\",\"\",\"96.43\",\"\",\"\",\"\",\"\",\"\",\"Mostly
        Cloudy\"\r\n\"-120.44\",\"50.70\",\"KAMLOOPS A\",\"1163780\",\"2012-11-20
        09:00\",\"2012\",\"11\",\"20\",\"09:00\",\"4.1\",\"\",\"1.9\",\"\",\"86\",\"\",\"\",\"\",\"10\",\"\",\"17\",\"\",\"64.4\",\"\",\"96.37\",\"\",\"\",\"\",\"\",\"\",\"Mainly
        Clear\"\r\n\"-120.44\",\"50.70\",\"KAMLOOPS A\",\"1163780\",\"2012-11-20 10:00\",\"2012\",\"11\",\"20\",\"10:00\",\"4.8\",\"\",\"2.5\",\"\",\"85\",\"\",\"\",\"\",\"11\",\"\",\"19\",\"\",\"64.4\",\"\",\"96.32\",\"\",\"\",\"\",\"\",\"\",\"Mostly
        Cloudy\"\r\n\"-120.44\",\"50.70\",\"KAMLOOPS A\",\"1163780\",\"2012-11-20
        11:00\",\"2012\",\"11\",\"20\",\"11:00\",\"5.9\",\"\",\"3.0\",\"\",\"82\",\"\",\"\",\"\",\"9\",\"\",\"17\",\"\",\"64.4\",\"\",\"96.25\",\"\",\"\",\"\",\"\",\"\",\"Mostly
        Cloudy\"\r\n\"-120.44\",\"50.70\",\"KAMLOOPS A\",\"1163780\",\"2012-11-20
        12:00\",\"2012\",\"11\",\"20\",\"12:00\",\"7.5\",\"\",\"2.7\",\"\",\"72\",\"\",\"\",\"\",\"10\",\"\",\"13\",\"\",\"64.4\",\"\",\"96.11\",\"\",\"\",\"\",\"\",\"\",\"Mostly
        Cloudy\"\r\n\"-120.44\",\"50.70\",\"KAMLOOPS A\",\"1163780\",\"2012-11-20
        13:00\",\"2012\",\"11\",\"20\",\"13:00\",\"7.3\",\"\",\"3.6\",\"\",\"77\",\"\",\"\",\"\",\"10\",\"\",\"13\",\"\",\"64.4\",\"\",\"96.04\",\"\",\"\",\"\",\"\",\"\",\"Cloudy\"\r\n\"-120.44\",\"50.70\",\"KAMLOOPS
        A\",\"1163780\",\"2012-11-20 14:00\",\"2012\",\"11\",\"20\",\"14:00\",\"7.8\",\"\",\"3.1\",\"\",\"72\",\"\",\"\",\"\",\"11\",\"\",\"13\",\"\",\"64.4\",\"\",\"95.90\",\"\",\"\",\"\",\"\",\"\",\"Cloudy\"\r\n\"-120.44\",\"50.70\",\"KAMLOOPS
        A\",\"1163780\",\"2012-11-20 15:00\",\"2012\",\"11\",\"20\",\"15:00\",\"7.8\",\"\",\"3.8\",\"\",\"76\",\"\",\"\",\"\",\"11\",\"\",\"17\",\"\",\"64.4\",\"\",\"95.85\",\"\",\"\",\"\",\"\",\"\",\"Cloudy\"\r\n\"-120.44\",\"50.70\",\"KAMLOOPS
        A\",\"1163780\",\"2012-11-20 16:00\",\"2012\",\"11\",\"20\",\"16:00\",\"7.6\",\"\",\"4.8\",\"\",\"82\",\"\",\"\",\"\",\"8\",\"\",\"13\",\"\",\"56.3\",\"\",\"95.85\",\"\",\"\",\"\",\"\",\"\",\"Rain
        Showers\"\r\n\"-120.44\",\"50.70\",\"KAMLOOPS A\",\"1163780\",\"2012-11-20
        17:00\",\"2012\",\"11\",\"20\",\"17:00\",\"7.7\",\"\",\"4.6\",\"\",\"81\",\"\",\"\",\"\",\"10\",\"\",\"17\",\"\",\"64.4\",\"\",\"95.87\",\"\",\"\",\"\",\"\",\"\",\"Mostly
        Cloudy\"\r\n\"-120.44\",\"50.70\",\"KAMLOOPS A\",\"1163780\",\"2012-11-20
        18:00\",\"2012\",\"11\",\"20\",\"18:00\",\"7.4\",\"\",\"4.0\",\"\",\"79\",\"\",\"\",\"\",\"9\",\"\",\"26\",\"\",\"64.4\",\"\",\"95.91\",\"\",\"\",\"\",\"\",\"\",\"Mostly
        Cloudy\"\r\n\"-120.44\",\"50.70\",\"KAMLOOPS A\",\"1163780\",\"2012-11-20
        19:00\",\"2012\",\"11\",\"20\",\"19:00\",\"7.5\",\"\",\"1.8\",\"\",\"67\",\"\",\"\",\"\",\"14\",\"\",\"19\",\"\",\"64.4\",\"\",\"95.93\",\"\",\"\",\"\",\"\",\"\",\"Mostly
        Cloudy\"\r\n\"-120.44\",\"50.70\",\"KAMLOOPS A\",\"1163780\",\"2012-11-20
        20:00\",\"2012\",\"11\",\"20\",\"20:00\",\"5.4\",\"\",\"1.0\",\"\",\"73\",\"\",\"\",\"\",\"7\",\"\",\"13\",\"\",\"64.4\",\"\",\"95.97\",\"\",\"\",\"\",\"\",\"\",\"Mainly
        Clear\"\r\n\"-120.44\",\"50.70\",\"KAMLOOPS A\",\"1163780\",\"2012-11-20 21:00\",\"2012\",\"11\",\"20\",\"21:00\",\"5.1\",\"\",\"1.3\",\"\",\"76\",\"\",\"\",\"\",\"5\",\"\",\"15\",\"\",\"64.4\",\"\",\"96.06\",\"\",\"\",\"\",\"\",\"\",\"Mainly
        Clear\"\r\n\"-120.44\",\"50.70\",\"KAMLOOPS A\",\"1163780\",\"2012-11-20 22:00\",\"2012\",\"11\",\"20\",\"22:00\",\"5.5\",\"\",\"2.3\",\"\",\"80\",\"\",\"\",\"\",\"9\",\"\",\"22\",\"\",\"64.4\",\"\",\"96.10\",\"\",\"\",\"\",\"\",\"\",\"Mainly
        Clear\"\r\n\"-120.44\",\"50.70\",\"KAMLOOPS A\",\"1163780\",\"2012-11-20 23:00\",\"2012\",\"11\",\"20\",\"23:00\",\"5.2\",\"\",\"2.1\",\"\",\"80\",\"\",\"\",\"\",\"9\",\"\",\"28\",\"\",\"64.4\",\"\",\"96.13\",\"\",\"\",\"\",\"\",\"\",\"Mainly
        Clear\"\r\n\"-120.44\",\"50.70\",\"KAMLOOPS A\",\"1163780\",\"2012-11-21 00:00\",\"2012\",\"11\",\"21\",\"00:00\",\"5.3\",\"\",\"0.3\",\"\",\"70\",\"\",\"\",\"\",\"9\",\"\",\"32\",\"\",\"64.4\",\"\",\"96.15\",\"\",\"\",\"\",\"\",\"\",\"Mainly
        Clear\"\r\n\"-120.44\",\"50.70\",\"KAMLOOPS A\",\"1163780\",\"2012-11-21 01:00\",\"2012\",\"11\",\"21\",\"01:00\",\"4.7\",\"\",\"1.0\",\"\",\"77\",\"\",\"\",\"\",\"9\",\"\",\"22\",\"\",\"64.4\",\"\",\"96.15\",\"\",\"\",\"\",\"\",\"\",\"Mainly
        Clear\"\r\n\"-120.44\",\"50.70\",\"KAMLOOPS A\",\"1163780\",\"2012-11-21 02:00\",\"2012\",\"11\",\"21\",\"02:00\",\"3.7\",\"\",\"1.5\",\"\",\"86\",\"\",\"\",\"\",\"6\",\"\",\"22\",\"\",\"64.4\",\"\",\"96.17\",\"\",\"\",\"\",\"\",\"\",\"Mainly
        Clear\"\r\n\"-120.44\",\"50.70\",\"KAMLOOPS A\",\"1163780\",\"2012-11-21 03:00\",\"2012\",\"11\",\"21\",\"03:00\",\"3.4\",\"\",\"1.5\",\"\",\"87\",\"\",\"\",\"\",\"2\",\"\",\"4\",\"\",\"64.4\",\"\",\"96.14\",\"\",\"\",\"\",\"\",\"\",\"Mainly
        Clear\"\r\n\"-120.44\",\"50.70\",\"KAMLOOPS A\",\"1163780\",\"2012-11-21 04:00\",\"2012\",\"11\",\"21\",\"04:00\",\"2.1\",\"\",\"0.9\",\"\",\"92\",\"\",\"\",\"\",\"7\",\"\",\"17\",\"\",\"64.4\",\"\",\"96.08\",\"\",\"\",\"\",\"\",\"\",\"Mainly
        Clear\"\r\n\"-120.44\",\"50.70\",\"KAMLOOPS A\",\"1163780\",\"2012-11-21 05:00\",\"2012\",\"11\",\"21\",\"05:00\",\"3.2\",\"\",\"0.3\",\"\",\"81\",\"\",\"\",\"\",\"11\",\"\",\"20\",\"\",\"64.4\",\"\",\"96.10\",\"\",\"\",\"\",\"\",\"\",\"Cloudy\"\r\n\"-120.44\",\"50.70\",\"KAMLOOPS
        A\",\"1163780\",\"2012-11-21 06:00\",\"2012\",\"11\",\"21\",\"06:00\",\"2.9\",\"\",\"0.6\",\"\",\"85\",\"\",\"\",\"\",\"8\",\"\",\"11\",\"\",\"64.4\",\"\",\"96.07\",\"\",\"\",\"\",\"\",\"\",\"Cloudy\"\r\n\"-120.44\",\"50.70\",\"KAMLOOPS
        A\",\"1163780\",\"2012-11-21 07:00\",\"2012\",\"11\",\"21\",\"07:00\",\"3.2\",\"\",\"1.3\",\"\",\"87\",\"\",\"\",\"\",\"11\",\"\",\"7\",\"\",\"48.3\",\"\",\"96.07\",\"\",\"\",\"\",\"\",\"\",\"Rain\"\r\n\"-120.44\",\"50.70\",\"KAMLOOPS
        A\",\"1163780\",\"2012-11-21 08:00\",\"2012\",\"11\",\"21\",\"08:00\",\"2.7\",\"\",\"1.8\",\"\",\"94\",\"\",\"\",\"\",\"\",\"\",\"0\",\"\",\"24.1\",\"\",\"96.08\",\"\",\"\",\"\",\"\",\"\",\"Rain\"\r\n\"-120.44\",\"50.70\",\"KAMLOOPS
        A\",\"1163780\",\"2012-11-21 09:00\",\"2012\",\"11\",\"21\",\"09:00\",\"3.3\",\"\",\"1.7\",\"\",\"89\",\"\",\"\",\"\",\"11\",\"\",\"13\",\"\",\"40.2\",\"\",\"96.09\",\"\",\"\",\"\",\"\",\"\",\"Cloudy\"\r\n\"-120.44\",\"50.70\",\"KAMLOOPS
        A\",\"1163780\",\"2012-11-21 10:00\",\"2012\",\"11\",\"21\",\"10:00\",\"3.9\",\"\",\"2.4\",\"\",\"90\",\"\",\"\",\"\",\"12\",\"\",\"15\",\"\",\"40.2\",\"\",\"96.09\",\"\",\"\",\"\",\"\",\"\",\"Mostly
        Cloudy\"\r\n\"-120.44\",\"50.70\",\"KAMLOOPS A\",\"1163780\",\"2012-11-21
        11:00\",\"2012\",\"11\",\"21\",\"11:00\",\"5.2\",\"\",\"3.0\",\"\",\"86\",\"\",\"\",\"\",\"10\",\"\",\"13\",\"\",\"48.3\",\"\",\"96.12\",\"\",\"\",\"\",\"\",\"\",\"Mostly
        Cloudy\"\r\n\"-120.44\",\"50.70\",\"KAMLOOPS A\",\"1163780\",\"2012-11-21
        12:00\",\"2012\",\"11\",\"21\",\"12:00\",\"5.9\",\"\",\"3.4\",\"\",\"84\",\"\",\"\",\"\",\"26\",\"\",\"7\",\"\",\"48.3\",\"\",\"96.17\",\"\",\"\",\"\",\"\",\"\",\"Mostly
        Cloudy\"\r\n\"-120.44\",\"50.70\",\"KAMLOOPS A\",\"1163780\",\"2012-11-21
        13:00\",\"2012\",\"11\",\"21\",\"13:00\",\"5.5\",\"\",\"2.7\",\"\",\"82\",\"\",\"\",\"\",\"27\",\"\",\"24\",\"\",\"64.4\",\"\",\"96.29\",\"\",\"\",\"\",\"\",\"\",\"Mostly
        Cloudy\"\r\n\"-120.44\",\"50.70\",\"KAMLOOPS A\",\"1163780\",\"2012-11-21
        14:00\",\"2012\",\"11\",\"21\",\"14:00\",\"5.5\",\"\",\"2.9\",\"\",\"83\",\"\",\"\",\"\",\"29\",\"\",\"19\",\"\",\"64.4\",\"\",\"96.45\",\"\",\"\",\"\",\"\",\"\",\"Cloudy\"\r\n\"-120.44\",\"50.70\",\"KAMLOOPS
        A\",\"1163780\",\"2012-11-21 15:00\",\"2012\",\"11\",\"21\",\"15:00\",\"5.8\",\"\",\"2.0\",\"\",\"77\",\"\",\"\",\"\",\"26\",\"\",\"17\",\"\",\"64.4\",\"\",\"96.60\",\"\",\"\",\"\",\"\",\"\",\"Cloudy\"\r\n\"-120.44\",\"50.70\",\"KAMLOOPS
        A\",\"1163780\",\"2012-11-21 16:00\",\"2012\",\"11\",\"21\",\"16:00\",\"5.8\",\"\",\"2.1\",\"\",\"77\",\"\",\"\",\"\",\"25\",\"\",\"15\",\"\",\"48.3\",\"\",\"96.78\",\"\",\"\",\"\",\"\",\"\",\"Rain
        Showers\"\r\n\"-120.44\",\"50.70\",\"KAMLOOPS A\",\"1163780\",\"2012-11-21
        17:00\",\"2012\",\"11\",\"21\",\"17:00\",\"4.9\",\"\",\"3.2\",\"\",\"89\",\"\",\"\",\"\",\"30\",\"\",\"19\",\"\",\"48.3\",\"\",\"96.99\",\"\",\"\",\"\",\"\",\"\",\"Rain
        Showers\"\r\n\"-120.44\",\"50.70\",\"KAMLOOPS A\",\"1163780\",\"2012-11-21
        18:00\",\"2012\",\"11\",\"21\",\"18:00\",\"4.2\",\"\",\"1.2\",\"\",\"81\",\"\",\"\",\"\",\"23\",\"\",\"15\",\"\",\"48.3\",\"\",\"97.16\",\"\",\"\",\"\",\"\",\"\",\"Rain
        Showers\"\r\n\"-120.44\",\"50.70\",\"KAMLOOPS A\",\"1163780\",\"2012-11-21
        19:00\",\"2012\",\"11\",\"21\",\"19:00\",\"4.6\",\"\",\"-0.2\",\"\",\"71\",\"\",\"\",\"\",\"30\",\"\",\"6\",\"\",\"64.4\",\"\",\"97.29\",\"\",\"\",\"\",\"\",\"\",\"Cloudy\"\r\n\"-120.44\",\"50.70\",\"KAMLOOPS
        A\",\"1163780\",\"2012-11-21 20:00\",\"2012\",\"11\",\"21\",\"20:00\",\"3.0\",\"\",\"0.7\",\"\",\"85\",\"\",\"\",\"\",\"\",\"\",\"0\",\"\",\"64.4\",\"\",\"97.44\",\"\",\"\",\"\",\"\",\"\",\"Cloudy\"\r\n\"-120.44\",\"50.70\",\"KAMLOOPS
        A\",\"1163780\",\"2012-11-21 21:00\",\"2012\",\"11\",\"21\",\"21:00\",\"2.1\",\"\",\"0.7\",\"\",\"90\",\"\",\"\",\"\",\"27\",\"\",\"6\",\"\",\"64.4\",\"\",\"97.61\",\"\",\"\",\"\",\"\",\"\",\"Cloudy\"\r\n\"-120.44\",\"50.70\",\"KAMLOOPS
        A\",\"1163780\",\"2012-11-21 22:00\",\"2012\",\"11\",\"21\",\"22:00\",\"3.6\",\"\",\"0.6\",\"\",\"81\",\"\",\"\",\"\",\"25\",\"\",\"13\",\"\",\"64.4\",\"\",\"97.77\",\"\",\"\",\"\",\"\",\"\",\"Mostly
        Cloudy\"\r\n\"-120.44\",\"50.70\",\"KAMLOOPS A\",\"1163780\",\"2012-11-21
        23:00\",\"2012\",\"11\",\"21\",\"23:00\",\"2.6\",\"\",\"0.3\",\"\",\"85\",\"\",\"\",\"\",\"24\",\"\",\"9\",\"\",\"64.4\",\"\",\"97.88\",\"\",\"\",\"\",\"\",\"\",\"Mainly
        Clear\"\r\n\"-120.44\",\"50.70\",\"KAMLOOPS A\",\"1163780\",\"2012-11-22 00:00\",\"2012\",\"11\",\"22\",\"00:00\",\"2.7\",\"\",\"-0.1\",\"\",\"82\",\"\",\"\",\"\",\"25\",\"\",\"7\",\"\",\"64.4\",\"\",\"98.03\",\"\",\"\",\"\",\"\",\"\",\"Mainly
        Clear\"\r\n\"-120.44\",\"50.70\",\"KAMLOOPS A\",\"1163780\",\"2012-11-22 01:00\",\"2012\",\"11\",\"22\",\"01:00\",\"1.4\",\"\",\"-0.5\",\"\",\"87\",\"\",\"\",\"\",\"25\",\"\",\"7\",\"\",\"64.4\",\"\",\"98.18\",\"\",\"\",\"\",\"\",\"\",\"Mainly
        Clear\"\r\n\"-120.44\",\"50.70\",\"KAMLOOPS A\",\"1163780\",\"2012-11-22 02:00\",\"2012\",\"11\",\"22\",\"02:00\",\"-1.7\",\"\",\"-3.5\",\"\",\"87\",\"\",\"\",\"\",\"36\",\"\",\"4\",\"\",\"64.4\",\"\",\"98.32\",\"\",\"\",\"\",\"-3\",\"\",\"Clear\"\r\n\"-120.44\",\"50.70\",\"KAMLOOPS
        A\",\"1163780\",\"2012-11-22 03:00\",\"2012\",\"11\",\"22\",\"03:00\",\"-0.7\",\"\",\"-1.8\",\"\",\"92\",\"\",\"\",\"\",\"11\",\"\",\"4\",\"\",\"64.4\",\"\",\"98.41\",\"\",\"\",\"\",\"-2\",\"\",\"Mainly
        Clear\"\r\n\"-120.44\",\"50.70\",\"KAMLOOPS A\",\"1163780\",\"2012-11-22 04:00\",\"2012\",\"11\",\"22\",\"04:00\",\"-1.4\",\"\",\"-2.5\",\"\",\"92\",\"\",\"\",\"\",\"28\",\"\",\"4\",\"\",\"64.4\",\"\",\"98.47\",\"\",\"\",\"\",\"-3\",\"\",\"Mainly
        Clear\"\r\n\"-120.44\",\"50.70\",\"KAMLOOPS A\",\"1163780\",\"2012-11-22 05:00\",\"2012\",\"11\",\"22\",\"05:00\",\"-1.4\",\"\",\"-2.4\",\"\",\"93\",\"\",\"\",\"\",\"\",\"\",\"0\",\"\",\"40.2\",\"\",\"98.55\",\"\",\"\",\"\",\"\",\"\",\"Cloudy\"\r\n\"-120.44\",\"50.70\",\"KAMLOOPS
        A\",\"1163780\",\"2012-11-22 06:00\",\"2012\",\"11\",\"22\",\"06:00\",\"-0.4\",\"\",\"-1.5\",\"\",\"92\",\"\",\"\",\"\",\"\",\"\",\"0\",\"\",\"48.3\",\"\",\"98.61\",\"\",\"\",\"\",\"\",\"\",\"Cloudy\"\r\n\"-120.44\",\"50.70\",\"KAMLOOPS
        A\",\"1163780\",\"2012-11-22 07:00\",\"2012\",\"11\",\"22\",\"07:00\",\"-0.7\",\"\",\"-1.9\",\"\",\"92\",\"\",\"\",\"\",\"9\",\"\",\"7\",\"\",\"48.3\",\"\",\"98.68\",\"\",\"\",\"\",\"-3\",\"\",\"Mostly
        Cloudy\"\r\n\"-120.44\",\"50.70\",\"KAMLOOPS A\",\"1163780\",\"2012-11-22
        08:00\",\"2012\",\"11\",\"22\",\"08:00\",\"0.0\",\"\",\"-3.0\",\"\",\"80\",\"\",\"\",\"\",\"11\",\"\",\"17\",\"\",\"48.3\",\"\",\"98.74\",\"\",\"\",\"\",\"-5\",\"\",\"Mostly
        Cloudy\"\r\n\"-120.44\",\"50.70\",\"KAMLOOPS A\",\"1163780\",\"2012-11-22
        09:00\",\"2012\",\"11\",\"22\",\"09:00\",\"0.1\",\"\",\"-3.2\",\"\",\"78\",\"\",\"\",\"\",\"12\",\"\",\"17\",\"\",\"48.3\",\"\",\"98.80\",\"\",\"\",\"\",\"\",\"\",\"Mostly
        Cloudy\"\r\n\"-120.44\",\"50.70\",\"KAMLOOPS A\",\"1163780\",\"2012-11-22
        10:00\",\"2012\",\"11\",\"22\",\"10:00\",\"0.1\",\"\",\"-2.9\",\"\",\"80\",\"\",\"\",\"\",\"13\",\"\",\"17\",\"\",\"48.3\",\"\",\"98.82\",\"\",\"\",\"\",\"\",\"\",\"Cloudy\"\r\n\"-120.44\",\"50.70\",\"KAMLOOPS
        A\",\"1163780\",\"2012-11-22 11:00\",\"2012\",\"11\",\"22\",\"11:00\",\"0.3\",\"\",\"-3.2\",\"\",\"77\",\"\",\"\",\"\",\"12\",\"\",\"15\",\"\",\"48.3\",\"\",\"98.82\",\"\",\"\",\"\",\"\",\"\",\"Cloudy\"\r\n\"-120.44\",\"50.70\",\"KAMLOOPS
        A\",\"1163780\",\"2012-11-22 12:00\",\"2012\",\"11\",\"22\",\"12:00\",\"0.9\",\"\",\"-2.3\",\"\",\"79\",\"\",\"\",\"\",\"11\",\"\",\"20\",\"\",\"64.4\",\"\",\"98.78\",\"\",\"\",\"\",\"\",\"\",\"Cloudy\"\r\n\"-120.44\",\"50.70\",\"KAMLOOPS
        A\",\"1163780\",\"2012-11-22 13:00\",\"2012\",\"11\",\"22\",\"13:00\",\"1.2\",\"\",\"-2.7\",\"\",\"75\",\"\",\"\",\"\",\"11\",\"\",\"22\",\"\",\"64.4\",\"\",\"98.73\",\"\",\"\",\"\",\"\",\"\",\"Cloudy\"\r\n\"-120.44\",\"50.70\",\"KAMLOOPS
        A\",\"1163780\",\"2012-11-22 14:00\",\"2012\",\"11\",\"22\",\"14:00\",\"1.7\",\"\",\"-2.2\",\"\",\"75\",\"\",\"\",\"\",\"11\",\"\",\"17\",\"\",\"64.4\",\"\",\"98.70\",\"\",\"\",\"\",\"\",\"\",\"Cloudy\"\r\n\"-120.44\",\"50.70\",\"KAMLOOPS
        A\",\"1163780\",\"2012-11-22 15:00\",\"2012\",\"11\",\"22\",\"15:00\",\"1.9\",\"\",\"-2.2\",\"\",\"74\",\"\",\"\",\"\",\"12\",\"\",\"19\",\"\",\"64.4\",\"\",\"98.63\",\"\",\"\",\"\",\"\",\"\",\"Cloudy\"\r\n\"-120.44\",\"50.70\",\"KAMLOOPS
        A\",\"1163780\",\"2012-11-22 16:00\",\"2012\",\"11\",\"22\",\"16:00\",\"1.7\",\"\",\"-2.3\",\"\",\"75\",\"\",\"\",\"\",\"10\",\"\",\"19\",\"\",\"64.4\",\"\",\"98.62\",\"\",\"\",\"\",\"\",\"\",\"Cloudy\"\r\n\"-120.44\",\"50.70\",\"KAMLOOPS
        A\",\"1163780\",\"2012-11-22 17:00\",\"2012\",\"11\",\"22\",\"17:00\",\"1.9\",\"\",\"-2.0\",\"\",\"75\",\"\",\"\",\"\",\"10\",\"\",\"22\",\"\",\"64.4\",\"\",\"98.54\",\"\",\"\",\"\",\"\",\"\",\"Cloudy\"\r\n\"-120.44\",\"50.70\",\"KAMLOOPS
        A\",\"1163780\",\"2012-11-22 18:00\",\"2012\",\"11\",\"22\",\"18:00\",\"1.4\",\"\",\"-1.7\",\"\",\"80\",\"\",\"\",\"\",\"6\",\"\",\"9\",\"\",\"64.4\",\"\",\"98.48\",\"\",\"\",\"\",\"\",\"\",\"Cloudy\"\r\n\"-120.44\",\"50.70\",\"KAMLOOPS
        A\",\"1163780\",\"2012-11-22 19:00\",\"2012\",\"11\",\"22\",\"19:00\",\"3.1\",\"\",\"-0.8\",\"\",\"76\",\"\",\"\",\"\",\"10\",\"\",\"13\",\"\",\"64.4\",\"\",\"98.45\",\"\",\"\",\"\",\"\",\"\",\"Cloudy\"\r\n\"-120.44\",\"50.70\",\"KAMLOOPS
        A\",\"1163780\",\"2012-11-22 20:00\",\"2012\",\"11\",\"22\",\"20:00\",\"4.1\",\"\",\"-0.8\",\"\",\"70\",\"\",\"\",\"\",\"10\",\"\",\"17\",\"\",\"64.4\",\"\",\"98.39\",\"\",\"\",\"\",\"\",\"\",\"Cloudy\"\r\n\"-120.44\",\"50.70\",\"KAMLOOPS
        A\",\"1163780\",\"2012-11-22 21:00\",\"2012\",\"11\",\"22\",\"21:00\",\"4.4\",\"\",\"-0.7\",\"\",\"69\",\"\",\"\",\"\",\"9\",\"\",\"24\",\"\",\"64.4\",\"\",\"98.35\",\"\",\"\",\"\",\"\",\"\",\"Cloudy\"\r\n\"-120.44\",\"50.70\",\"KAMLOOPS
        A\",\"1163780\",\"2012-11-22 22:00\",\"2012\",\"11\",\"22\",\"22:00\",\"4.1\",\"\",\"-0.3\",\"\",\"73\",\"\",\"\",\"\",\"9\",\"\",\"17\",\"\",\"64.4\",\"\",\"98.30\",\"\",\"\",\"\",\"\",\"\",\"Cloudy\"\r\n\"-120.44\",\"50.70\",\"KAMLOOPS
        A\",\"1163780\",\"2012-11-22 23:00\",\"2012\",\"11\",\"22\",\"23:00\",\"4.3\",\"\",\"-0.2\",\"\",\"73\",\"\",\"\",\"\",\"11\",\"\",\"20\",\"\",\"64.4\",\"\",\"98.24\",\"\",\"\",\"\",\"\",\"\",\"Cloudy\"\r\n\"-120.44\",\"50.70\",\"KAMLOOPS
        A\",\"1163780\",\"2012-11-23 00:00\",\"2012\",\"11\",\"23\",\"00:00\",\"4.4\",\"\",\"-0.2\",\"\",\"72\",\"\",\"\",\"\",\"9\",\"\",\"19\",\"\",\"64.4\",\"\",\"98.19\",\"\",\"\",\"\",\"\",\"\",\"Cloudy\"\r\n\"-120.44\",\"50.70\",\"KAMLOOPS
        A\",\"1163780\",\"2012-11-23 01:00\",\"2012\",\"11\",\"23\",\"01:00\",\"4.4\",\"\",\"-0.1\",\"\",\"73\",\"\",\"\",\"\",\"9\",\"\",\"17\",\"\",\"64.4\",\"\",\"98.09\",\"\",\"\",\"\",\"\",\"\",\"Cloudy\"\r\n\"-120.44\",\"50.70\",\"KAMLOOPS
        A\",\"1163780\",\"2012-11-23 02:00\",\"2012\",\"11\",\"23\",\"02:00\",\"4.8\",\"\",\"-0.4\",\"\",\"69\",\"\",\"\",\"\",\"10\",\"\",\"13\",\"\",\"64.4\",\"\",\"98.04\",\"\",\"\",\"\",\"\",\"\",\"Cloudy\"\r\n\"-120.44\",\"50.70\",\"KAMLOOPS
        A\",\"1163780\",\"2012-11-23 03:00\",\"2012\",\"11\",\"23\",\"03:00\",\"5.1\",\"\",\"-0.7\",\"\",\"66\",\"\",\"\",\"\",\"9\",\"\",\"20\",\"\",\"64.4\",\"\",\"97.95\",\"\",\"\",\"\",\"\",\"\",\"Cloudy\"\r\n\"-120.44\",\"50.70\",\"KAMLOOPS
        A\",\"1163780\",\"2012-11-23 04:00\",\"2012\",\"11\",\"23\",\"04:00\",\"5.2\",\"\",\"-0.7\",\"\",\"66\",\"\",\"\",\"\",\"8\",\"\",\"19\",\"\",\"64.4\",\"\",\"97.77\",\"\",\"\",\"\",\"\",\"\",\"Cloudy\"\r\n\"-120.44\",\"50.70\",\"KAMLOOPS
        A\",\"1163780\",\"2012-11-23 05:00\",\"2012\",\"11\",\"23\",\"05:00\",\"5.6\",\"\",\"-1.1\",\"\",\"62\",\"\",\"\",\"\",\"9\",\"\",\"19\",\"\",\"64.4\",\"\",\"97.76\",\"\",\"\",\"\",\"\",\"\",\"Cloudy\"\r\n\"-120.44\",\"50.70\",\"KAMLOOPS
        A\",\"1163780\",\"2012-11-23 06:00\",\"2012\",\"11\",\"23\",\"06:00\",\"5.6\",\"\",\"-0.9\",\"\",\"63\",\"\",\"\",\"\",\"9\",\"\",\"33\",\"\",\"64.4\",\"\",\"97.68\",\"\",\"\",\"\",\"\",\"\",\"Cloudy\"\r\n\"-120.44\",\"50.70\",\"KAMLOOPS
        A\",\"1163780\",\"2012-11-23 07:00\",\"2012\",\"11\",\"23\",\"07:00\",\"5.6\",\"\",\"-0.7\",\"\",\"64\",\"\",\"\",\"\",\"9\",\"\",\"30\",\"\",\"64.4\",\"\",\"97.63\",\"\",\"\",\"\",\"\",\"\",\"Cloudy\"\r\n\"-120.44\",\"50.70\",\"KAMLOOPS
        A\",\"1163780\",\"2012-11-23 08:00\",\"2012\",\"11\",\"23\",\"08:00\",\"5.1\",\"\",\"-0.1\",\"\",\"69\",\"\",\"\",\"\",\"8\",\"\",\"19\",\"\",\"64.4\",\"\",\"97.60\",\"\",\"\",\"\",\"\",\"\",\"Cloudy\"\r\n\"-120.44\",\"50.70\",\"KAMLOOPS
        A\",\"1163780\",\"2012-11-23 09:00\",\"2012\",\"11\",\"23\",\"09:00\",\"5.5\",\"\",\"0.0\",\"\",\"68\",\"\",\"\",\"\",\"9\",\"\",\"44\",\"\",\"64.4\",\"\",\"97.56\",\"\",\"\",\"\",\"\",\"\",\"Mostly
        Cloudy\"\r\n\"-120.44\",\"50.70\",\"KAMLOOPS A\",\"1163780\",\"2012-11-23
        10:00\",\"2012\",\"11\",\"23\",\"10:00\",\"5.7\",\"\",\"0.1\",\"\",\"67\",\"\",\"\",\"\",\"9\",\"\",\"43\",\"\",\"64.4\",\"\",\"97.55\",\"\",\"\",\"\",\"\",\"\",\"Mostly
        Cloudy\"\r\n\"-120.44\",\"50.70\",\"KAMLOOPS A\",\"1163780\",\"2012-11-23
        11:00\",\"2012\",\"11\",\"23\",\"11:00\",\"6.2\",\"\",\"0.8\",\"\",\"68\",\"\",\"\",\"\",\"9\",\"\",\"37\",\"\",\"64.4\",\"\",\"97.52\",\"\",\"\",\"\",\"\",\"\",\"Mostly
        Cloudy\"\r\n\"-120.44\",\"50.70\",\"KAMLOOPS A\",\"1163780\",\"2012-11-23
        12:00\",\"2012\",\"11\",\"23\",\"12:00\",\"6.6\",\"\",\"1.0\",\"\",\"67\",\"\",\"\",\"\",\"10\",\"\",\"41\",\"\",\"64.4\",\"\",\"97.47\",\"\",\"\",\"\",\"\",\"\",\"Mostly
        Cloudy\"\r\n\"-120.44\",\"50.70\",\"KAMLOOPS A\",\"1163780\",\"2012-11-23
        13:00\",\"2012\",\"11\",\"23\",\"13:00\",\"7.1\",\"\",\"1.4\",\"\",\"67\",\"\",\"\",\"\",\"9\",\"\",\"37\",\"\",\"64.4\",\"\",\"97.33\",\"\",\"\",\"\",\"\",\"\",\"Mostly
        Cloudy\"\r\n\"-120.44\",\"50.70\",\"KAMLOOPS A\",\"1163780\",\"2012-11-23
        14:00\",\"2012\",\"11\",\"23\",\"14:00\",\"6.8\",\"\",\"1.2\",\"\",\"67\",\"\",\"\",\"\",\"8\",\"\",\"43\",\"\",\"64.4\",\"\",\"97.24\",\"\",\"\",\"\",\"\",\"\",\"Mainly
        Clear\"\r\n\"-120.44\",\"50.70\",\"KAMLOOPS A\",\"1163780\",\"2012-11-23 15:00\",\"2012\",\"11\",\"23\",\"15:00\",\"6.6\",\"\",\"1.4\",\"\",\"69\",\"\",\"\",\"\",\"9\",\"\",\"33\",\"\",\"64.4\",\"\",\"97.27\",\"\",\"\",\"\",\"\",\"\",\"Mainly
        Clear\"\r\n\"-120.44\",\"50.70\",\"KAMLOOPS A\",\"1163780\",\"2012-11-23 16:00\",\"2012\",\"11\",\"23\",\"16:00\",\"5.8\",\"\",\"1.3\",\"\",\"73\",\"\",\"\",\"\",\"11\",\"\",\"24\",\"\",\"64.4\",\"\",\"97.27\",\"\",\"\",\"\",\"\",\"\",\"Mainly
        Clear\"\r\n\"-120.44\",\"50.70\",\"KAMLOOPS A\",\"1163780\",\"2012-11-23 17:00\",\"2012\",\"11\",\"23\",\"17:00\",\"5.4\",\"\",\"1.2\",\"\",\"74\",\"\",\"\",\"\",\"12\",\"\",\"24\",\"\",\"64.4\",\"\",\"97.28\",\"\",\"\",\"\",\"\",\"\",\"Mainly
        Clear\"\r\n\"-120.44\",\"50.70\",\"KAMLOOPS A\",\"1163780\",\"2012-11-23 18:00\",\"2012\",\"11\",\"23\",\"18:00\",\"5.0\",\"\",\"1.7\",\"\",\"79\",\"\",\"\",\"\",\"11\",\"\",\"22\",\"\",\"64.4\",\"\",\"97.28\",\"\",\"\",\"\",\"\",\"\",\"Mainly
        Clear\"\r\n\"-120.44\",\"50.70\",\"KAMLOOPS A\",\"1163780\",\"2012-11-23 19:00\",\"2012\",\"11\",\"23\",\"19:00\",\"3.9\",\"\",\"0.5\",\"\",\"78\",\"\",\"\",\"\",\"20\",\"\",\"9\",\"\",\"64.4\",\"\",\"97.29\",\"\",\"\",\"\",\"\",\"\",\"Mainly
        Clear\"\r\n\"-120.44\",\"50.70\",\"KAMLOOPS A\",\"1163780\",\"2012-11-23 20:00\",\"2012\",\"11\",\"23\",\"20:00\",\"2.4\",\"\",\"0.3\",\"\",\"86\",\"\",\"\",\"\",\"7\",\"\",\"7\",\"\",\"64.4\",\"\",\"97.34\",\"\",\"\",\"\",\"\",\"\",\"Mainly
        Clear\"\r\n\"-120.44\",\"50.70\",\"KAMLOOPS A\",\"1163780\",\"2012-11-23 21:00\",\"2012\",\"11\",\"23\",\"21:00\",\"1.6\",\"\",\"-0.2\",\"\",\"88\",\"\",\"\",\"\",\"3\",\"\",\"4\",\"\",\"64.4\",\"\",\"97.39\",\"\",\"\",\"\",\"\",\"\",\"Clear\"\r\n\"-120.44\",\"50.70\",\"KAMLOOPS
        A\",\"1163780\",\"2012-11-23 22:00\",\"2012\",\"11\",\"23\",\"22:00\",\"-0.4\",\"\",\"-1.1\",\"\",\"95\",\"\",\"\",\"\",\"29\",\"\",\"4\",\"\",\"64.4\",\"\",\"97.47\",\"\",\"\",\"\",\"-2\",\"\",\"Mainly
        Clear\"\r\n\"-120.44\",\"50.70\",\"KAMLOOPS A\",\"1163780\",\"2012-11-23 23:00\",\"2012\",\"11\",\"23\",\"23:00\",\"0.0\",\"\",\"-1.3\",\"\",\"91\",\"\",\"\",\"\",\"24\",\"\",\"6\",\"\",\"64.4\",\"\",\"97.53\",\"\",\"\",\"\",\"-2\",\"\",\"Mainly
        Clear\"\r\n\"-120.44\",\"50.70\",\"KAMLOOPS A\",\"1163780\",\"2012-11-24 00:00\",\"2012\",\"11\",\"24\",\"00:00\",\"1.0\",\"\",\"0.0\",\"\",\"93\",\"\",\"\",\"\",\"9\",\"\",\"7\",\"\",\"64.4\",\"\",\"97.58\",\"\",\"\",\"\",\"\",\"\",\"Mostly
        Cloudy\"\r\n\"-120.44\",\"50.70\",\"KAMLOOPS A\",\"1163780\",\"2012-11-24
        01:00\",\"2012\",\"11\",\"24\",\"01:00\",\"0.8\",\"\",\"-0.2\",\"\",\"93\",\"\",\"\",\"\",\"9\",\"\",\"6\",\"\",\"48.3\",\"\",\"97.63\",\"\",\"\",\"\",\"\",\"\",\"Cloudy\"\r\n\"-120.44\",\"50.70\",\"KAMLOOPS
        A\",\"1163780\",\"2012-11-24 02:00\",\"2012\",\"11\",\"24\",\"02:00\",\"0.3\",\"\",\"-0.6\",\"\",\"94\",\"\",\"\",\"\",\"27\",\"\",\"4\",\"\",\"48.3\",\"\",\"97.68\",\"\",\"\",\"\",\"\",\"\",\"Cloudy\"\r\n\"-120.44\",\"50.70\",\"KAMLOOPS
        A\",\"1163780\",\"2012-11-24 03:00\",\"2012\",\"11\",\"24\",\"03:00\",\"0.6\",\"\",\"-0.3\",\"\",\"94\",\"\",\"\",\"\",\"4\",\"\",\"4\",\"\",\"32.2\",\"\",\"97.75\",\"\",\"\",\"\",\"\",\"\",\"Cloudy\"\r\n\"-120.44\",\"50.70\",\"KAMLOOPS
        A\",\"1163780\",\"2012-11-24 04:00\",\"2012\",\"11\",\"24\",\"04:00\",\"0.7\",\"\",\"-0.3\",\"\",\"93\",\"\",\"\",\"\",\"\",\"\",\"0\",\"\",\"32.2\",\"\",\"97.78\",\"\",\"\",\"\",\"\",\"\",\"Cloudy\"\r\n\"-120.44\",\"50.70\",\"KAMLOOPS
        A\",\"1163780\",\"2012-11-24 05:00\",\"2012\",\"11\",\"24\",\"05:00\",\"0.9\",\"\",\"-0.3\",\"\",\"92\",\"\",\"\",\"\",\"\",\"\",\"0\",\"\",\"32.2\",\"\",\"97.86\",\"\",\"\",\"\",\"\",\"\",\"Cloudy\"\r\n\"-120.44\",\"50.70\",\"KAMLOOPS
        A\",\"1163780\",\"2012-11-24 06:00\",\"2012\",\"11\",\"24\",\"06:00\",\"1.0\",\"\",\"-0.4\",\"\",\"90\",\"\",\"\",\"\",\"10\",\"\",\"7\",\"\",\"32.2\",\"\",\"97.91\",\"\",\"\",\"\",\"\",\"\",\"Cloudy\"\r\n\"-120.44\",\"50.70\",\"KAMLOOPS
        A\",\"1163780\",\"2012-11-24 07:00\",\"2012\",\"11\",\"24\",\"07:00\",\"1.0\",\"\",\"-0.9\",\"\",\"87\",\"\",\"\",\"\",\"11\",\"\",\"9\",\"\",\"32.2\",\"\",\"97.94\",\"\",\"\",\"\",\"\",\"\",\"Cloudy\"\r\n\"-120.44\",\"50.70\",\"KAMLOOPS
        A\",\"1163780\",\"2012-11-24 08:00\",\"2012\",\"11\",\"24\",\"08:00\",\"1.5\",\"\",\"-0.3\",\"\",\"88\",\"\",\"\",\"\",\"10\",\"\",\"7\",\"\",\"32.2\",\"\",\"98.03\",\"\",\"\",\"\",\"\",\"\",\"Cloudy\"\r\n\"-120.44\",\"50.70\",\"KAMLOOPS
        A\",\"1163780\",\"2012-11-24 09:00\",\"2012\",\"11\",\"24\",\"09:00\",\"1.7\",\"\",\"-0.2\",\"\",\"87\",\"\",\"\",\"\",\"7\",\"\",\"4\",\"\",\"32.2\",\"\",\"98.07\",\"\",\"\",\"\",\"\",\"\",\"Cloudy\"\r\n\"-120.44\",\"50.70\",\"KAMLOOPS
        A\",\"1163780\",\"2012-11-24 10:00\",\"2012\",\"11\",\"24\",\"10:00\",\"2.3\",\"\",\"-0.4\",\"\",\"82\",\"\",\"\",\"\",\"9\",\"\",\"4\",\"\",\"32.2\",\"\",\"98.09\",\"\",\"\",\"\",\"\",\"\",\"Cloudy\"\r\n\"-120.44\",\"50.70\",\"KAMLOOPS
        A\",\"1163780\",\"2012-11-24 11:00\",\"2012\",\"11\",\"24\",\"11:00\",\"2.7\",\"\",\"0.0\",\"\",\"82\",\"\",\"\",\"\",\"9\",\"\",\"6\",\"\",\"32.2\",\"\",\"98.12\",\"\",\"\",\"\",\"\",\"\",\"Cloudy\"\r\n\"-120.44\",\"50.70\",\"KAMLOOPS
        A\",\"1163780\",\"2012-11-24 12:00\",\"2012\",\"11\",\"24\",\"12:00\",\"2.9\",\"\",\"0.1\",\"\",\"82\",\"\",\"\",\"\",\"12\",\"\",\"4\",\"\",\"32.2\",\"\",\"98.11\",\"\",\"\",\"\",\"\",\"\",\"Cloudy\"\r\n\"-120.44\",\"50.70\",\"KAMLOOPS
        A\",\"1163780\",\"2012-11-24 13:00\",\"2012\",\"11\",\"24\",\"13:00\",\"3.1\",\"\",\"-0.5\",\"\",\"77\",\"\",\"\",\"\",\"32\",\"\",\"4\",\"\",\"32.2\",\"\",\"98.09\",\"\",\"\",\"\",\"\",\"\",\"Cloudy\"\r\n\"-120.44\",\"50.70\",\"KAMLOOPS
        A\",\"1163780\",\"2012-11-24 14:00\",\"2012\",\"11\",\"24\",\"14:00\",\"3.0\",\"\",\"-0.4\",\"\",\"78\",\"\",\"\",\"\",\"27\",\"\",\"4\",\"\",\"32.2\",\"\",\"98.07\",\"\",\"\",\"\",\"\",\"\",\"Cloudy\"\r\n\"-120.44\",\"50.70\",\"KAMLOOPS
        A\",\"1163780\",\"2012-11-24 15:00\",\"2012\",\"11\",\"24\",\"15:00\",\"2.7\",\"\",\"-0.3\",\"\",\"81\",\"\",\"\",\"\",\"5\",\"\",\"6\",\"\",\"32.2\",\"\",\"98.07\",\"\",\"\",\"\",\"\",\"\",\"Cloudy\"\r\n\"-120.44\",\"50.70\",\"KAMLOOPS
        A\",\"1163780\",\"2012-11-24 16:00\",\"2012\",\"11\",\"24\",\"16:00\",\"2.7\",\"\",\"-0.2\",\"\",\"81\",\"\",\"\",\"\",\"7\",\"\",\"4\",\"\",\"32.2\",\"\",\"98.10\",\"\",\"\",\"\",\"\",\"\",\"Cloudy\"\r\n\"-120.44\",\"50.70\",\"KAMLOOPS
        A\",\"1163780\",\"2012-11-24 17:00\",\"2012\",\"11\",\"24\",\"17:00\",\"2.4\",\"\",\"-0.3\",\"\",\"82\",\"\",\"\",\"\",\"10\",\"\",\"4\",\"\",\"32.2\",\"\",\"98.09\",\"\",\"\",\"\",\"\",\"\",\"Cloudy\"\r\n\"-120.44\",\"50.70\",\"KAMLOOPS
        A\",\"1163780\",\"2012-11-24 18:00\",\"2012\",\"11\",\"24\",\"18:00\",\"2.4\",\"\",\"-0.5\",\"\",\"81\",\"\",\"\",\"\",\"\",\"\",\"0\",\"\",\"32.2\",\"\",\"98.07\",\"\",\"\",\"\",\"\",\"\",\"Cloudy\"\r\n\"-120.44\",\"50.70\",\"KAMLOOPS
        A\",\"1163780\",\"2012-11-24 19:00\",\"2012\",\"11\",\"24\",\"19:00\",\"2.3\",\"\",\"-0.5\",\"\",\"82\",\"\",\"\",\"\",\"36\",\"\",\"7\",\"\",\"32.2\",\"\",\"98.07\",\"\",\"\",\"\",\"\",\"\",\"Cloudy\"\r\n\"-120.44\",\"50.70\",\"KAMLOOPS
        A\",\"1163780\",\"2012-11-24 20:00\",\"2012\",\"11\",\"24\",\"20:00\",\"2.3\",\"\",\"-0.5\",\"\",\"82\",\"\",\"\",\"\",\"\",\"\",\"0\",\"\",\"32.2\",\"\",\"98.04\",\"\",\"\",\"\",\"\",\"\",\"Cloudy\"\r\n\"-120.44\",\"50.70\",\"KAMLOOPS
        A\",\"1163780\",\"2012-11-24 21:00\",\"2012\",\"11\",\"24\",\"21:00\",\"2.0\",\"\",\"-0.8\",\"\",\"82\",\"\",\"\",\"\",\"22\",\"\",\"9\",\"\",\"32.2\",\"\",\"98.07\",\"\",\"\",\"\",\"\",\"\",\"Cloudy\"\r\n\"-120.44\",\"50.70\",\"KAMLOOPS
        A\",\"1163780\",\"2012-11-24 22:00\",\"2012\",\"11\",\"24\",\"22:00\",\"2.1\",\"\",\"-0.8\",\"\",\"81\",\"\",\"\",\"\",\"\",\"\",\"0\",\"\",\"32.2\",\"\",\"98.10\",\"\",\"\",\"\",\"\",\"\",\"Cloudy\"\r\n\"-120.44\",\"50.70\",\"KAMLOOPS
        A\",\"1163780\",\"2012-11-24 23:00\",\"2012\",\"11\",\"24\",\"23:00\",\"1.8\",\"\",\"-0.8\",\"\",\"83\",\"\",\"\",\"\",\"\",\"\",\"0\",\"\",\"32.2\",\"\",\"98.13\",\"\",\"\",\"\",\"\",\"\",\"Cloudy\"\r\n\"-120.44\",\"50.70\",\"KAMLOOPS
        A\",\"1163780\",\"2012-11-25 00:00\",\"2012\",\"11\",\"25\",\"00:00\",\"1.7\",\"\",\"-0.8\",\"\",\"83\",\"\",\"\",\"\",\"\",\"\",\"0\",\"\",\"32.2\",\"\",\"98.17\",\"\",\"\",\"\",\"\",\"\",\"Cloudy\"\r\n\"-120.44\",\"50.70\",\"KAMLOOPS
        A\",\"1163780\",\"2012-11-25 01:00\",\"2012\",\"11\",\"25\",\"01:00\",\"1.6\",\"\",\"-0.5\",\"\",\"86\",\"\",\"\",\"\",\"\",\"\",\"0\",\"\",\"32.2\",\"\",\"98.17\",\"\",\"\",\"\",\"\",\"\",\"Cloudy\"\r\n\"-120.44\",\"50.70\",\"KAMLOOPS
        A\",\"1163780\",\"2012-11-25 02:00\",\"2012\",\"11\",\"25\",\"02:00\",\"1.4\",\"\",\"-1.1\",\"\",\"83\",\"\",\"\",\"\",\"29\",\"\",\"4\",\"\",\"32.2\",\"\",\"98.21\",\"\",\"\",\"\",\"\",\"\",\"Cloudy\"\r\n\"-120.44\",\"50.70\",\"KAMLOOPS
        A\",\"1163780\",\"2012-11-25 03:00\",\"2012\",\"11\",\"25\",\"03:00\",\"1.5\",\"\",\"-1.4\",\"\",\"81\",\"\",\"\",\"\",\"\",\"\",\"0\",\"\",\"32.2\",\"\",\"98.24\",\"\",\"\",\"\",\"\",\"\",\"Cloudy\"\r\n\"-120.44\",\"50.70\",\"KAMLOOPS
        A\",\"1163780\",\"2012-11-25 04:00\",\"2012\",\"11\",\"25\",\"04:00\",\"1.6\",\"\",\"-1.5\",\"\",\"80\",\"\",\"\",\"\",\"28\",\"\",\"4\",\"\",\"32.2\",\"\",\"98.28\",\"\",\"\",\"\",\"\",\"\",\"Cloudy\"\r\n\"-120.44\",\"50.70\",\"KAMLOOPS
        A\",\"1163780\",\"2012-11-25 05:00\",\"2012\",\"11\",\"25\",\"05:00\",\"0.9\",\"\",\"-2.5\",\"\",\"78\",\"\",\"\",\"\",\"27\",\"\",\"9\",\"\",\"32.2\",\"\",\"98.30\",\"\",\"\",\"\",\"\",\"\",\"Cloudy\"\r\n\"-120.44\",\"50.70\",\"KAMLOOPS
        A\",\"1163780\",\"2012-11-25 06:00\",\"2012\",\"11\",\"25\",\"06:00\",\"0.0\",\"\",\"-2.7\",\"\",\"82\",\"\",\"\",\"\",\"32\",\"\",\"7\",\"\",\"64.4\",\"\",\"98.34\",\"\",\"\",\"\",\"-2\",\"\",\"Mostly
        Cloudy\"\r\n\"-120.44\",\"50.70\",\"KAMLOOPS A\",\"1163780\",\"2012-11-25
        07:00\",\"2012\",\"11\",\"25\",\"07:00\",\"0.0\",\"\",\"-2.7\",\"\",\"82\",\"\",\"\",\"\",\"\",\"\",\"0\",\"\",\"64.4\",\"\",\"98.38\",\"\",\"\",\"\",\"\",\"\",\"Mostly
        Cloudy\"\r\n\"-120.44\",\"50.70\",\"KAMLOOPS A\",\"1163780\",\"2012-11-25
        08:00\",\"2012\",\"11\",\"25\",\"08:00\",\"0.2\",\"\",\"-3.1\",\"\",\"78\",\"\",\"\",\"\",\"27\",\"\",\"4\",\"\",\"32.2\",\"\",\"98.45\",\"\",\"\",\"\",\"\",\"\",\"Mostly
        Cloudy\"\r\n\"-120.44\",\"50.70\",\"KAMLOOPS A\",\"1163780\",\"2012-11-25
        09:00\",\"2012\",\"11\",\"25\",\"09:00\",\"0.6\",\"\",\"-2.9\",\"\",\"77\",\"\",\"\",\"\",\"30\",\"\",\"9\",\"\",\"48.3\",\"\",\"98.52\",\"\",\"\",\"\",\"\",\"\",\"Mostly
        Cloudy\"\r\n\"-120.44\",\"50.70\",\"KAMLOOPS A\",\"1163780\",\"2012-11-25
        10:00\",\"2012\",\"11\",\"25\",\"10:00\",\"1.3\",\"\",\"-3.0\",\"\",\"73\",\"\",\"\",\"\",\"\",\"\",\"0\",\"\",\"48.3\",\"\",\"98.57\",\"\",\"\",\"\",\"\",\"\",\"Mostly
        Cloudy\"\r\n\"-120.44\",\"50.70\",\"KAMLOOPS A\",\"1163780\",\"2012-11-25
        11:00\",\"2012\",\"11\",\"25\",\"11:00\",\"3.1\",\"\",\"-2.3\",\"\",\"68\",\"\",\"\",\"\",\"27\",\"\",\"9\",\"\",\"48.3\",\"\",\"98.57\",\"\",\"\",\"\",\"\",\"\",\"Mostly
        Cloudy\"\r\n\"-120.44\",\"50.70\",\"KAMLOOPS A\",\"1163780\",\"2012-11-25
        12:00\",\"2012\",\"11\",\"25\",\"12:00\",\"3.3\",\"\",\"-2.3\",\"\",\"67\",\"\",\"\",\"\",\"29\",\"\",\"6\",\"\",\"48.3\",\"\",\"98.58\",\"\",\"\",\"\",\"\",\"\",\"Mainly
        Clear\"\r\n\"-120.44\",\"50.70\",\"KAMLOOPS A\",\"1163780\",\"2012-11-25 13:00\",\"2012\",\"11\",\"25\",\"13:00\",\"3.8\",\"\",\"-2.4\",\"\",\"64\",\"\",\"\",\"\",\"19\",\"\",\"6\",\"\",\"48.3\",\"\",\"98.54\",\"\",\"\",\"\",\"\",\"\",\"Mainly
        Clear\"\r\n\"-120.44\",\"50.70\",\"KAMLOOPS A\",\"1163780\",\"2012-11-25 14:00\",\"2012\",\"11\",\"25\",\"14:00\",\"3.9\",\"\",\"-2.2\",\"\",\"64\",\"\",\"\",\"\",\"25\",\"\",\"6\",\"\",\"64.4\",\"\",\"98.56\",\"\",\"\",\"\",\"\",\"\",\"Mainly
        Clear\"\r\n\"-120.44\",\"50.70\",\"KAMLOOPS A\",\"1163780\",\"2012-11-25 15:00\",\"2012\",\"11\",\"25\",\"15:00\",\"3.8\",\"\",\"-1.9\",\"\",\"66\",\"\",\"\",\"\",\"\",\"\",\"0\",\"\",\"64.4\",\"\",\"98.53\",\"\",\"\",\"\",\"\",\"\",\"Mainly
        Clear\"\r\n\"-120.44\",\"50.70\",\"KAMLOOPS A\",\"1163780\",\"2012-11-25 16:00\",\"2012\",\"11\",\"25\",\"16:00\",\"2.5\",\"\",\"-2.2\",\"\",\"71\",\"\",\"\",\"\",\"14\",\"\",\"4\",\"\",\"64.4\",\"\",\"98.54\",\"\",\"\",\"\",\"\",\"\",\"Mainly
        Clear\"\r\n\"-120.44\",\"50.70\",\"KAMLOOPS A\",\"1163780\",\"2012-11-25 17:00\",\"2012\",\"11\",\"25\",\"17:00\",\"0.5\",\"\",\"-3.1\",\"\",\"77\",\"\",\"\",\"\",\"\",\"\",\"0\",\"\",\"64.4\",\"\",\"98.58\",\"\",\"\",\"\",\"\",\"\",\"Mainly
        Clear\"\r\n\"-120.44\",\"50.70\",\"KAMLOOPS A\",\"1163780\",\"2012-11-25 18:00\",\"2012\",\"11\",\"25\",\"18:00\",\"-1.2\",\"\",\"-3.3\",\"\",\"86\",\"\",\"\",\"\",\"36\",\"\",\"6\",\"\",\"64.4\",\"\",\"98.61\",\"\",\"\",\"\",\"-3\",\"\",\"Mainly
        Clear\"\r\n\"-120.44\",\"50.70\",\"KAMLOOPS A\",\"1163780\",\"2012-11-25 19:00\",\"2012\",\"11\",\"25\",\"19:00\",\"-1.3\",\"\",\"-2.9\",\"\",\"89\",\"\",\"\",\"\",\"\",\"\",\"0\",\"\",\"64.4\",\"\",\"98.65\",\"\",\"\",\"\",\"\",\"\",\"Mainly
        Clear\"\r\n\"-120.44\",\"50.70\",\"KAMLOOPS A\",\"1163780\",\"2012-11-25 20:00\",\"2012\",\"11\",\"25\",\"20:00\",\"-1.4\",\"\",\"-3.2\",\"\",\"88\",\"\",\"\",\"\",\"\",\"\",\"0\",\"\",\"64.4\",\"\",\"98.64\",\"\",\"\",\"\",\"\",\"\",\"Clear\"\r\n\"-120.44\",\"50.70\",\"KAMLOOPS
        A\",\"1163780\",\"2012-11-25 21:00\",\"2012\",\"11\",\"25\",\"21:00\",\"-2.1\",\"\",\"-3.8\",\"\",\"88\",\"\",\"\",\"\",\"\",\"\",\"0\",\"\",\"64.4\",\"\",\"98.66\",\"\",\"\",\"\",\"\",\"\",\"Clear\"\r\n\"-120.44\",\"50.70\",\"KAMLOOPS
        A\",\"1163780\",\"2012-11-25 22:00\",\"2012\",\"11\",\"25\",\"22:00\",\"-2.1\",\"\",\"-3.6\",\"\",\"89\",\"\",\"\",\"\",\"\",\"\",\"0\",\"\",\"64.4\",\"\",\"98.69\",\"\",\"\",\"\",\"\",\"\",\"Clear\"\r\n\"-120.44\",\"50.70\",\"KAMLOOPS
        A\",\"1163780\",\"2012-11-25 23:00\",\"2012\",\"11\",\"25\",\"23:00\",\"-3.3\",\"\",\"-4.6\",\"\",\"91\",\"\",\"\",\"\",\"\",\"\",\"0\",\"\",\"64.4\",\"\",\"98.67\",\"\",\"\",\"\",\"\",\"\",\"Mainly
        Clear\"\r\n\"-120.44\",\"50.70\",\"KAMLOOPS A\",\"1163780\",\"2012-11-26 00:00\",\"2012\",\"11\",\"26\",\"00:00\",\"-3.5\",\"\",\"-5.0\",\"\",\"89\",\"\",\"\",\"\",\"\",\"\",\"0\",\"\",\"64.4\",\"\",\"98.70\",\"\",\"\",\"\",\"\",\"\",\"Mostly
        Cloudy\"\r\n\"-120.44\",\"50.70\",\"KAMLOOPS A\",\"1163780\",\"2012-11-26
        01:00\",\"2012\",\"11\",\"26\",\"01:00\",\"-3.4\",\"\",\"-4.4\",\"\",\"93\",\"\",\"\",\"\",\"9\",\"\",\"7\",\"\",\"64.4\",\"\",\"98.68\",\"\",\"\",\"\",\"-6\",\"\",\"Mostly
        Cloudy\"\r\n\"-120.44\",\"50.70\",\"KAMLOOPS A\",\"1163780\",\"2012-11-26
        02:00\",\"2012\",\"11\",\"26\",\"02:00\",\"-4.1\",\"\",\"-5.2\",\"\",\"92\",\"\",\"\",\"\",\"10\",\"\",\"6\",\"\",\"64.4\",\"\",\"98.69\",\"\",\"\",\"\",\"-7\",\"\",\"Mostly
        Cloudy\"\r\n\"-120.44\",\"50.70\",\"KAMLOOPS A\",\"1163780\",\"2012-11-26
        03:00\",\"2012\",\"11\",\"26\",\"03:00\",\"-3.4\",\"\",\"-4.3\",\"\",\"93\",\"\",\"\",\"\",\"8\",\"\",\"4\",\"\",\"64.4\",\"\",\"98.69\",\"\",\"\",\"\",\"-5\",\"\",\"Mostly
        Cloudy\"\r\n\"-120.44\",\"50.70\",\"KAMLOOPS A\",\"1163780\",\"2012-11-26
        04:00\",\"2012\",\"11\",\"26\",\"04:00\",\"-2.8\",\"\",\"-3.8\",\"\",\"93\",\"\",\"\",\"\",\"2\",\"\",\"7\",\"\",\"64.4\",\"\",\"98.63\",\"\",\"\",\"\",\"-6\",\"\",\"Cloudy\"\r\n\"-120.44\",\"50.70\",\"KAMLOOPS
        A\",\"1163780\",\"2012-11-26 05:00\",\"2012\",\"11\",\"26\",\"05:00\",\"-2.2\",\"\",\"-4.4\",\"\",\"85\",\"\",\"\",\"\",\"9\",\"\",\"11\",\"\",\"64.4\",\"\",\"98.63\",\"\",\"\",\"\",\"-6\",\"\",\"Cloudy\"\r\n\"-120.44\",\"50.70\",\"KAMLOOPS
        A\",\"1163780\",\"2012-11-26 06:00\",\"2012\",\"11\",\"26\",\"06:00\",\"-2.5\",\"\",\"-4.1\",\"\",\"89\",\"\",\"\",\"\",\"2\",\"\",\"4\",\"\",\"64.4\",\"\",\"98.61\",\"\",\"\",\"\",\"-4\",\"\",\"Cloudy\"\r\n\"-120.44\",\"50.70\",\"KAMLOOPS
        A\",\"1163780\",\"2012-11-26 07:00\",\"2012\",\"11\",\"26\",\"07:00\",\"-2.2\",\"\",\"-3.8\",\"\",\"89\",\"\",\"\",\"\",\"\",\"\",\"0\",\"\",\"64.4\",\"\",\"98.57\",\"\",\"\",\"\",\"\",\"\",\"Cloudy\"\r\n\"-120.44\",\"50.70\",\"KAMLOOPS
        A\",\"1163780\",\"2012-11-26 08:00\",\"2012\",\"11\",\"26\",\"08:00\",\"-2.0\",\"\",\"-4.0\",\"\",\"86\",\"\",\"\",\"\",\"5\",\"\",\"4\",\"\",\"48.3\",\"\",\"98.53\",\"\",\"\",\"\",\"-3\",\"\",\"Cloudy\"\r\n\"-120.44\",\"50.70\",\"KAMLOOPS
        A\",\"1163780\",\"2012-11-26 09:00\",\"2012\",\"11\",\"26\",\"09:00\",\"-1.5\",\"\",\"-4.2\",\"\",\"82\",\"\",\"\",\"\",\"8\",\"\",\"7\",\"\",\"48.3\",\"\",\"98.52\",\"\",\"\",\"\",\"-4\",\"\",\"Mostly
        Cloudy\"\r\n\"-120.44\",\"50.70\",\"KAMLOOPS A\",\"1163780\",\"2012-11-26
        10:00\",\"2012\",\"11\",\"26\",\"10:00\",\"-1.2\",\"\",\"-4.1\",\"\",\"81\",\"\",\"\",\"\",\"12\",\"\",\"11\",\"\",\"48.3\",\"\",\"98.50\",\"\",\"\",\"\",\"-5\",\"\",\"Mostly
        Cloudy\"\r\n\"-120.44\",\"50.70\",\"KAMLOOPS A\",\"1163780\",\"2012-11-26
        11:00\",\"2012\",\"11\",\"26\",\"11:00\",\"-0.5\",\"\",\"-3.4\",\"\",\"81\",\"\",\"\",\"\",\"9\",\"\",\"11\",\"\",\"48.3\",\"\",\"98.45\",\"\",\"\",\"\",\"-4\",\"\",\"Mostly
        Cloudy\"\r\n\"-120.44\",\"50.70\",\"KAMLOOPS A\",\"1163780\",\"2012-11-26
        12:00\",\"2012\",\"11\",\"26\",\"12:00\",\"0.6\",\"\",\"-3.9\",\"\",\"72\",\"\",\"\",\"\",\"10\",\"\",\"9\",\"\",\"48.3\",\"\",\"98.38\",\"\",\"\",\"\",\"\",\"\",\"Mainly
        Clear\"\r\n\"-120.44\",\"50.70\",\"KAMLOOPS A\",\"1163780\",\"2012-11-26 13:00\",\"2012\",\"11\",\"26\",\"13:00\",\"1.6\",\"\",\"-2.7\",\"\",\"73\",\"\",\"\",\"\",\"10\",\"\",\"11\",\"\",\"48.3\",\"\",\"98.33\",\"\",\"\",\"\",\"\",\"\",\"Mainly
        Clear\"\r\n\"-120.44\",\"50.70\",\"KAMLOOPS A\",\"1163780\",\"2012-11-26 14:00\",\"2012\",\"11\",\"26\",\"14:00\",\"2.2\",\"\",\"-2.7\",\"\",\"70\",\"\",\"\",\"\",\"10\",\"\",\"11\",\"\",\"48.3\",\"\",\"98.25\",\"\",\"\",\"\",\"\",\"\",\"Mainly
        Clear\"\r\n\"-120.44\",\"50.70\",\"KAMLOOPS A\",\"1163780\",\"2012-11-26 15:00\",\"2012\",\"11\",\"26\",\"15:00\",\"2.0\",\"\",\"-2.7\",\"\",\"71\",\"\",\"\",\"\",\"13\",\"\",\"7\",\"\",\"48.3\",\"\",\"98.23\",\"\",\"\",\"\",\"\",\"\",\"Mainly
        Clear\"\r\n\"-120.44\",\"50.70\",\"KAMLOOPS A\",\"1163780\",\"2012-11-26 16:00\",\"2012\",\"11\",\"26\",\"16:00\",\"0.2\",\"\",\"-3.2\",\"\",\"78\",\"\",\"\",\"\",\"3\",\"\",\"4\",\"\",\"48.3\",\"\",\"98.23\",\"\",\"\",\"\",\"\",\"\",\"Mainly
        Clear\"\r\n\"-120.44\",\"50.70\",\"KAMLOOPS A\",\"1163780\",\"2012-11-26 17:00\",\"2012\",\"11\",\"26\",\"17:00\",\"-1.0\",\"\",\"-3.6\",\"\",\"82\",\"\",\"\",\"\",\"\",\"\",\"0\",\"\",\"48.3\",\"\",\"98.21\",\"\",\"\",\"\",\"\",\"\",\"Mainly
        Clear\"\r\n\"-120.44\",\"50.70\",\"KAMLOOPS A\",\"1163780\",\"2012-11-26 18:00\",\"2012\",\"11\",\"26\",\"18:00\",\"-1.1\",\"\",\"-3.4\",\"\",\"84\",\"\",\"\",\"\",\"30\",\"\",\"4\",\"\",\"48.3\",\"\",\"98.21\",\"\",\"\",\"\",\"-2\",\"\",\"Mainly
        Clear\"\r\n\"-120.44\",\"50.70\",\"KAMLOOPS A\",\"1163780\",\"2012-11-26 19:00\",\"2012\",\"11\",\"26\",\"19:00\",\"-2.6\",\"\",\"-4.4\",\"\",\"87\",\"\",\"\",\"\",\"8\",\"\",\"4\",\"\",\"48.3\",\"\",\"98.22\",\"\",\"\",\"\",\"-4\",\"\",\"Mostly
        Cloudy\"\r\n\"-120.44\",\"50.70\",\"KAMLOOPS A\",\"1163780\",\"2012-11-26
        20:00\",\"2012\",\"11\",\"26\",\"20:00\",\"-2.6\",\"\",\"-4.4\",\"\",\"87\",\"\",\"\",\"\",\"10\",\"\",\"6\",\"\",\"48.3\",\"\",\"98.23\",\"\",\"\",\"\",\"-5\",\"\",\"Mostly
        Cloudy\"\r\n\"-120.44\",\"50.70\",\"KAMLOOPS A\",\"1163780\",\"2012-11-26
        21:00\",\"2012\",\"11\",\"26\",\"21:00\",\"-1.1\",\"\",\"-3.3\",\"\",\"85\",\"\",\"\",\"\",\"9\",\"\",\"13\",\"\",\"48.3\",\"\",\"98.24\",\"\",\"\",\"\",\"-5\",\"\",\"Mostly
        Cloudy\"\r\n\"-120.44\",\"50.70\",\"KAMLOOPS A\",\"1163780\",\"2012-11-26
        22:00\",\"2012\",\"11\",\"26\",\"22:00\",\"-0.4\",\"\",\"-3.3\",\"\",\"81\",\"\",\"\",\"\",\"11\",\"\",\"11\",\"\",\"48.3\",\"\",\"98.24\",\"\",\"\",\"\",\"-4\",\"\",\"Cloudy\"\r\n\"-120.44\",\"50.70\",\"KAMLOOPS
        A\",\"1163780\",\"2012-11-26 23:00\",\"2012\",\"11\",\"26\",\"23:00\",\"-0.6\",\"\",\"-3.2\",\"\",\"83\",\"\",\"\",\"\",\"12\",\"\",\"11\",\"\",\"48.3\",\"\",\"98.25\",\"\",\"\",\"\",\"-4\",\"\",\"Cloudy\"\r\n\"-120.44\",\"50.70\",\"KAMLOOPS
        A\",\"1163780\",\"2012-11-27 00:00\",\"2012\",\"11\",\"27\",\"00:00\",\"-0.7\",\"\",\"-3.8\",\"\",\"79\",\"\",\"\",\"\",\"10\",\"\",\"11\",\"\",\"48.3\",\"\",\"98.24\",\"\",\"\",\"\",\"-4\",\"\",\"Cloudy\"\r\n\"-120.44\",\"50.70\",\"KAMLOOPS
        A\",\"1163780\",\"2012-11-27 01:00\",\"2012\",\"11\",\"27\",\"01:00\",\"-1.2\",\"\",\"-4.2\",\"\",\"80\",\"\",\"\",\"\",\"10\",\"\",\"15\",\"\",\"48.3\",\"\",\"98.25\",\"\",\"\",\"\",\"-6\",\"\",\"Cloudy\"\r\n\"-120.44\",\"50.70\",\"KAMLOOPS
        A\",\"1163780\",\"2012-11-27 02:00\",\"2012\",\"11\",\"27\",\"02:00\",\"-0.8\",\"\",\"-3.8\",\"\",\"80\",\"\",\"\",\"\",\"11\",\"\",\"13\",\"\",\"48.3\",\"\",\"98.26\",\"\",\"\",\"\",\"-5\",\"\",\"Cloudy\"\r\n\"-120.44\",\"50.70\",\"KAMLOOPS
        A\",\"1163780\",\"2012-11-27 03:00\",\"2012\",\"11\",\"27\",\"03:00\",\"-1.0\",\"\",\"-3.9\",\"\",\"81\",\"\",\"\",\"\",\"11\",\"\",\"15\",\"\",\"48.3\",\"\",\"98.23\",\"\",\"\",\"\",\"-6\",\"\",\"Cloudy\"\r\n\"-120.44\",\"50.70\",\"KAMLOOPS
        A\",\"1163780\",\"2012-11-27 04:00\",\"2012\",\"11\",\"27\",\"04:00\",\"-0.7\",\"\",\"-4.0\",\"\",\"78\",\"\",\"\",\"\",\"12\",\"\",\"17\",\"\",\"48.3\",\"\",\"98.20\",\"\",\"\",\"\",\"-6\",\"\",\"Cloudy\"\r\n\"-120.44\",\"50.70\",\"KAMLOOPS
        A\",\"1163780\",\"2012-11-27 05:00\",\"2012\",\"11\",\"27\",\"05:00\",\"-0.9\",\"\",\"-3.7\",\"\",\"81\",\"\",\"\",\"\",\"11\",\"\",\"17\",\"\",\"64.4\",\"\",\"98.20\",\"\",\"\",\"\",\"-6\",\"\",\"Cloudy\"\r\n\"-120.44\",\"50.70\",\"KAMLOOPS
        A\",\"1163780\",\"2012-11-27 06:00\",\"2012\",\"11\",\"27\",\"06:00\",\"-0.8\",\"\",\"-3.6\",\"\",\"81\",\"\",\"\",\"\",\"11\",\"\",\"15\",\"\",\"64.4\",\"\",\"98.21\",\"\",\"\",\"\",\"-5\",\"\",\"Mostly
        Cloudy\"\r\n\"-120.44\",\"50.70\",\"KAMLOOPS A\",\"1163780\",\"2012-11-27
        07:00\",\"2012\",\"11\",\"27\",\"07:00\",\"-0.9\",\"\",\"-3.5\",\"\",\"82\",\"\",\"\",\"\",\"11\",\"\",\"15\",\"\",\"64.4\",\"\",\"98.18\",\"\",\"\",\"\",\"-6\",\"\",\"Mostly
        Cloudy\"\r\n\"-120.44\",\"50.70\",\"KAMLOOPS A\",\"1163780\",\"2012-11-27
        08:00\",\"2012\",\"11\",\"27\",\"08:00\",\"-1.0\",\"\",\"-3.8\",\"\",\"81\",\"\",\"\",\"\",\"9\",\"\",\"11\",\"\",\"64.4\",\"\",\"98.18\",\"\",\"\",\"\",\"-5\",\"\",\"Mostly
        Cloudy\"\r\n\"-120.44\",\"50.70\",\"KAMLOOPS A\",\"1163780\",\"2012-11-27
        09:00\",\"2012\",\"11\",\"27\",\"09:00\",\"-0.5\",\"\",\"-3.3\",\"\",\"81\",\"\",\"\",\"\",\"10\",\"\",\"15\",\"\",\"64.4\",\"\",\"98.17\",\"\",\"\",\"\",\"-5\",\"\",\"Mostly
        Cloudy\"\r\n\"-120.44\",\"50.70\",\"KAMLOOPS A\",\"1163780\",\"2012-11-27
        10:00\",\"2012\",\"11\",\"27\",\"10:00\",\"0.6\",\"\",\"-3.2\",\"\",\"76\",\"\",\"\",\"\",\"9\",\"\",\"15\",\"\",\"64.4\",\"\",\"98.15\",\"\",\"\",\"\",\"\",\"\",\"Mostly
        Cloudy\"\r\n\"-120.44\",\"50.70\",\"KAMLOOPS A\",\"1163780\",\"2012-11-27
        11:00\",\"2012\",\"11\",\"27\",\"11:00\",\"1.5\",\"\",\"-2.7\",\"\",\"74\",\"\",\"\",\"\",\"9\",\"\",\"15\",\"\",\"64.4\",\"\",\"98.11\",\"\",\"\",\"\",\"\",\"\",\"Mostly
        Cloudy\"\r\n\"-120.44\",\"50.70\",\"KAMLOOPS A\",\"1163780\",\"2012-11-27
        12:00\",\"2012\",\"11\",\"27\",\"12:00\",\"2.0\",\"\",\"-3.0\",\"\",\"69\",\"\",\"\",\"\",\"10\",\"\",\"20\",\"\",\"64.4\",\"\",\"98.03\",\"\",\"\",\"\",\"\",\"\",\"Mostly
        Cloudy\"\r\n\"-120.44\",\"50.70\",\"KAMLOOPS A\",\"1163780\",\"2012-11-27
        13:00\",\"2012\",\"11\",\"27\",\"13:00\",\"3.1\",\"\",\"-2.8\",\"\",\"65\",\"\",\"\",\"\",\"8\",\"\",\"20\",\"\",\"64.4\",\"\",\"97.96\",\"\",\"\",\"\",\"\",\"\",\"Mostly
        Cloudy\"\r\n\"-120.44\",\"50.70\",\"KAMLOOPS A\",\"1163780\",\"2012-11-27
        14:00\",\"2012\",\"11\",\"27\",\"14:00\",\"3.1\",\"\",\"-3.0\",\"\",\"64\",\"\",\"\",\"\",\"11\",\"\",\"15\",\"\",\"64.4\",\"\",\"97.90\",\"\",\"\",\"\",\"\",\"\",\"Cloudy\"\r\n\"-120.44\",\"50.70\",\"KAMLOOPS
        A\",\"1163780\",\"2012-11-27 15:00\",\"2012\",\"11\",\"27\",\"15:00\",\"2.7\",\"\",\"-2.7\",\"\",\"68\",\"\",\"\",\"\",\"12\",\"\",\"13\",\"\",\"64.4\",\"\",\"97.88\",\"\",\"\",\"\",\"\",\"\",\"Cloudy\"\r\n\"-120.44\",\"50.70\",\"KAMLOOPS
        A\",\"1163780\",\"2012-11-27 16:00\",\"2012\",\"11\",\"27\",\"16:00\",\"2.5\",\"\",\"-2.4\",\"\",\"70\",\"\",\"\",\"\",\"11\",\"\",\"13\",\"\",\"64.4\",\"\",\"97.88\",\"\",\"\",\"\",\"\",\"\",\"Cloudy\"\r\n\"-120.44\",\"50.70\",\"KAMLOOPS
        A\",\"1163780\",\"2012-11-27 17:00\",\"2012\",\"11\",\"27\",\"17:00\",\"1.9\",\"\",\"-2.7\",\"\",\"72\",\"\",\"\",\"\",\"11\",\"\",\"15\",\"\",\"64.4\",\"\",\"97.85\",\"\",\"\",\"\",\"\",\"\",\"Cloudy\"\r\n\"-120.44\",\"50.70\",\"KAMLOOPS
        A\",\"1163780\",\"2012-11-27 18:00\",\"2012\",\"11\",\"27\",\"18:00\",\"1.4\",\"\",\"-2.6\",\"\",\"75\",\"\",\"\",\"\",\"10\",\"\",\"19\",\"\",\"64.4\",\"\",\"97.82\",\"\",\"\",\"\",\"\",\"\",\"Mostly
        Cloudy\"\r\n\"-120.44\",\"50.70\",\"KAMLOOPS A\",\"1163780\",\"2012-11-27
        19:00\",\"2012\",\"11\",\"27\",\"19:00\",\"1.2\",\"\",\"-2.3\",\"\",\"77\",\"\",\"\",\"\",\"11\",\"\",\"17\",\"\",\"64.4\",\"\",\"97.79\",\"\",\"\",\"\",\"\",\"\",\"Mostly
        Cloudy\"\r\n\"-120.44\",\"50.70\",\"KAMLOOPS A\",\"1163780\",\"2012-11-27
        20:00\",\"2012\",\"11\",\"27\",\"20:00\",\"1.8\",\"\",\"-2.1\",\"\",\"75\",\"\",\"\",\"\",\"12\",\"\",\"17\",\"\",\"64.4\",\"\",\"97.78\",\"\",\"\",\"\",\"\",\"\",\"Mostly
        Cloudy\"\r\n\"-120.44\",\"50.70\",\"KAMLOOPS A\",\"1163780\",\"2012-11-27
        21:00\",\"2012\",\"11\",\"27\",\"21:00\",\"1.4\",\"\",\"-2.3\",\"\",\"76\",\"\",\"\",\"\",\"11\",\"\",\"15\",\"\",\"64.4\",\"\",\"97.74\",\"\",\"\",\"\",\"\",\"\",\"Cloudy\"\r\n\"-120.44\",\"50.70\",\"KAMLOOPS
        A\",\"1163780\",\"2012-11-27 22:00\",\"2012\",\"11\",\"27\",\"22:00\",\"1.3\",\"\",\"-2.6\",\"\",\"75\",\"\",\"\",\"\",\"11\",\"\",\"15\",\"\",\"64.4\",\"\",\"97.75\",\"\",\"\",\"\",\"\",\"\",\"Cloudy\"\r\n\"-120.44\",\"50.70\",\"KAMLOOPS
        A\",\"1163780\",\"2012-11-27 23:00\",\"2012\",\"11\",\"27\",\"23:00\",\"1.3\",\"\",\"-2.8\",\"\",\"74\",\"\",\"\",\"\",\"11\",\"\",\"17\",\"\",\"64.4\",\"\",\"97.72\",\"\",\"\",\"\",\"\",\"\",\"Mostly
        Cloudy\"\r\n\"-120.44\",\"50.70\",\"KAMLOOPS A\",\"1163780\",\"2012-11-28
        00:00\",\"2012\",\"11\",\"28\",\"00:00\",\"1.2\",\"\",\"-2.7\",\"\",\"75\",\"\",\"\",\"\",\"11\",\"\",\"19\",\"\",\"64.4\",\"\",\"97.69\",\"\",\"\",\"\",\"\",\"\",\"Mostly
        Cloudy\"\r\n\"-120.44\",\"50.70\",\"KAMLOOPS A\",\"1163780\",\"2012-11-28
        01:00\",\"2012\",\"11\",\"28\",\"01:00\",\"1.2\",\"\",\"-3.2\",\"\",\"72\",\"\",\"\",\"\",\"11\",\"\",\"17\",\"\",\"64.4\",\"\",\"97.66\",\"\",\"\",\"\",\"\",\"\",\"Mostly
        Cloudy\"\r\n\"-120.44\",\"50.70\",\"KAMLOOPS A\",\"1163780\",\"2012-11-28
        02:00\",\"2012\",\"11\",\"28\",\"02:00\",\"0.7\",\"\",\"-3.1\",\"\",\"76\",\"\",\"\",\"\",\"11\",\"\",\"19\",\"\",\"64.4\",\"\",\"97.64\",\"\",\"\",\"\",\"\",\"\",\"Mostly
        Cloudy\"\r\n\"-120.44\",\"50.70\",\"KAMLOOPS A\",\"1163780\",\"2012-11-28
        03:00\",\"2012\",\"11\",\"28\",\"03:00\",\"0.8\",\"\",\"-3.0\",\"\",\"76\",\"\",\"\",\"\",\"10\",\"\",\"20\",\"\",\"64.4\",\"\",\"97.61\",\"\",\"\",\"\",\"\",\"\",\"Mostly
        Cloudy\"\r\n\"-120.44\",\"50.70\",\"KAMLOOPS A\",\"1163780\",\"2012-11-28
        04:00\",\"2012\",\"11\",\"28\",\"04:00\",\"0.1\",\"\",\"-2.9\",\"\",\"80\",\"\",\"\",\"\",\"9\",\"\",\"17\",\"\",\"64.4\",\"\",\"97.57\",\"\",\"\",\"\",\"\",\"\",\"Mostly
        Cloudy\"\r\n\"-120.44\",\"50.70\",\"KAMLOOPS A\",\"1163780\",\"2012-11-28
        05:00\",\"2012\",\"11\",\"28\",\"05:00\",\"0.9\",\"\",\"-3.1\",\"\",\"75\",\"\",\"\",\"\",\"11\",\"\",\"15\",\"\",\"64.4\",\"\",\"97.53\",\"\",\"\",\"\",\"\",\"\",\"Mostly
        Cloudy\"\r\n\"-120.44\",\"50.70\",\"KAMLOOPS A\",\"1163780\",\"2012-11-28
        06:00\",\"2012\",\"11\",\"28\",\"06:00\",\"0.7\",\"\",\"-3.0\",\"\",\"76\",\"\",\"\",\"\",\"10\",\"\",\"17\",\"\",\"64.4\",\"\",\"97.48\",\"\",\"\",\"\",\"\",\"\",\"Cloudy\"\r\n\"-120.44\",\"50.70\",\"KAMLOOPS
        A\",\"1163780\",\"2012-11-28 07:00\",\"2012\",\"11\",\"28\",\"07:00\",\"0.3\",\"\",\"-3.3\",\"\",\"77\",\"\",\"\",\"\",\"11\",\"\",\"17\",\"\",\"64.4\",\"\",\"97.44\",\"\",\"\",\"\",\"\",\"\",\"Mostly
        Cloudy\"\r\n\"-120.44\",\"50.70\",\"KAMLOOPS A\",\"1163780\",\"2012-11-28
        08:00\",\"2012\",\"11\",\"28\",\"08:00\",\"0.3\",\"\",\"-3.0\",\"\",\"78\",\"\",\"\",\"\",\"10\",\"\",\"19\",\"\",\"64.4\",\"\",\"97.42\",\"\",\"\",\"\",\"\",\"\",\"Mostly
        Cloudy\"\r\n\"-120.44\",\"50.70\",\"KAMLOOPS A\",\"1163780\",\"2012-11-28
        09:00\",\"2012\",\"11\",\"28\",\"09:00\",\"0.5\",\"\",\"-2.8\",\"\",\"78\",\"\",\"\",\"\",\"10\",\"\",\"11\",\"\",\"64.4\",\"\",\"97.39\",\"\",\"\",\"\",\"\",\"\",\"Mostly
        Cloudy\"\r\n\"-120.44\",\"50.70\",\"KAMLOOPS A\",\"1163780\",\"2012-11-28
        10:00\",\"2012\",\"11\",\"28\",\"10:00\",\"1.2\",\"\",\"-2.6\",\"\",\"76\",\"\",\"\",\"\",\"10\",\"\",\"19\",\"\",\"64.4\",\"\",\"97.31\",\"\",\"\",\"\",\"\",\"\",\"Mostly
        Cloudy\"\r\n\"-120.44\",\"50.70\",\"KAMLOOPS A\",\"1163780\",\"2012-11-28
        11:00\",\"2012\",\"11\",\"28\",\"11:00\",\"1.9\",\"\",\"-2.6\",\"\",\"72\",\"\",\"\",\"\",\"9\",\"\",\"20\",\"\",\"64.4\",\"\",\"97.23\",\"\",\"\",\"\",\"\",\"\",\"Mostly
        Cloudy\"\r\n\"-120.44\",\"50.70\",\"KAMLOOPS A\",\"1163780\",\"2012-11-28
        12:00\",\"2012\",\"11\",\"28\",\"12:00\",\"2.1\",\"\",\"-2.3\",\"\",\"73\",\"\",\"\",\"\",\"10\",\"\",\"15\",\"\",\"64.4\",\"\",\"97.11\",\"\",\"\",\"\",\"\",\"\",\"Mostly
        Cloudy\"\r\n\"-120.44\",\"50.70\",\"KAMLOOPS A\",\"1163780\",\"2012-11-28
        13:00\",\"2012\",\"11\",\"28\",\"13:00\",\"3.1\",\"\",\"-2.3\",\"\",\"68\",\"\",\"\",\"\",\"7\",\"\",\"11\",\"\",\"64.4\",\"\",\"96.97\",\"\",\"\",\"\",\"\",\"\",\"Mostly
        Cloudy\"\r\n\"-120.44\",\"50.70\",\"KAMLOOPS A\",\"1163780\",\"2012-11-28
        14:00\",\"2012\",\"11\",\"28\",\"14:00\",\"2.4\",\"\",\"-1.8\",\"\",\"74\",\"\",\"\",\"\",\"9\",\"\",\"11\",\"\",\"64.4\",\"\",\"96.88\",\"\",\"\",\"\",\"\",\"\",\"Cloudy\"\r\n\"-120.44\",\"50.70\",\"KAMLOOPS
        A\",\"1163780\",\"2012-11-28 15:00\",\"2012\",\"11\",\"28\",\"15:00\",\"2.9\",\"\",\"-1.6\",\"\",\"72\",\"\",\"\",\"\",\"9\",\"\",\"9\",\"\",\"64.4\",\"\",\"96.77\",\"\",\"\",\"\",\"\",\"\",\"Cloudy\"\r\n\"-120.44\",\"50.70\",\"KAMLOOPS
        A\",\"1163780\",\"2012-11-28 16:00\",\"2012\",\"11\",\"28\",\"16:00\",\"3.4\",\"\",\"-2.0\",\"\",\"68\",\"\",\"\",\"\",\"13\",\"\",\"7\",\"\",\"64.4\",\"\",\"96.72\",\"\",\"\",\"\",\"\",\"\",\"Cloudy\"\r\n\"-120.44\",\"50.70\",\"KAMLOOPS
        A\",\"1163780\",\"2012-11-28 17:00\",\"2012\",\"11\",\"28\",\"17:00\",\"3.3\",\"\",\"-1.8\",\"\",\"69\",\"\",\"\",\"\",\"12\",\"\",\"13\",\"\",\"64.4\",\"\",\"96.65\",\"\",\"\",\"\",\"\",\"\",\"Cloudy\"\r\n\"-120.44\",\"50.70\",\"KAMLOOPS
        A\",\"1163780\",\"2012-11-28 18:00\",\"2012\",\"11\",\"28\",\"18:00\",\"2.5\",\"\",\"-1.6\",\"\",\"74\",\"\",\"\",\"\",\"11\",\"\",\"17\",\"\",\"64.4\",\"\",\"96.58\",\"\",\"\",\"\",\"\",\"\",\"Cloudy\"\r\n\"-120.44\",\"50.70\",\"KAMLOOPS
        A\",\"1163780\",\"2012-11-28 19:00\",\"2012\",\"11\",\"28\",\"19:00\",\"2.5\",\"\",\"-1.9\",\"\",\"73\",\"\",\"\",\"\",\"10\",\"\",\"20\",\"\",\"64.4\",\"\",\"96.56\",\"\",\"\",\"\",\"\",\"\",\"Cloudy\"\r\n\"-120.44\",\"50.70\",\"KAMLOOPS
        A\",\"1163780\",\"2012-11-28 20:00\",\"2012\",\"11\",\"28\",\"20:00\",\"3.1\",\"\",\"-0.9\",\"\",\"75\",\"\",\"\",\"\",\"11\",\"\",\"19\",\"\",\"64.4\",\"\",\"96.56\",\"\",\"\",\"\",\"\",\"\",\"Cloudy\"\r\n\"-120.44\",\"50.70\",\"KAMLOOPS
        A\",\"1163780\",\"2012-11-28 21:00\",\"2012\",\"11\",\"28\",\"21:00\",\"2.6\",\"\",\"-0.8\",\"\",\"78\",\"\",\"\",\"\",\"11\",\"\",\"22\",\"\",\"64.4\",\"\",\"96.53\",\"\",\"\",\"\",\"\",\"\",\"Cloudy\"\r\n\"-120.44\",\"50.70\",\"KAMLOOPS
        A\",\"1163780\",\"2012-11-28 22:00\",\"2012\",\"11\",\"28\",\"22:00\",\"2.6\",\"\",\"-0.5\",\"\",\"80\",\"\",\"\",\"\",\"11\",\"\",\"24\",\"\",\"64.4\",\"\",\"96.53\",\"\",\"\",\"\",\"\",\"\",\"Cloudy\"\r\n\"-120.44\",\"50.70\",\"KAMLOOPS
        A\",\"1163780\",\"2012-11-28 23:00\",\"2012\",\"11\",\"28\",\"23:00\",\"2.5\",\"\",\"0.4\",\"\",\"86\",\"\",\"\",\"\",\"11\",\"\",\"22\",\"\",\"64.4\",\"\",\"96.58\",\"\",\"\",\"\",\"\",\"\",\"Mainly
        Clear\"\r\n\"-120.44\",\"50.70\",\"KAMLOOPS A\",\"1163780\",\"2012-11-29 00:00\",\"2012\",\"11\",\"29\",\"00:00\",\"2.5\",\"\",\"0.4\",\"\",\"86\",\"\",\"\",\"\",\"11\",\"\",\"22\",\"\",\"64.4\",\"\",\"96.57\",\"\",\"\",\"\",\"\",\"\",\"Mainly
        Clear\"\r\n\"-120.44\",\"50.70\",\"KAMLOOPS A\",\"1163780\",\"2012-11-29 01:00\",\"2012\",\"11\",\"29\",\"01:00\",\"3.1\",\"\",\"0.4\",\"\",\"82\",\"\",\"\",\"\",\"10\",\"\",\"28\",\"\",\"64.4\",\"\",\"96.58\",\"\",\"\",\"\",\"\",\"\",\"Mostly
        Cloudy\"\r\n\"-120.44\",\"50.70\",\"KAMLOOPS A\",\"1163780\",\"2012-11-29
        02:00\",\"2012\",\"11\",\"29\",\"02:00\",\"3.6\",\"\",\"1.1\",\"\",\"84\",\"\",\"\",\"\",\"11\",\"\",\"28\",\"\",\"64.4\",\"\",\"96.59\",\"\",\"\",\"\",\"\",\"\",\"Mostly
        Cloudy\"\r\n\"-120.44\",\"50.70\",\"KAMLOOPS A\",\"1163780\",\"2012-11-29
        03:00\",\"2012\",\"11\",\"29\",\"03:00\",\"3.3\",\"\",\"0.9\",\"\",\"84\",\"\",\"\",\"\",\"11\",\"\",\"26\",\"\",\"64.4\",\"\",\"96.62\",\"\",\"\",\"\",\"\",\"\",\"Mostly
        Cloudy\"\r\n\"-120.44\",\"50.70\",\"KAMLOOPS A\",\"1163780\",\"2012-11-29
        04:00\",\"2012\",\"11\",\"29\",\"04:00\",\"3.6\",\"\",\"0.8\",\"\",\"82\",\"\",\"\",\"\",\"11\",\"\",\"22\",\"\",\"64.4\",\"\",\"96.59\",\"\",\"\",\"\",\"\",\"\",\"Mostly
        Cloudy\"\r\n\"-120.44\",\"50.70\",\"KAMLOOPS A\",\"1163780\",\"2012-11-29
        05:00\",\"2012\",\"11\",\"29\",\"05:00\",\"3.5\",\"\",\"0.9\",\"\",\"83\",\"\",\"\",\"\",\"11\",\"\",\"17\",\"\",\"64.4\",\"\",\"96.56\",\"\",\"\",\"\",\"\",\"\",\"Mostly
        Cloudy\"\r\n\"-120.44\",\"50.70\",\"KAMLOOPS A\",\"1163780\",\"2012-11-29
        06:00\",\"2012\",\"11\",\"29\",\"06:00\",\"3.9\",\"\",\"1.2\",\"\",\"83\",\"\",\"\",\"\",\"11\",\"\",\"28\",\"\",\"64.4\",\"\",\"96.58\",\"\",\"\",\"\",\"\",\"\",\"Mostly
        Cloudy\"\r\n\"-120.44\",\"50.70\",\"KAMLOOPS A\",\"1163780\",\"2012-11-29
        07:00\",\"2012\",\"11\",\"29\",\"07:00\",\"3.4\",\"\",\"0.9\",\"\",\"84\",\"\",\"\",\"\",\"11\",\"\",\"22\",\"\",\"64.4\",\"\",\"96.52\",\"\",\"\",\"\",\"\",\"\",\"Mostly
        Cloudy\"\r\n\"-120.44\",\"50.70\",\"KAMLOOPS A\",\"1163780\",\"2012-11-29
        08:00\",\"2012\",\"11\",\"29\",\"08:00\",\"3.7\",\"\",\"1.1\",\"\",\"83\",\"\",\"\",\"\",\"11\",\"\",\"22\",\"\",\"64.4\",\"\",\"96.47\",\"\",\"\",\"\",\"\",\"\",\"Cloudy\"\r\n\"-120.44\",\"50.70\",\"KAMLOOPS
        A\",\"1163780\",\"2012-11-29 09:00\",\"2012\",\"11\",\"29\",\"09:00\",\"4.1\",\"\",\"1.5\",\"\",\"83\",\"\",\"\",\"\",\"11\",\"\",\"17\",\"\",\"64.4\",\"\",\"96.41\",\"\",\"\",\"\",\"\",\"\",\"Cloudy\"\r\n\"-120.44\",\"50.70\",\"KAMLOOPS
        A\",\"1163780\",\"2012-11-29 10:00\",\"2012\",\"11\",\"29\",\"10:00\",\"3.8\",\"\",\"1.2\",\"\",\"83\",\"\",\"\",\"\",\"10\",\"\",\"19\",\"\",\"64.4\",\"\",\"96.33\",\"\",\"\",\"\",\"\",\"\",\"Cloudy\"\r\n\"-120.44\",\"50.70\",\"KAMLOOPS
        A\",\"1163780\",\"2012-11-29 11:00\",\"2012\",\"11\",\"29\",\"11:00\",\"4.0\",\"\",\"1.0\",\"\",\"81\",\"\",\"\",\"\",\"10\",\"\",\"19\",\"\",\"64.4\",\"\",\"96.30\",\"\",\"\",\"\",\"\",\"\",\"Cloudy\"\r\n\"-120.44\",\"50.70\",\"KAMLOOPS
        A\",\"1163780\",\"2012-11-29 12:00\",\"2012\",\"11\",\"29\",\"12:00\",\"4.6\",\"\",\"2.0\",\"\",\"83\",\"\",\"\",\"\",\"11\",\"\",\"20\",\"\",\"48.3\",\"\",\"96.24\",\"\",\"\",\"\",\"\",\"\",\"Rain
        Showers\"\r\n\"-120.44\",\"50.70\",\"KAMLOOPS A\",\"1163780\",\"2012-11-29
        13:00\",\"2012\",\"11\",\"29\",\"13:00\",\"5.9\",\"\",\"3.3\",\"\",\"83\",\"\",\"\",\"\",\"11\",\"\",\"15\",\"\",\"64.4\",\"\",\"96.13\",\"\",\"\",\"\",\"\",\"\",\"Mostly
        Cloudy\"\r\n\"-120.44\",\"50.70\",\"KAMLOOPS A\",\"1163780\",\"2012-11-29
        14:00\",\"2012\",\"11\",\"29\",\"14:00\",\"7.0\",\"\",\"3.8\",\"\",\"80\",\"\",\"\",\"\",\"11\",\"\",\"19\",\"\",\"64.4\",\"\",\"96.09\",\"\",\"\",\"\",\"\",\"\",\"Mostly
        Cloudy\"\r\n\"-120.44\",\"50.70\",\"KAMLOOPS A\",\"1163780\",\"2012-11-29
        15:00\",\"2012\",\"11\",\"29\",\"15:00\",\"6.9\",\"\",\"3.0\",\"\",\"76\",\"\",\"\",\"\",\"11\",\"\",\"17\",\"\",\"64.4\",\"\",\"96.07\",\"\",\"\",\"\",\"\",\"\",\"Mostly
        Cloudy\"\r\n\"-120.44\",\"50.70\",\"KAMLOOPS A\",\"1163780\",\"2012-11-29
        16:00\",\"2012\",\"11\",\"29\",\"16:00\",\"6.6\",\"\",\"3.1\",\"\",\"78\",\"\",\"\",\"\",\"12\",\"\",\"17\",\"\",\"64.4\",\"\",\"96.08\",\"\",\"\",\"\",\"\",\"\",\"Mostly
        Cloudy\"\r\n\"-120.44\",\"50.70\",\"KAMLOOPS A\",\"1163780\",\"2012-11-29
        17:00\",\"2012\",\"11\",\"29\",\"17:00\",\"6.2\",\"\",\"2.7\",\"\",\"78\",\"\",\"\",\"\",\"11\",\"\",\"15\",\"\",\"64.4\",\"\",\"96.14\",\"\",\"\",\"\",\"\",\"\",\"Mostly
        Cloudy\"\r\n\"-120.44\",\"50.70\",\"KAMLOOPS A\",\"1163780\",\"2012-11-29
        18:00\",\"2012\",\"11\",\"29\",\"18:00\",\"5.6\",\"\",\"2.7\",\"\",\"82\",\"\",\"\",\"\",\"11\",\"\",\"19\",\"\",\"64.4\",\"\",\"96.15\",\"\",\"\",\"\",\"\",\"\",\"Mostly
        Cloudy\"\r\n\"-120.44\",\"50.70\",\"KAMLOOPS A\",\"1163780\",\"2012-11-29
        19:00\",\"2012\",\"11\",\"29\",\"19:00\",\"5.4\",\"\",\"2.3\",\"\",\"80\",\"\",\"\",\"\",\"10\",\"\",\"22\",\"\",\"64.4\",\"\",\"96.14\",\"\",\"\",\"\",\"\",\"\",\"Mostly
        Cloudy\"\r\n\"-120.44\",\"50.70\",\"KAMLOOPS A\",\"1163780\",\"2012-11-29
        20:00\",\"2012\",\"11\",\"29\",\"20:00\",\"5.4\",\"\",\"2.7\",\"\",\"83\",\"\",\"\",\"\",\"9\",\"\",\"17\",\"\",\"64.4\",\"\",\"96.14\",\"\",\"\",\"\",\"\",\"\",\"Mostly
        Cloudy\"\r\n\"-120.44\",\"50.70\",\"KAMLOOPS A\",\"1163780\",\"2012-11-29
        21:00\",\"2012\",\"11\",\"29\",\"21:00\",\"5.5\",\"\",\"2.8\",\"\",\"83\",\"\",\"\",\"\",\"11\",\"\",\"22\",\"\",\"64.4\",\"\",\"96.14\",\"\",\"\",\"\",\"\",\"\",\"Cloudy\"\r\n\"-120.44\",\"50.70\",\"KAMLOOPS
        A\",\"1163780\",\"2012-11-29 22:00\",\"2012\",\"11\",\"29\",\"22:00\",\"5.2\",\"\",\"3.1\",\"\",\"86\",\"\",\"\",\"\",\"11\",\"\",\"19\",\"\",\"64.4\",\"\",\"96.11\",\"\",\"\",\"\",\"\",\"\",\"Cloudy\"\r\n\"-120.44\",\"50.70\",\"KAMLOOPS
        A\",\"1163780\",\"2012-11-29 23:00\",\"2012\",\"11\",\"29\",\"23:00\",\"4.7\",\"\",\"2.6\",\"\",\"86\",\"\",\"\",\"\",\"11\",\"\",\"20\",\"\",\"64.4\",\"\",\"96.07\",\"\",\"\",\"\",\"\",\"\",\"Cloudy\"\r\n\"-120.44\",\"50.70\",\"KAMLOOPS
        A\",\"1163780\",\"2012-11-30 00:00\",\"2012\",\"11\",\"30\",\"00:00\",\"4.0\",\"\",\"2.3\",\"\",\"89\",\"\",\"\",\"\",\"8\",\"\",\"17\",\"\",\"64.4\",\"\",\"96.08\",\"\",\"\",\"\",\"\",\"\",\"Cloudy\"\r\n\"-120.44\",\"50.70\",\"KAMLOOPS
        A\",\"1163780\",\"2012-11-30 01:00\",\"2012\",\"11\",\"30\",\"01:00\",\"4.1\",\"\",\"2.5\",\"\",\"89\",\"\",\"\",\"\",\"10\",\"\",\"22\",\"\",\"64.4\",\"\",\"95.96\",\"\",\"\",\"\",\"\",\"\",\"Cloudy\"\r\n\"-120.44\",\"50.70\",\"KAMLOOPS
        A\",\"1163780\",\"2012-11-30 02:00\",\"2012\",\"11\",\"30\",\"02:00\",\"4.2\",\"\",\"2.6\",\"\",\"89\",\"\",\"\",\"\",\"10\",\"\",\"19\",\"\",\"64.4\",\"\",\"95.91\",\"\",\"\",\"\",\"\",\"\",\"Cloudy\"\r\n\"-120.44\",\"50.70\",\"KAMLOOPS
        A\",\"1163780\",\"2012-11-30 03:00\",\"2012\",\"11\",\"30\",\"03:00\",\"4.0\",\"\",\"2.6\",\"\",\"91\",\"\",\"\",\"\",\"9\",\"\",\"17\",\"\",\"64.4\",\"\",\"95.88\",\"\",\"\",\"\",\"\",\"\",\"Cloudy\"\r\n\"-120.44\",\"50.70\",\"KAMLOOPS
        A\",\"1163780\",\"2012-11-30 04:00\",\"2012\",\"11\",\"30\",\"04:00\",\"3.9\",\"\",\"2.7\",\"\",\"92\",\"\",\"\",\"\",\"9\",\"\",\"17\",\"\",\"64.4\",\"\",\"95.78\",\"\",\"\",\"\",\"\",\"\",\"Cloudy\"\r\n\"-120.44\",\"50.70\",\"KAMLOOPS
        A\",\"1163780\",\"2012-11-30 05:00\",\"2012\",\"11\",\"30\",\"05:00\",\"3.8\",\"\",\"2.3\",\"\",\"90\",\"\",\"\",\"\",\"9\",\"\",\"20\",\"\",\"64.4\",\"\",\"95.75\",\"\",\"\",\"\",\"\",\"\",\"Cloudy\"\r\n\"-120.44\",\"50.70\",\"KAMLOOPS
        A\",\"1163780\",\"2012-11-30 06:00\",\"2012\",\"11\",\"30\",\"06:00\",\"3.1\",\"\",\"2.2\",\"\",\"94\",\"\",\"\",\"\",\"9\",\"\",\"20\",\"\",\"64.4\",\"\",\"95.70\",\"\",\"\",\"\",\"\",\"\",\"Cloudy\"\r\n\"-120.44\",\"50.70\",\"KAMLOOPS
        A\",\"1163780\",\"2012-11-30 07:00\",\"2012\",\"11\",\"30\",\"07:00\",\"3.6\",\"\",\"2.1\",\"\",\"90\",\"\",\"\",\"\",\"11\",\"\",\"19\",\"\",\"64.4\",\"\",\"95.65\",\"\",\"\",\"\",\"\",\"\",\"Cloudy\"\r\n\"-120.44\",\"50.70\",\"KAMLOOPS
        A\",\"1163780\",\"2012-11-30 08:00\",\"2012\",\"11\",\"30\",\"08:00\",\"3.1\",\"\",\"2.2\",\"\",\"94\",\"\",\"\",\"\",\"8\",\"\",\"15\",\"\",\"64.4\",\"\",\"95.64\",\"\",\"\",\"\",\"\",\"\",\"Cloudy\"\r\n\"-120.44\",\"50.70\",\"KAMLOOPS
        A\",\"1163780\",\"2012-11-30 09:00\",\"2012\",\"11\",\"30\",\"09:00\",\"4.6\",\"\",\"2.6\",\"\",\"87\",\"\",\"\",\"\",\"9\",\"\",\"22\",\"\",\"64.4\",\"\",\"95.65\",\"\",\"\",\"\",\"\",\"\",\"Mostly
        Cloudy\"\r\n\"-120.44\",\"50.70\",\"KAMLOOPS A\",\"1163780\",\"2012-11-30
        10:00\",\"2012\",\"11\",\"30\",\"10:00\",\"4.8\",\"\",\"3.0\",\"\",\"88\",\"\",\"\",\"\",\"13\",\"\",\"17\",\"\",\"64.4\",\"\",\"95.63\",\"\",\"\",\"\",\"\",\"\",\"Mostly
        Cloudy\"\r\n\"-120.44\",\"50.70\",\"KAMLOOPS A\",\"1163780\",\"2012-11-30
        11:00\",\"2012\",\"11\",\"30\",\"11:00\",\"5.1\",\"\",\"2.7\",\"\",\"84\",\"\",\"\",\"\",\"9\",\"\",\"20\",\"\",\"64.4\",\"\",\"95.65\",\"\",\"\",\"\",\"\",\"\",\"Mostly
        Cloudy\"\r\n\"-120.44\",\"50.70\",\"KAMLOOPS A\",\"1163780\",\"2012-11-30
        12:00\",\"2012\",\"11\",\"30\",\"12:00\",\"6.4\",\"\",\"3.0\",\"\",\"79\",\"\",\"\",\"\",\"11\",\"\",\"19\",\"\",\"64.4\",\"\",\"95.58\",\"\",\"\",\"\",\"\",\"\",\"Mostly
        Cloudy\"\r\n\"-120.44\",\"50.70\",\"KAMLOOPS A\",\"1163780\",\"2012-11-30
        13:00\",\"2012\",\"11\",\"30\",\"13:00\",\"7.5\",\"\",\"3.0\",\"\",\"73\",\"\",\"\",\"\",\"11\",\"\",\"19\",\"\",\"64.4\",\"\",\"95.52\",\"\",\"\",\"\",\"\",\"\",\"Mostly
        Cloudy\"\r\n\"-120.44\",\"50.70\",\"KAMLOOPS A\",\"1163780\",\"2012-11-30
        14:00\",\"2012\",\"11\",\"30\",\"14:00\",\"7.5\",\"\",\"3.1\",\"\",\"74\",\"\",\"\",\"\",\"9\",\"\",\"17\",\"\",\"64.4\",\"\",\"95.53\",\"\",\"\",\"\",\"\",\"\",\"Mostly
        Cloudy\"\r\n\"-120.44\",\"50.70\",\"KAMLOOPS A\",\"1163780\",\"2012-11-30
        15:00\",\"2012\",\"11\",\"30\",\"15:00\",\"8.2\",\"\",\"3.7\",\"\",\"73\",\"\",\"\",\"\",\"9\",\"\",\"19\",\"\",\"64.4\",\"\",\"95.56\",\"\",\"\",\"\",\"\",\"\",\"Mostly
        Cloudy\"\r\n\"-120.44\",\"50.70\",\"KAMLOOPS A\",\"1163780\",\"2012-11-30
        16:00\",\"2012\",\"11\",\"30\",\"16:00\",\"6.8\",\"\",\"3.2\",\"\",\"78\",\"\",\"\",\"\",\"9\",\"\",\"13\",\"\",\"64.4\",\"\",\"95.59\",\"\",\"\",\"\",\"\",\"\",\"Mostly
        Cloudy\"\r\n\"-120.44\",\"50.70\",\"KAMLOOPS A\",\"1163780\",\"2012-11-30
        17:00\",\"2012\",\"11\",\"30\",\"17:00\",\"7.5\",\"\",\"3.8\",\"\",\"77\",\"\",\"\",\"\",\"10\",\"\",\"20\",\"\",\"64.4\",\"\",\"95.59\",\"\",\"\",\"\",\"\",\"\",\"Mostly
        Cloudy\"\r\n\"-120.44\",\"50.70\",\"KAMLOOPS A\",\"1163780\",\"2012-11-30
        18:00\",\"2012\",\"11\",\"30\",\"18:00\",\"6.8\",\"\",\"3.4\",\"\",\"79\",\"\",\"\",\"\",\"9\",\"\",\"15\",\"\",\"64.4\",\"\",\"95.65\",\"\",\"\",\"\",\"\",\"\",\"Cloudy\"\r\n\"-120.44\",\"50.70\",\"KAMLOOPS
        A\",\"1163780\",\"2012-11-30 19:00\",\"2012\",\"11\",\"30\",\"19:00\",\"6.8\",\"\",\"3.3\",\"\",\"78\",\"\",\"\",\"\",\"9\",\"\",\"17\",\"\",\"64.4\",\"\",\"95.65\",\"\",\"\",\"\",\"\",\"\",\"Mostly
        Cloudy\"\r\n\"-120.44\",\"50.70\",\"KAMLOOPS A\",\"1163780\",\"2012-11-30
        20:00\",\"2012\",\"11\",\"30\",\"20:00\",\"7.3\",\"\",\"3.7\",\"\",\"78\",\"\",\"\",\"\",\"10\",\"\",\"20\",\"\",\"64.4\",\"\",\"95.64\",\"\",\"\",\"\",\"\",\"\",\"Mostly
        Cloudy\"\r\n\"-120.44\",\"50.70\",\"KAMLOOPS A\",\"1163780\",\"2012-11-30
        21:00\",\"2012\",\"11\",\"30\",\"21:00\",\"6.9\",\"\",\"3.4\",\"\",\"78\",\"\",\"\",\"\",\"8\",\"\",\"11\",\"\",\"64.4\",\"\",\"95.63\",\"\",\"\",\"\",\"\",\"\",\"Mostly
        Cloudy\"\r\n\"-120.44\",\"50.70\",\"KAMLOOPS A\",\"1163780\",\"2012-11-30
        22:00\",\"2012\",\"11\",\"30\",\"22:00\",\"6.6\",\"\",\"3.4\",\"\",\"80\",\"\",\"\",\"\",\"3\",\"\",\"6\",\"\",\"64.4\",\"\",\"95.62\",\"\",\"\",\"\",\"\",\"\",\"Cloudy\"\r\n\"-120.44\",\"50.70\",\"KAMLOOPS
        A\",\"1163780\",\"2012-11-30 23:00\",\"2012\",\"11\",\"30\",\"23:00\",\"6.4\",\"\",\"3.4\",\"\",\"81\",\"\",\"\",\"\",\"8\",\"\",\"13\",\"\",\"64.4\",\"\",\"95.58\",\"\",\"\",\"\",\"\",\"\",\"Cloudy\"\r\n"
  recorded_at: 2021-01-14 22:36:32 GMT
  recorded_with: vcr/0.6.0, webmockr/0.7.4
- request:
    method: get
    uri: https://climate.weather.gc.ca/climate_data/bulk_data_e.html?format=txt&stationID=1275&timeframe=1&submit=Download%2BData
    body:
      encoding: ''
      string: ''
    headers:
      Accept: application/json, text/xml, application/xml, */*
  response:
    status:
      status_code: 200
      category: Success
      reason: OK
      message: 'Success: (200) OK'
    headers:
      date: Thu, 14 Jan 2021 22:36:32 GMT
      server: Apache/2.4.29 (Ubuntu)
      strict-transport-security: max-age=63072000; preload
      expires: Mon, 26 Jul 1997 05:00:00 GMT
      cache-control: private
      pragma: public
      content-disposition: attachment; filename="en_climate_hourly_metadata_BC_1163780.txt"
      vary: Accept-Encoding
      content-encoding: gzip
      content-length: '357'
      content-type: application/force-download
    body:
      encoding: UTF-8
      file: no
      string: "\uFEFFStation Name\t\tKAMLOOPS A\r\nProvince\t\tBRITISH COLUMBIA\r\nLatitude\t\t50.70\r\nLongitude\t\t-120.44\r\nElevation\t\t345.30\r\nClimate
        Identifier\t1163780\r\nWMO Identifier\t\t71887\r\nTC Identifier\t\tYKA\r\n\"If
        Local Standard Time (LST) was selected, add 1 hour to adjust for Daylight
        Saving Time where and when it is observed.\"\r\n\r\nLegend\r\nE\tEstimated\r\nM\tMissing\r\nNA\tNot
        Available*\r\n[empty]\tIndicates an unobserved value\r\n\r\n*https://climate.weather.gc.ca/FAQ_e.html#Q5"
  recorded_at: 2021-01-14 22:36:32 GMT
  recorded_with: vcr/0.6.0, webmockr/0.7.4
