http_interactions:
- request:
    method: get
    uri: https://climate.weather.gc.ca/climate_data/bulk_data_e.html?format=csv&stationID=6556&timeframe=1&submit=Download%2BData&Year=1965&Month=01
    body:
      encoding: ''
      string: ''
    headers:
      Accept: application/json, text/xml, application/xml, */*
  response:
    status:
      status_code: 200
      category: Success
      reason: OK
      message: 'Success: (200) OK'
    headers:
      date: Thu, 15 Apr 2021 19:46:07 GMT
      server: Apache/2.4.29 (Ubuntu)
      strict-transport-security: max-age=63072000; preload
      expires: Mon, 26 Jul 1997 05:00:00 GMT
      cache-control: private
      pragma: public
      content-disposition: attachment; filename="en_climate_hourly_NL_8400100_001-1965_P1H.csv"
      vary: Accept-Encoding
      content-encoding: gzip
      content-length: '13956'
      content-type: application/force-download
    body:
      encoding: UTF-8
      file: no
      string: "\uFEFF\"Longitude (x)\",\"Latitude (y)\",\"Station Name\",\"Climate
        ID\",\"Date/Time (LST)\",\"Year\",\"Month\",\"Day\",\"Time (LST)\",\"Temp
        (°C)\",\"Temp Flag\",\"Dew Point Temp (°C)\",\"Dew Point Temp Flag\",\"Rel
        Hum (%)\",\"Rel Hum Flag\",\"Wind Dir (10s deg)\",\"Wind Dir Flag\",\"Wind
        Spd (km/h)\",\"Wind Spd Flag\",\"Visibility (km)\",\"Visibility Flag\",\"Stn
        Press (kPa)\",\"Stn Press Flag\",\"Hmdx\",\"Hmdx Flag\",\"Wind Chill\",\"Wind
        Chill Flag\",\"Weather\"\r\n\"-54.00\",\"47.30\",\"ARGENTIA A\",\"8400100\",\"1965-01-01
        00:30\",\"1965\",\"01\",\"01\",\"00:30\",\"0.6\",\"\",\"0.6\",\"\",\"100\",\"\",\"2\",\"\",\"60\",\"\",\"6.4\",\"\",\"99.26\",\"\",\"\",\"\",\"\",\"\",\"Rain\"\r\n\"-54.00\",\"47.30\",\"ARGENTIA
        A\",\"8400100\",\"1965-01-01 01:30\",\"1965\",\"01\",\"01\",\"01:30\",\"0.6\",\"\",\"0.6\",\"\",\"100\",\"\",\"2\",\"\",\"58\",\"\",\"9.7\",\"\",\"99.09\",\"\",\"\",\"\",\"\",\"\",\"Rain\"\r\n\"-54.00\",\"47.30\",\"ARGENTIA
        A\",\"8400100\",\"1965-01-01 02:30\",\"1965\",\"01\",\"01\",\"02:30\",\"1.7\",\"\",\"1.1\",\"\",\"96\",\"\",\"2\",\"\",\"51\",\"\",\"11.3\",\"\",\"99.02\",\"\",\"\",\"\",\"\",\"\",\"Rain\"\r\n\"-54.00\",\"47.30\",\"ARGENTIA
        A\",\"8400100\",\"1965-01-01 03:30\",\"1965\",\"01\",\"01\",\"03:30\",\"1.7\",\"\",\"1.1\",\"\",\"96\",\"\",\"2\",\"\",\"64\",\"\",\"9.7\",\"\",\"98.85\",\"\",\"\",\"\",\"\",\"\",\"Rain\"\r\n\"-54.00\",\"47.30\",\"ARGENTIA
        A\",\"8400100\",\"1965-01-01 04:30\",\"1965\",\"01\",\"01\",\"04:30\",\"1.7\",\"\",\"0.0\",\"\",\"89\",\"\",\"2\",\"\",\"51\",\"\",\"11.3\",\"\",\"98.75\",\"\",\"\",\"\",\"\",\"\",\"Rain\"\r\n\"-54.00\",\"47.30\",\"ARGENTIA
        A\",\"8400100\",\"1965-01-01 05:30\",\"1965\",\"01\",\"01\",\"05:30\",\"1.7\",\"\",\"1.1\",\"\",\"96\",\"\",\"2\",\"\",\"63\",\"\",\"11.3\",\"\",\"98.61\",\"\",\"\",\"\",\"\",\"\",\"Rain\"\r\n\"-54.00\",\"47.30\",\"ARGENTIA
        A\",\"8400100\",\"1965-01-01 06:30\",\"1965\",\"01\",\"01\",\"06:30\",\"2.2\",\"\",\"1.1\",\"\",\"92\",\"\",\"2\",\"\",\"56\",\"\",\"11.3\",\"\",\"98.58\",\"\",\"\",\"\",\"\",\"\",\"Rain\"\r\n\"-54.00\",\"47.30\",\"ARGENTIA
        A\",\"8400100\",\"1965-01-01 07:30\",\"1965\",\"01\",\"01\",\"07:30\",\"1.7\",\"\",\"1.1\",\"\",\"96\",\"\",\"2\",\"\",\"45\",\"\",\"11.3\",\"\",\"98.54\",\"\",\"\",\"\",\"\",\"\",\"Cloudy\"\r\n\"-54.00\",\"47.30\",\"ARGENTIA
        A\",\"8400100\",\"1965-01-01 08:30\",\"1965\",\"01\",\"01\",\"08:30\",\"1.7\",\"\",\"1.7\",\"\",\"100\",\"\",\"2\",\"\",\"40\",\"\",\"12.9\",\"\",\"98.54\",\"\",\"\",\"\",\"\",\"\",\"Cloudy\"\r\n\"-54.00\",\"47.30\",\"ARGENTIA
        A\",\"8400100\",\"1965-01-01 09:30\",\"1965\",\"01\",\"01\",\"09:30\",\"1.7\",\"\",\"1.7\",\"\",\"100\",\"\",\"2\",\"\",\"37\",\"\",\"12.9\",\"\",\"98.51\",\"\",\"\",\"\",\"\",\"\",\"Cloudy\"\r\n\"-54.00\",\"47.30\",\"ARGENTIA
        A\",\"8400100\",\"1965-01-01 10:30\",\"1965\",\"01\",\"01\",\"10:30\",\"1.7\",\"\",\"1.7\",\"\",\"100\",\"\",\"2\",\"\",\"40\",\"\",\"12.9\",\"\",\"98.51\",\"\",\"\",\"\",\"\",\"\",\"Cloudy\"\r\n\"-54.00\",\"47.30\",\"ARGENTIA
        A\",\"8400100\",\"1965-01-01 11:30\",\"1965\",\"01\",\"01\",\"11:30\",\"1.7\",\"\",\"1.7\",\"\",\"100\",\"\",\"2\",\"\",\"29\",\"\",\"2.4\",\"\",\"98.51\",\"\",\"\",\"\",\"\",\"\",\"Drizzle,Fog\"\r\n\"-54.00\",\"47.30\",\"ARGENTIA
        A\",\"8400100\",\"1965-01-01 12:30\",\"1965\",\"01\",\"01\",\"12:30\",\"2.8\",\"\",\"2.8\",\"\",\"100\",\"\",\"2\",\"\",\"34\",\"\",\"3.2\",\"\",\"98.44\",\"\",\"\",\"\",\"\",\"\",\"Drizzle,Fog\"\r\n\"-54.00\",\"47.30\",\"ARGENTIA
        A\",\"8400100\",\"1965-01-01 13:30\",\"1965\",\"01\",\"01\",\"13:30\",\"2.8\",\"\",\"2.2\",\"\",\"96\",\"\",\"5\",\"\",\"26\",\"\",\"8.0\",\"\",\"98.44\",\"\",\"\",\"\",\"\",\"\",\"Drizzle,Fog\"\r\n\"-54.00\",\"47.30\",\"ARGENTIA
        A\",\"8400100\",\"1965-01-01 14:30\",\"1965\",\"01\",\"01\",\"14:30\",\"2.2\",\"\",\"2.2\",\"\",\"100\",\"\",\"5\",\"\",\"26\",\"\",\"3.2\",\"\",\"98.44\",\"\",\"\",\"\",\"\",\"\",\"Drizzle,Fog\"\r\n\"-54.00\",\"47.30\",\"ARGENTIA
        A\",\"8400100\",\"1965-01-01 15:30\",\"1965\",\"01\",\"01\",\"15:30\",\"2.8\",\"\",\"2.2\",\"\",\"96\",\"\",\"5\",\"\",\"24\",\"\",\"6.4\",\"\",\"98.48\",\"\",\"\",\"\",\"\",\"\",\"Fog\"\r\n\"-54.00\",\"47.30\",\"ARGENTIA
        A\",\"8400100\",\"1965-01-01 16:30\",\"1965\",\"01\",\"01\",\"16:30\",\"2.2\",\"\",\"2.2\",\"\",\"100\",\"\",\"5\",\"\",\"26\",\"\",\"4.8\",\"\",\"98.48\",\"\",\"\",\"\",\"\",\"\",\"Drizzle,Fog\"\r\n\"-54.00\",\"47.30\",\"ARGENTIA
        A\",\"8400100\",\"1965-01-01 17:30\",\"1965\",\"01\",\"01\",\"17:30\",\"2.2\",\"\",\"2.2\",\"\",\"100\",\"\",\"2\",\"\",\"19\",\"\",\"2.4\",\"\",\"98.54\",\"\",\"\",\"\",\"\",\"\",\"Drizzle,Fog\"\r\n\"-54.00\",\"47.30\",\"ARGENTIA
        A\",\"8400100\",\"1965-01-01 18:30\",\"1965\",\"01\",\"01\",\"18:30\",\"2.2\",\"\",\"2.2\",\"\",\"100\",\"\",\"5\",\"\",\"21\",\"\",\"1.2\",\"\",\"98.54\",\"\",\"\",\"\",\"\",\"\",\"Drizzle,Fog\"\r\n\"-54.00\",\"47.30\",\"ARGENTIA
        A\",\"8400100\",\"1965-01-01 19:30\",\"1965\",\"01\",\"01\",\"19:30\",\"2.2\",\"\",\"2.2\",\"\",\"100\",\"\",\"7\",\"\",\"14\",\"\",\"1.6\",\"\",\"98.65\",\"\",\"\",\"\",\"\",\"\",\"Drizzle,Fog\"\r\n\"-54.00\",\"47.30\",\"ARGENTIA
        A\",\"8400100\",\"1965-01-01 20:30\",\"1965\",\"01\",\"01\",\"20:30\",\"1.1\",\"\",\"1.1\",\"\",\"100\",\"\",\"7\",\"\",\"19\",\"\",\"8.0\",\"\",\"98.61\",\"\",\"\",\"\",\"\",\"\",\"Fog\"\r\n\"-54.00\",\"47.30\",\"ARGENTIA
        A\",\"8400100\",\"1965-01-01 21:30\",\"1965\",\"01\",\"01\",\"21:30\",\"0.6\",\"\",\"0.6\",\"\",\"100\",\"\",\"7\",\"\",\"21\",\"\",\"8.0\",\"\",\"98.61\",\"\",\"\",\"\",\"\",\"\",\"Fog\"\r\n\"-54.00\",\"47.30\",\"ARGENTIA
        A\",\"8400100\",\"1965-01-01 22:30\",\"1965\",\"01\",\"01\",\"22:30\",\"0.6\",\"\",\"0.6\",\"\",\"100\",\"\",\"7\",\"\",\"19\",\"\",\"8.0\",\"\",\"98.61\",\"\",\"\",\"\",\"\",\"\",\"Drizzle,Fog\"\r\n\"-54.00\",\"47.30\",\"ARGENTIA
        A\",\"8400100\",\"1965-01-01 23:30\",\"1965\",\"01\",\"01\",\"23:30\",\"0.6\",\"\",\"0.6\",\"\",\"100\",\"\",\"2\",\"\",\"26\",\"\",\"8.0\",\"\",\"98.54\",\"\",\"\",\"\",\"\",\"\",\"Drizzle,Fog\"\r\n\"-54.00\",\"47.30\",\"ARGENTIA
        A\",\"8400100\",\"1965-01-02 00:30\",\"1965\",\"01\",\"02\",\"00:30\",\"0.0\",\"\",\"0.0\",\"\",\"100\",\"\",\"2\",\"\",\"27\",\"\",\"8.0\",\"\",\"98.51\",\"\",\"\",\"\",\"-6\",\"\",\"Drizzle,Fog\"\r\n\"-54.00\",\"47.30\",\"ARGENTIA
        A\",\"8400100\",\"1965-01-02 01:30\",\"1965\",\"01\",\"02\",\"01:30\",\"0.0\",\"\",\"0.0\",\"\",\"100\",\"\",\"2\",\"\",\"21\",\"\",\"8.0\",\"\",\"98.48\",\"\",\"\",\"\",\"-5\",\"\",\"Drizzle,Fog\"\r\n\"-54.00\",\"47.30\",\"ARGENTIA
        A\",\"8400100\",\"1965-01-02 02:30\",\"1965\",\"01\",\"02\",\"02:30\",\"0.6\",\"\",\"0.6\",\"\",\"100\",\"\",\"2\",\"\",\"37\",\"\",\"8.0\",\"\",\"98.48\",\"\",\"\",\"\",\"\",\"\",\"Fog\"\r\n\"-54.00\",\"47.30\",\"ARGENTIA
        A\",\"8400100\",\"1965-01-02 03:30\",\"1965\",\"01\",\"02\",\"03:30\",\"1.1\",\"\",\"0.6\",\"\",\"96\",\"\",\"2\",\"\",\"29\",\"\",\"8.0\",\"\",\"98.44\",\"\",\"\",\"\",\"\",\"\",\"Fog\"\r\n\"-54.00\",\"47.30\",\"ARGENTIA
        A\",\"8400100\",\"1965-01-02 04:30\",\"1965\",\"01\",\"02\",\"04:30\",\"1.1\",\"\",\"1.1\",\"\",\"100\",\"\",\"2\",\"\",\"26\",\"\",\"8.0\",\"\",\"98.38\",\"\",\"\",\"\",\"\",\"\",\"Fog\"\r\n\"-54.00\",\"47.30\",\"ARGENTIA
        A\",\"8400100\",\"1965-01-02 05:30\",\"1965\",\"01\",\"02\",\"05:30\",\"1.7\",\"\",\"1.1\",\"\",\"96\",\"\",\"2\",\"\",\"27\",\"\",\"8.0\",\"\",\"98.27\",\"\",\"\",\"\",\"\",\"\",\"Drizzle,Fog\"\r\n\"-54.00\",\"47.30\",\"ARGENTIA
        A\",\"8400100\",\"1965-01-02 06:30\",\"1965\",\"01\",\"02\",\"06:30\",\"1.1\",\"\",\"1.1\",\"\",\"100\",\"\",\"2\",\"\",\"27\",\"\",\"8.0\",\"\",\"98.27\",\"\",\"\",\"\",\"\",\"\",\"Drizzle,Fog\"\r\n\"-54.00\",\"47.30\",\"ARGENTIA
        A\",\"8400100\",\"1965-01-02 07:30\",\"1965\",\"01\",\"02\",\"07:30\",\"1.7\",\"\",\"1.7\",\"\",\"100\",\"\",\"5\",\"\",\"26\",\"\",\"4.0\",\"\",\"98.24\",\"\",\"\",\"\",\"\",\"\",\"Drizzle,Fog\"\r\n\"-54.00\",\"47.30\",\"ARGENTIA
        A\",\"8400100\",\"1965-01-02 08:30\",\"1965\",\"01\",\"02\",\"08:30\",\"1.7\",\"\",\"1.7\",\"\",\"100\",\"\",\"2\",\"\",\"24\",\"\",\"4.0\",\"\",\"98.24\",\"\",\"\",\"\",\"\",\"\",\"Fog\"\r\n\"-54.00\",\"47.30\",\"ARGENTIA
        A\",\"8400100\",\"1965-01-02 09:30\",\"1965\",\"01\",\"02\",\"09:30\",\"2.2\",\"\",\"2.2\",\"\",\"100\",\"\",\"2\",\"\",\"23\",\"\",\"9.7\",\"\",\"98.24\",\"\",\"\",\"\",\"\",\"\",\"Rain,Fog\"\r\n\"-54.00\",\"47.30\",\"ARGENTIA
        A\",\"8400100\",\"1965-01-02 10:30\",\"1965\",\"01\",\"02\",\"10:30\",\"2.2\",\"\",\"2.2\",\"\",\"100\",\"\",\"36\",\"\",\"26\",\"\",\"6.4\",\"\",\"98.21\",\"\",\"\",\"\",\"\",\"\",\"Rain,Fog\"\r\n\"-54.00\",\"47.30\",\"ARGENTIA
        A\",\"8400100\",\"1965-01-02 11:30\",\"1965\",\"01\",\"02\",\"11:30\",\"2.2\",\"\",\"2.2\",\"\",\"100\",\"\",\"2\",\"\",\"21\",\"\",\"11.3\",\"\",\"98.17\",\"\",\"\",\"\",\"\",\"\",\"Rain\"\r\n\"-54.00\",\"47.30\",\"ARGENTIA
        A\",\"8400100\",\"1965-01-02 12:30\",\"1965\",\"01\",\"02\",\"12:30\",\"2.8\",\"\",\"2.8\",\"\",\"100\",\"\",\"2\",\"\",\"29\",\"\",\"14.5\",\"\",\"98.14\",\"\",\"\",\"\",\"\",\"\",\"Cloudy\"\r\n\"-54.00\",\"47.30\",\"ARGENTIA
        A\",\"8400100\",\"1965-01-02 13:30\",\"1965\",\"01\",\"02\",\"13:30\",\"2.8\",\"\",\"2.8\",\"\",\"100\",\"\",\"2\",\"\",\"27\",\"\",\"12.9\",\"\",\"97.93\",\"\",\"\",\"\",\"\",\"\",\"Cloudy\"\r\n\"-54.00\",\"47.30\",\"ARGENTIA
        A\",\"8400100\",\"1965-01-02 14:30\",\"1965\",\"01\",\"02\",\"14:30\",\"2.8\",\"\",\"2.8\",\"\",\"100\",\"\",\"2\",\"\",\"23\",\"\",\"2.4\",\"\",\"97.93\",\"\",\"\",\"\",\"\",\"\",\"Fog\"\r\n\"-54.00\",\"47.30\",\"ARGENTIA
        A\",\"8400100\",\"1965-01-02 15:30\",\"1965\",\"01\",\"02\",\"15:30\",\"3.3\",\"\",\"3.3\",\"\",\"100\",\"\",\"5\",\"\",\"23\",\"\",\"3.2\",\"\",\"97.93\",\"\",\"\",\"\",\"\",\"\",\"Fog\"\r\n\"-54.00\",\"47.30\",\"ARGENTIA
        A\",\"8400100\",\"1965-01-02 16:30\",\"1965\",\"01\",\"02\",\"16:30\",\"2.8\",\"\",\"2.8\",\"\",\"100\",\"\",\"5\",\"\",\"23\",\"\",\"3.2\",\"\",\"97.93\",\"\",\"\",\"\",\"\",\"\",\"Fog\"\r\n\"-54.00\",\"47.30\",\"ARGENTIA
        A\",\"8400100\",\"1965-01-02 17:30\",\"1965\",\"01\",\"02\",\"17:30\",\"2.2\",\"\",\"2.2\",\"\",\"100\",\"\",\"5\",\"\",\"26\",\"\",\"4.8\",\"\",\"97.93\",\"\",\"\",\"\",\"\",\"\",\"Fog\"\r\n\"-54.00\",\"47.30\",\"ARGENTIA
        A\",\"8400100\",\"1965-01-02 18:30\",\"1965\",\"01\",\"02\",\"18:30\",\"2.2\",\"\",\"2.2\",\"\",\"100\",\"\",\"2\",\"\",\"24\",\"\",\"1.6\",\"\",\"97.97\",\"\",\"\",\"\",\"\",\"\",\"Fog\"\r\n\"-54.00\",\"47.30\",\"ARGENTIA
        A\",\"8400100\",\"1965-01-02 19:30\",\"1965\",\"01\",\"02\",\"19:30\",\"2.2\",\"\",\"2.2\",\"\",\"100\",\"\",\"5\",\"\",\"19\",\"\",\"3.2\",\"\",\"97.97\",\"\",\"\",\"\",\"\",\"\",\"Fog\"\r\n\"-54.00\",\"47.30\",\"ARGENTIA
        A\",\"8400100\",\"1965-01-02 20:30\",\"1965\",\"01\",\"02\",\"20:30\",\"2.2\",\"\",\"2.2\",\"\",\"100\",\"\",\"5\",\"\",\"19\",\"\",\"3.2\",\"\",\"97.97\",\"\",\"\",\"\",\"\",\"\",\"Fog\"\r\n\"-54.00\",\"47.30\",\"ARGENTIA
        A\",\"8400100\",\"1965-01-02 21:30\",\"1965\",\"01\",\"02\",\"21:30\",\"2.2\",\"\",\"2.2\",\"\",\"100\",\"\",\"5\",\"\",\"24\",\"\",\"3.2\",\"\",\"98.00\",\"\",\"\",\"\",\"\",\"\",\"Fog\"\r\n\"-54.00\",\"47.30\",\"ARGENTIA
        A\",\"8400100\",\"1965-01-02 22:30\",\"1965\",\"01\",\"02\",\"22:30\",\"2.2\",\"\",\"2.2\",\"\",\"100\",\"\",\"7\",\"\",\"19\",\"\",\"6.4\",\"\",\"97.97\",\"\",\"\",\"\",\"\",\"\",\"Fog\"\r\n\"-54.00\",\"47.30\",\"ARGENTIA
        A\",\"8400100\",\"1965-01-02 23:30\",\"1965\",\"01\",\"02\",\"23:30\",\"1.7\",\"\",\"1.7\",\"\",\"100\",\"\",\"7\",\"\",\"11\",\"\",\"6.4\",\"\",\"97.90\",\"\",\"\",\"\",\"\",\"\",\"Fog\"\r\n\"-54.00\",\"47.30\",\"ARGENTIA
        A\",\"8400100\",\"1965-01-03 00:30\",\"1965\",\"01\",\"03\",\"00:30\",\"1.1\",\"\",\"1.1\",\"\",\"100\",\"\",\"5\",\"\",\"8\",\"\",\"6.4\",\"\",\"97.90\",\"\",\"\",\"\",\"\",\"\",\"Drizzle,Fog\"\r\n\"-54.00\",\"47.30\",\"ARGENTIA
        A\",\"8400100\",\"1965-01-03 01:30\",\"1965\",\"01\",\"03\",\"01:30\",\"1.1\",\"\",\"1.1\",\"\",\"100\",\"\",\"2\",\"\",\"10\",\"\",\"6.4\",\"\",\"97.90\",\"\",\"\",\"\",\"\",\"\",\"Fog\"\r\n\"-54.00\",\"47.30\",\"ARGENTIA
        A\",\"8400100\",\"1965-01-03 02:30\",\"1965\",\"01\",\"03\",\"02:30\",\"0.6\",\"\",\"0.6\",\"\",\"100\",\"\",\"5\",\"\",\"16\",\"\",\"6.4\",\"\",\"97.87\",\"\",\"\",\"\",\"\",\"\",\"Fog\"\r\n\"-54.00\",\"47.30\",\"ARGENTIA
        A\",\"8400100\",\"1965-01-03 03:30\",\"1965\",\"01\",\"03\",\"03:30\",\"0.6\",\"\",\"0.6\",\"\",\"100\",\"\",\"5\",\"\",\"19\",\"\",\"4.8\",\"\",\"97.87\",\"\",\"\",\"\",\"\",\"\",\"Drizzle,Fog\"\r\n\"-54.00\",\"47.30\",\"ARGENTIA
        A\",\"8400100\",\"1965-01-03 04:30\",\"1965\",\"01\",\"03\",\"04:30\",\"0.6\",\"\",\"0.6\",\"\",\"100\",\"\",\"2\",\"\",\"11\",\"\",\"3.2\",\"\",\"97.80\",\"\",\"\",\"\",\"\",\"\",\"Fog\"\r\n\"-54.00\",\"47.30\",\"ARGENTIA
        A\",\"8400100\",\"1965-01-03 05:30\",\"1965\",\"01\",\"03\",\"05:30\",\"0.6\",\"\",\"0.6\",\"\",\"100\",\"\",\"36\",\"\",\"8\",\"\",\"0.8\",\"\",\"97.77\",\"\",\"\",\"\",\"\",\"\",\"Fog\"\r\n\"-54.00\",\"47.30\",\"ARGENTIA
        A\",\"8400100\",\"1965-01-03 06:30\",\"1965\",\"01\",\"03\",\"06:30\",\"1.1\",\"\",\"1.1\",\"\",\"100\",\"\",\"5\",\"\",\"8\",\"\",\"0.4\",\"\",\"97.70\",\"\",\"\",\"\",\"\",\"\",\"Fog\"\r\n\"-54.00\",\"47.30\",\"ARGENTIA
        A\",\"8400100\",\"1965-01-03 07:30\",\"1965\",\"01\",\"03\",\"07:30\",\"1.1\",\"\",\"1.1\",\"\",\"100\",\"\",\"\",\"\",\"0\",\"\",\"12.9\",\"\",\"97.66\",\"\",\"\",\"\",\"\",\"\",\"Cloudy\"\r\n\"-54.00\",\"47.30\",\"ARGENTIA
        A\",\"8400100\",\"1965-01-03 08:30\",\"1965\",\"01\",\"03\",\"08:30\",\"1.1\",\"\",\"1.1\",\"\",\"100\",\"\",\"\",\"\",\"0\",\"\",\"12.9\",\"\",\"97.73\",\"\",\"\",\"\",\"\",\"\",\"Cloudy\"\r\n\"-54.00\",\"47.30\",\"ARGENTIA
        A\",\"8400100\",\"1965-01-03 09:30\",\"1965\",\"01\",\"03\",\"09:30\",\"1.1\",\"\",\"1.1\",\"\",\"100\",\"\",\"\",\"\",\"0\",\"\",\"4.0\",\"\",\"97.70\",\"\",\"\",\"\",\"\",\"\",\"Fog\"\r\n\"-54.00\",\"47.30\",\"ARGENTIA
        A\",\"8400100\",\"1965-01-03 10:30\",\"1965\",\"01\",\"03\",\"10:30\",\"1.7\",\"\",\"1.7\",\"\",\"100\",\"\",\"25\",\"\",\"5\",\"\",\"2.4\",\"\",\"97.70\",\"\",\"\",\"\",\"\",\"\",\"Fog\"\r\n\"-54.00\",\"47.30\",\"ARGENTIA
        A\",\"8400100\",\"1965-01-03 11:30\",\"1965\",\"01\",\"03\",\"11:30\",\"1.7\",\"\",\"1.7\",\"\",\"100\",\"\",\"23\",\"\",\"10\",\"\",\"0.2\",\"\",\"97.63\",\"\",\"\",\"\",\"\",\"\",\"Drizzle,Fog\"\r\n\"-54.00\",\"47.30\",\"ARGENTIA
        A\",\"8400100\",\"1965-01-03 12:30\",\"1965\",\"01\",\"03\",\"12:30\",\"1.7\",\"\",\"1.7\",\"\",\"100\",\"\",\"23\",\"\",\"13\",\"\",\"0.2\",\"\",\"97.56\",\"\",\"\",\"\",\"\",\"\",\"Fog\"\r\n\"-54.00\",\"47.30\",\"ARGENTIA
        A\",\"8400100\",\"1965-01-03 13:30\",\"1965\",\"01\",\"03\",\"13:30\",\"1.7\",\"\",\"1.7\",\"\",\"100\",\"\",\"23\",\"\",\"16\",\"\",\"2.4\",\"\",\"97.53\",\"\",\"\",\"\",\"\",\"\",\"Fog\"\r\n\"-54.00\",\"47.30\",\"ARGENTIA
        A\",\"8400100\",\"1965-01-03 14:30\",\"1965\",\"01\",\"03\",\"14:30\",\"1.7\",\"\",\"1.7\",\"\",\"100\",\"\",\"23\",\"\",\"14\",\"\",\"2.4\",\"\",\"97.53\",\"\",\"\",\"\",\"\",\"\",\"Fog\"\r\n\"-54.00\",\"47.30\",\"ARGENTIA
        A\",\"8400100\",\"1965-01-03 15:30\",\"1965\",\"01\",\"03\",\"15:30\",\"1.1\",\"\",\"1.1\",\"\",\"100\",\"\",\"20\",\"\",\"19\",\"\",\"3.2\",\"\",\"97.49\",\"\",\"\",\"\",\"\",\"\",\"Fog\"\r\n\"-54.00\",\"47.30\",\"ARGENTIA
        A\",\"8400100\",\"1965-01-03 16:30\",\"1965\",\"01\",\"03\",\"16:30\",\"1.1\",\"\",\"1.1\",\"\",\"100\",\"\",\"20\",\"\",\"14\",\"\",\"1.6\",\"\",\"97.46\",\"\",\"\",\"\",\"\",\"\",\"Fog\"\r\n\"-54.00\",\"47.30\",\"ARGENTIA
        A\",\"8400100\",\"1965-01-03 17:30\",\"1965\",\"01\",\"03\",\"17:30\",\"1.1\",\"\",\"1.1\",\"\",\"100\",\"\",\"20\",\"\",\"23\",\"\",\"4.8\",\"\",\"97.46\",\"\",\"\",\"\",\"\",\"\",\"Drizzle,Fog\"\r\n\"-54.00\",\"47.30\",\"ARGENTIA
        A\",\"8400100\",\"1965-01-03 18:30\",\"1965\",\"01\",\"03\",\"18:30\",\"0.6\",\"\",\"0.6\",\"\",\"100\",\"\",\"20\",\"\",\"23\",\"\",\"6.4\",\"\",\"97.46\",\"\",\"\",\"\",\"\",\"\",\"Fog\"\r\n\"-54.00\",\"47.30\",\"ARGENTIA
        A\",\"8400100\",\"1965-01-03 19:30\",\"1965\",\"01\",\"03\",\"19:30\",\"1.1\",\"\",\"0.6\",\"\",\"96\",\"\",\"20\",\"\",\"23\",\"\",\"3.2\",\"\",\"97.43\",\"\",\"\",\"\",\"\",\"\",\"Fog\"\r\n\"-54.00\",\"47.30\",\"ARGENTIA
        A\",\"8400100\",\"1965-01-03 20:30\",\"1965\",\"01\",\"03\",\"20:30\",\"1.1\",\"\",\"1.1\",\"\",\"100\",\"\",\"23\",\"\",\"19\",\"\",\"1.2\",\"\",\"97.43\",\"\",\"\",\"\",\"\",\"\",\"Drizzle,Fog\"\r\n\"-54.00\",\"47.30\",\"ARGENTIA
        A\",\"8400100\",\"1965-01-03 21:30\",\"1965\",\"01\",\"03\",\"21:30\",\"1.1\",\"\",\"1.1\",\"\",\"100\",\"\",\"23\",\"\",\"19\",\"\",\"0.2\",\"\",\"97.39\",\"\",\"\",\"\",\"\",\"\",\"Fog\"\r\n\"-54.00\",\"47.30\",\"ARGENTIA
        A\",\"8400100\",\"1965-01-03 22:30\",\"1965\",\"01\",\"03\",\"22:30\",\"1.1\",\"\",\"1.1\",\"\",\"100\",\"\",\"23\",\"\",\"19\",\"\",\"2.4\",\"\",\"97.33\",\"\",\"\",\"\",\"\",\"\",\"Fog\"\r\n\"-54.00\",\"47.30\",\"ARGENTIA
        A\",\"8400100\",\"1965-01-03 23:30\",\"1965\",\"01\",\"03\",\"23:30\",\"1.1\",\"\",\"1.1\",\"\",\"100\",\"\",\"18\",\"\",\"16\",\"\",\"1.2\",\"\",\"97.29\",\"\",\"\",\"\",\"\",\"\",\"Drizzle,Fog\"\r\n\"-54.00\",\"47.30\",\"ARGENTIA
        A\",\"8400100\",\"1965-01-04 00:30\",\"1965\",\"01\",\"04\",\"00:30\",\"1.1\",\"\",\"1.1\",\"\",\"100\",\"\",\"18\",\"\",\"10\",\"\",\"0.8\",\"\",\"97.26\",\"\",\"\",\"\",\"\",\"\",\"Drizzle,Fog\"\r\n\"-54.00\",\"47.30\",\"ARGENTIA
        A\",\"8400100\",\"1965-01-04 01:30\",\"1965\",\"01\",\"04\",\"01:30\",\"0.6\",\"\",\"0.6\",\"\",\"100\",\"\",\"18\",\"\",\"13\",\"\",\"9.7\",\"\",\"97.26\",\"\",\"\",\"\",\"\",\"\",\"Fog\"\r\n\"-54.00\",\"47.30\",\"ARGENTIA
        A\",\"8400100\",\"1965-01-04 02:30\",\"1965\",\"01\",\"04\",\"02:30\",\"1.1\",\"\",\"1.1\",\"\",\"100\",\"\",\"20\",\"\",\"10\",\"\",\"9.7\",\"\",\"97.26\",\"\",\"\",\"\",\"\",\"\",\"Fog\"\r\n\"-54.00\",\"47.30\",\"ARGENTIA
        A\",\"8400100\",\"1965-01-04 03:30\",\"1965\",\"01\",\"04\",\"03:30\",\"1.1\",\"\",\"1.1\",\"\",\"100\",\"\",\"\",\"\",\"0\",\"\",\"11.3\",\"\",\"97.22\",\"\",\"\",\"\",\"\",\"\",\"Cloudy\"\r\n\"-54.00\",\"47.30\",\"ARGENTIA
        A\",\"8400100\",\"1965-01-04 04:30\",\"1965\",\"01\",\"04\",\"04:30\",\"1.1\",\"\",\"1.1\",\"\",\"100\",\"\",\"\",\"\",\"0\",\"\",\"11.3\",\"\",\"97.22\",\"\",\"\",\"\",\"\",\"\",\"Cloudy\"\r\n\"-54.00\",\"47.30\",\"ARGENTIA
        A\",\"8400100\",\"1965-01-04 05:30\",\"1965\",\"01\",\"04\",\"05:30\",\"1.1\",\"\",\"1.1\",\"\",\"100\",\"\",\"11\",\"\",\"8\",\"\",\"9.7\",\"\",\"97.22\",\"\",\"\",\"\",\"\",\"\",\"Fog\"\r\n\"-54.00\",\"47.30\",\"ARGENTIA
        A\",\"8400100\",\"1965-01-04 06:30\",\"1965\",\"01\",\"04\",\"06:30\",\"1.1\",\"\",\"1.1\",\"\",\"100\",\"\",\"\",\"\",\"0\",\"\",\"9.7\",\"\",\"97.22\",\"\",\"\",\"\",\"\",\"\",\"Fog\"\r\n\"-54.00\",\"47.30\",\"ARGENTIA
        A\",\"8400100\",\"1965-01-04 07:30\",\"1965\",\"01\",\"04\",\"07:30\",\"1.1\",\"\",\"1.1\",\"\",\"100\",\"\",\"\",\"\",\"0\",\"\",\"4.8\",\"\",\"97.22\",\"\",\"\",\"\",\"\",\"\",\"Fog\"\r\n\"-54.00\",\"47.30\",\"ARGENTIA
        A\",\"8400100\",\"1965-01-04 08:30\",\"1965\",\"01\",\"04\",\"08:30\",\"1.1\",\"\",\"1.1\",\"\",\"100\",\"\",\"\",\"\",\"0\",\"\",\"0.2\",\"\",\"97.26\",\"\",\"\",\"\",\"\",\"\",\"Fog\"\r\n\"-54.00\",\"47.30\",\"ARGENTIA
        A\",\"8400100\",\"1965-01-04 09:30\",\"1965\",\"01\",\"04\",\"09:30\",\"1.1\",\"\",\"1.1\",\"\",\"100\",\"\",\"23\",\"\",\"5\",\"\",\"4.8\",\"\",\"97.22\",\"\",\"\",\"\",\"\",\"\",\"Fog\"\r\n\"-54.00\",\"47.30\",\"ARGENTIA
        A\",\"8400100\",\"1965-01-04 10:30\",\"1965\",\"01\",\"04\",\"10:30\",\"1.7\",\"\",\"1.7\",\"\",\"100\",\"\",\"27\",\"\",\"11\",\"\",\"4.0\",\"\",\"97.36\",\"\",\"\",\"\",\"\",\"\",\"Fog\"\r\n\"-54.00\",\"47.30\",\"ARGENTIA
        A\",\"8400100\",\"1965-01-04 11:30\",\"1965\",\"01\",\"04\",\"11:30\",\"1.7\",\"\",\"1.7\",\"\",\"100\",\"\",\"23\",\"\",\"8\",\"\",\"1.2\",\"\",\"97.36\",\"\",\"\",\"\",\"\",\"\",\"Fog\"\r\n\"-54.00\",\"47.30\",\"ARGENTIA
        A\",\"8400100\",\"1965-01-04 12:30\",\"1965\",\"01\",\"04\",\"12:30\",\"1.7\",\"\",\"1.7\",\"\",\"100\",\"\",\"25\",\"\",\"11\",\"\",\"11.3\",\"\",\"97.33\",\"\",\"\",\"\",\"\",\"\",\"Cloudy\"\r\n\"-54.00\",\"47.30\",\"ARGENTIA
        A\",\"8400100\",\"1965-01-04 13:30\",\"1965\",\"01\",\"04\",\"13:30\",\"1.7\",\"\",\"1.7\",\"\",\"100\",\"\",\"25\",\"\",\"8\",\"\",\"16.1\",\"\",\"97.36\",\"\",\"\",\"\",\"\",\"\",\"Cloudy\"\r\n\"-54.00\",\"47.30\",\"ARGENTIA
        A\",\"8400100\",\"1965-01-04 14:30\",\"1965\",\"01\",\"04\",\"14:30\",\"1.7\",\"\",\"1.1\",\"\",\"96\",\"\",\"29\",\"\",\"14\",\"\",\"19.3\",\"\",\"97.39\",\"\",\"\",\"\",\"\",\"\",\"Cloudy\"\r\n\"-54.00\",\"47.30\",\"ARGENTIA
        A\",\"8400100\",\"1965-01-04 15:30\",\"1965\",\"01\",\"04\",\"15:30\",\"1.7\",\"\",\"1.1\",\"\",\"96\",\"\",\"27\",\"\",\"13\",\"\",\"19.3\",\"\",\"97.39\",\"\",\"\",\"\",\"\",\"\",\"Cloudy\"\r\n\"-54.00\",\"47.30\",\"ARGENTIA
        A\",\"8400100\",\"1965-01-04 16:30\",\"1965\",\"01\",\"04\",\"16:30\",\"1.7\",\"\",\"0.6\",\"\",\"92\",\"\",\"27\",\"\",\"10\",\"\",\"19.3\",\"\",\"97.46\",\"\",\"\",\"\",\"\",\"\",\"Cloudy\"\r\n\"-54.00\",\"47.30\",\"ARGENTIA
        A\",\"8400100\",\"1965-01-04 17:30\",\"1965\",\"01\",\"04\",\"17:30\",\"2.2\",\"\",\"1.1\",\"\",\"92\",\"\",\"27\",\"\",\"14\",\"\",\"19.3\",\"\",\"97.60\",\"\",\"\",\"\",\"\",\"\",\"Cloudy\"\r\n\"-54.00\",\"47.30\",\"ARGENTIA
        A\",\"8400100\",\"1965-01-04 18:30\",\"1965\",\"01\",\"04\",\"18:30\",\"2.2\",\"\",\"1.1\",\"\",\"92\",\"\",\"27\",\"\",\"14\",\"\",\"19.3\",\"\",\"97.73\",\"\",\"\",\"\",\"\",\"\",\"Cloudy\"\r\n\"-54.00\",\"47.30\",\"ARGENTIA
        A\",\"8400100\",\"1965-01-04 19:30\",\"1965\",\"01\",\"04\",\"19:30\",\"1.7\",\"\",\"1.1\",\"\",\"96\",\"\",\"29\",\"\",\"19\",\"\",\"19.3\",\"\",\"97.77\",\"\",\"\",\"\",\"\",\"\",\"Cloudy\"\r\n\"-54.00\",\"47.30\",\"ARGENTIA
        A\",\"8400100\",\"1965-01-04 20:30\",\"1965\",\"01\",\"04\",\"20:30\",\"1.7\",\"\",\"1.1\",\"\",\"96\",\"\",\"29\",\"\",\"19\",\"\",\"19.3\",\"\",\"97.83\",\"\",\"\",\"\",\"\",\"\",\"Mostly
        Cloudy\"\r\n\"-54.00\",\"47.30\",\"ARGENTIA A\",\"8400100\",\"1965-01-04 21:30\",\"1965\",\"01\",\"04\",\"21:30\",\"1.7\",\"\",\"1.1\",\"\",\"96\",\"\",\"29\",\"\",\"23\",\"\",\"19.3\",\"\",\"97.90\",\"\",\"\",\"\",\"\",\"\",\"Cloudy\"\r\n\"-54.00\",\"47.30\",\"ARGENTIA
        A\",\"8400100\",\"1965-01-04 22:30\",\"1965\",\"01\",\"04\",\"22:30\",\"2.2\",\"\",\"1.1\",\"\",\"92\",\"\",\"27\",\"\",\"24\",\"\",\"16.1\",\"\",\"97.93\",\"\",\"\",\"\",\"\",\"\",\"Cloudy\"\r\n\"-54.00\",\"47.30\",\"ARGENTIA
        A\",\"8400100\",\"1965-01-04 23:30\",\"1965\",\"01\",\"04\",\"23:30\",\"2.2\",\"\",\"1.1\",\"\",\"92\",\"\",\"27\",\"\",\"19\",\"\",\"16.1\",\"\",\"97.93\",\"\",\"\",\"\",\"\",\"\",\"Cloudy\"\r\n\"-54.00\",\"47.30\",\"ARGENTIA
        A\",\"8400100\",\"1965-01-05 00:30\",\"1965\",\"01\",\"05\",\"00:30\",\"1.7\",\"\",\"0.6\",\"\",\"92\",\"\",\"27\",\"\",\"26\",\"\",\"16.1\",\"\",\"97.93\",\"\",\"\",\"\",\"\",\"\",\"Cloudy\"\r\n\"-54.00\",\"47.30\",\"ARGENTIA
        A\",\"8400100\",\"1965-01-05 01:30\",\"1965\",\"01\",\"05\",\"01:30\",\"1.7\",\"\",\"1.1\",\"\",\"96\",\"\",\"27\",\"\",\"24\",\"\",\"16.1\",\"\",\"97.97\",\"\",\"\",\"\",\"\",\"\",\"Cloudy\"\r\n\"-54.00\",\"47.30\",\"ARGENTIA
        A\",\"8400100\",\"1965-01-05 02:30\",\"1965\",\"01\",\"05\",\"02:30\",\"1.7\",\"\",\"0.6\",\"\",\"92\",\"\",\"27\",\"\",\"26\",\"\",\"16.1\",\"\",\"97.93\",\"\",\"\",\"\",\"\",\"\",\"Cloudy\"\r\n\"-54.00\",\"47.30\",\"ARGENTIA
        A\",\"8400100\",\"1965-01-05 03:30\",\"1965\",\"01\",\"05\",\"03:30\",\"1.7\",\"\",\"0.0\",\"\",\"89\",\"\",\"27\",\"\",\"27\",\"\",\"16.1\",\"\",\"98.10\",\"\",\"\",\"\",\"\",\"\",\"Cloudy\"\r\n\"-54.00\",\"47.30\",\"ARGENTIA
        A\",\"8400100\",\"1965-01-05 04:30\",\"1965\",\"01\",\"05\",\"04:30\",\"1.1\",\"\",\"0.0\",\"\",\"92\",\"\",\"27\",\"\",\"34\",\"\",\"19.3\",\"\",\"98.10\",\"\",\"\",\"\",\"\",\"\",\"Cloudy\"\r\n\"-54.00\",\"47.30\",\"ARGENTIA
        A\",\"8400100\",\"1965-01-05 05:30\",\"1965\",\"01\",\"05\",\"05:30\",\"0.6\",\"\",\"-1.1\",\"\",\"89\",\"\",\"27\",\"\",\"34\",\"\",\"19.3\",\"\",\"98.14\",\"\",\"\",\"\",\"\",\"\",\"Cloudy\"\r\n\"-54.00\",\"47.30\",\"ARGENTIA
        A\",\"8400100\",\"1965-01-05 06:30\",\"1965\",\"01\",\"05\",\"06:30\",\"1.1\",\"\",\"-1.7\",\"\",\"82\",\"\",\"27\",\"\",\"34\",\"\",\"16.1\",\"\",\"98.24\",\"\",\"\",\"\",\"\",\"\",\"Cloudy\"\r\n\"-54.00\",\"47.30\",\"ARGENTIA
        A\",\"8400100\",\"1965-01-05 07:30\",\"1965\",\"01\",\"05\",\"07:30\",\"1.1\",\"\",\"-1.1\",\"\",\"85\",\"\",\"27\",\"\",\"29\",\"\",\"19.3\",\"\",\"98.27\",\"\",\"\",\"\",\"\",\"\",\"Cloudy\"\r\n\"-54.00\",\"47.30\",\"ARGENTIA
        A\",\"8400100\",\"1965-01-05 08:30\",\"1965\",\"01\",\"05\",\"08:30\",\"1.1\",\"\",\"-1.1\",\"\",\"85\",\"\",\"27\",\"\",\"29\",\"\",\"24.1\",\"\",\"98.34\",\"\",\"\",\"\",\"\",\"\",\"Cloudy\"\r\n\"-54.00\",\"47.30\",\"ARGENTIA
        A\",\"8400100\",\"1965-01-05 09:30\",\"1965\",\"01\",\"05\",\"09:30\",\"1.1\",\"\",\"-0.6\",\"\",\"89\",\"\",\"27\",\"\",\"34\",\"\",\"19.3\",\"\",\"98.41\",\"\",\"\",\"\",\"\",\"\",\"Cloudy\"\r\n\"-54.00\",\"47.30\",\"ARGENTIA
        A\",\"8400100\",\"1965-01-05 10:30\",\"1965\",\"01\",\"05\",\"10:30\",\"1.1\",\"\",\"0.0\",\"\",\"92\",\"\",\"25\",\"\",\"34\",\"\",\"9.7\",\"\",\"98.48\",\"\",\"\",\"\",\"\",\"\",\"Drizzle,Fog\"\r\n\"-54.00\",\"47.30\",\"ARGENTIA
        A\",\"8400100\",\"1965-01-05 11:30\",\"1965\",\"01\",\"05\",\"11:30\",\"0.6\",\"\",\"-0.6\",\"\",\"92\",\"\",\"27\",\"\",\"34\",\"\",\"4.8\",\"\",\"98.51\",\"\",\"\",\"\",\"\",\"\",\"Rain,Snow,Fog\"\r\n\"-54.00\",\"47.30\",\"ARGENTIA
        A\",\"8400100\",\"1965-01-05 12:30\",\"1965\",\"01\",\"05\",\"12:30\",\"0.0\",\"\",\"-0.6\",\"\",\"96\",\"\",\"27\",\"\",\"37\",\"\",\"2.4\",\"\",\"98.51\",\"\",\"\",\"\",\"-7\",\"\",\"Snow,Fog\"\r\n\"-54.00\",\"47.30\",\"ARGENTIA
        A\",\"8400100\",\"1965-01-05 13:30\",\"1965\",\"01\",\"05\",\"13:30\",\"0.0\",\"\",\"-0.6\",\"\",\"96\",\"\",\"27\",\"\",\"37\",\"\",\"1.6\",\"\",\"98.44\",\"\",\"\",\"\",\"-7\",\"\",\"Snow,Fog\"\r\n\"-54.00\",\"47.30\",\"ARGENTIA
        A\",\"8400100\",\"1965-01-05 14:30\",\"1965\",\"01\",\"05\",\"14:30\",\"-0.6\",\"\",\"-1.1\",\"\",\"96\",\"\",\"27\",\"\",\"37\",\"\",\"2.4\",\"\",\"98.51\",\"\",\"\",\"\",\"-8\",\"\",\"Snow,Fog\"\r\n\"-54.00\",\"47.30\",\"ARGENTIA
        A\",\"8400100\",\"1965-01-05 15:30\",\"1965\",\"01\",\"05\",\"15:30\",\"-0.6\",\"\",\"-1.1\",\"\",\"96\",\"\",\"27\",\"\",\"37\",\"\",\"2.4\",\"\",\"98.58\",\"\",\"\",\"\",\"-8\",\"\",\"Snow,Fog\"\r\n\"-54.00\",\"47.30\",\"ARGENTIA
        A\",\"8400100\",\"1965-01-05 16:30\",\"1965\",\"01\",\"05\",\"16:30\",\"-0.6\",\"\",\"-1.7\",\"\",\"92\",\"\",\"27\",\"\",\"48\",\"\",\"2.4\",\"\",\"98.65\",\"\",\"\",\"\",\"-9\",\"\",\"Snow,Fog\"\r\n\"-54.00\",\"47.30\",\"ARGENTIA
        A\",\"8400100\",\"1965-01-05 17:30\",\"1965\",\"01\",\"05\",\"17:30\",\"-1.1\",\"\",\"-2.2\",\"\",\"92\",\"\",\"27\",\"\",\"50\",\"\",\"3.2\",\"\",\"98.75\",\"\",\"\",\"\",\"-10\",\"\",\"Snow,Fog\"\r\n\"-54.00\",\"47.30\",\"ARGENTIA
        A\",\"8400100\",\"1965-01-05 18:30\",\"1965\",\"01\",\"05\",\"18:30\",\"-1.1\",\"\",\"-2.8\",\"\",\"88\",\"\",\"27\",\"\",\"48\",\"\",\"3.2\",\"\",\"98.85\",\"\",\"\",\"\",\"-9\",\"\",\"Snow\"\r\n\"-54.00\",\"47.30\",\"ARGENTIA
        A\",\"8400100\",\"1965-01-05 19:30\",\"1965\",\"01\",\"05\",\"19:30\",\"-2.2\",\"\",\"-2.8\",\"\",\"96\",\"\",\"27\",\"\",\"51\",\"\",\"2.4\",\"\",\"98.88\",\"\",\"\",\"\",\"-11\",\"\",\"Snow\"\r\n\"-54.00\",\"47.30\",\"ARGENTIA
        A\",\"8400100\",\"1965-01-05 20:30\",\"1965\",\"01\",\"05\",\"20:30\",\"-2.2\",\"\",\"-2.8\",\"\",\"96\",\"\",\"27\",\"\",\"56\",\"\",\"2.4\",\"\",\"98.92\",\"\",\"\",\"\",\"-12\",\"\",\"Snow\"\r\n\"-54.00\",\"47.30\",\"ARGENTIA
        A\",\"8400100\",\"1965-01-05 21:30\",\"1965\",\"01\",\"05\",\"21:30\",\"-2.2\",\"\",\"-3.3\",\"\",\"92\",\"\",\"27\",\"\",\"60\",\"\",\"2.4\",\"\",\"98.95\",\"\",\"\",\"\",\"-12\",\"\",\"Snow,Blowing
        Snow\"\r\n\"-54.00\",\"47.30\",\"ARGENTIA A\",\"8400100\",\"1965-01-05 22:30\",\"1965\",\"01\",\"05\",\"22:30\",\"-1.7\",\"\",\"-4.4\",\"\",\"81\",\"\",\"27\",\"\",\"60\",\"\",\"4.8\",\"\",\"98.98\",\"\",\"\",\"\",\"-11\",\"\",\"Snow,Blowing
        Snow\"\r\n\"-54.00\",\"47.30\",\"ARGENTIA A\",\"8400100\",\"1965-01-05 23:30\",\"1965\",\"01\",\"05\",\"23:30\",\"-1.7\",\"\",\"-4.4\",\"\",\"81\",\"\",\"27\",\"\",\"60\",\"\",\"9.7\",\"\",\"99.05\",\"\",\"\",\"\",\"-11\",\"\",\"Snow\"\r\n\"-54.00\",\"47.30\",\"ARGENTIA
        A\",\"8400100\",\"1965-01-06 00:30\",\"1965\",\"01\",\"06\",\"00:30\",\"-1.7\",\"\",\"-3.3\",\"\",\"88\",\"\",\"27\",\"\",\"60\",\"\",\"4.8\",\"\",\"99.12\",\"\",\"\",\"\",\"-11\",\"\",\"Snow,Blowing
        Snow\"\r\n\"-54.00\",\"47.30\",\"ARGENTIA A\",\"8400100\",\"1965-01-06 01:30\",\"1965\",\"01\",\"06\",\"01:30\",\"-1.1\",\"\",\"-2.8\",\"\",\"88\",\"\",\"27\",\"\",\"56\",\"\",\"4.8\",\"\",\"99.29\",\"\",\"\",\"\",\"-10\",\"\",\"Snow,Blowing
        Snow\"\r\n\"-54.00\",\"47.30\",\"ARGENTIA A\",\"8400100\",\"1965-01-06 02:30\",\"1965\",\"01\",\"06\",\"02:30\",\"-1.1\",\"\",\"-2.8\",\"\",\"88\",\"\",\"27\",\"\",\"51\",\"\",\"4.8\",\"\",\"99.36\",\"\",\"\",\"\",\"-10\",\"\",\"Snow,Blowing
        Snow\"\r\n\"-54.00\",\"47.30\",\"ARGENTIA A\",\"8400100\",\"1965-01-06 03:30\",\"1965\",\"01\",\"06\",\"03:30\",\"-1.1\",\"\",\"-2.2\",\"\",\"92\",\"\",\"27\",\"\",\"48\",\"\",\"6.4\",\"\",\"99.46\",\"\",\"\",\"\",\"-9\",\"\",\"Snow,Blowing
        Snow\"\r\n\"-54.00\",\"47.30\",\"ARGENTIA A\",\"8400100\",\"1965-01-06 04:30\",\"1965\",\"01\",\"06\",\"04:30\",\"-0.6\",\"\",\"-2.2\",\"\",\"88\",\"\",\"29\",\"\",\"37\",\"\",\"6.4\",\"\",\"99.53\",\"\",\"\",\"\",\"-8\",\"\",\"Snow\"\r\n\"-54.00\",\"47.30\",\"ARGENTIA
        A\",\"8400100\",\"1965-01-06 05:30\",\"1965\",\"01\",\"06\",\"05:30\",\"0.0\",\"\",\"-1.1\",\"\",\"92\",\"\",\"27\",\"\",\"29\",\"\",\"6.4\",\"\",\"99.63\",\"\",\"\",\"\",\"-6\",\"\",\"Snow\"\r\n\"-54.00\",\"47.30\",\"ARGENTIA
        A\",\"8400100\",\"1965-01-06 06:30\",\"1965\",\"01\",\"06\",\"06:30\",\"0.6\",\"\",\"-1.1\",\"\",\"89\",\"\",\"29\",\"\",\"26\",\"\",\"8.0\",\"\",\"99.83\",\"\",\"\",\"\",\"\",\"\",\"Snow\"\r\n\"-54.00\",\"47.30\",\"ARGENTIA
        A\",\"8400100\",\"1965-01-06 07:30\",\"1965\",\"01\",\"06\",\"07:30\",\"0.6\",\"\",\"-1.7\",\"\",\"85\",\"\",\"32\",\"\",\"27\",\"\",\"9.7\",\"\",\"100.24\",\"\",\"\",\"\",\"\",\"\",\"Snow\"\r\n\"-54.00\",\"47.30\",\"ARGENTIA
        A\",\"8400100\",\"1965-01-06 08:30\",\"1965\",\"01\",\"06\",\"08:30\",\"0.6\",\"\",\"-1.1\",\"\",\"89\",\"\",\"32\",\"\",\"26\",\"\",\"19.3\",\"\",\"100.41\",\"\",\"\",\"\",\"\",\"\",\"Cloudy\"\r\n\"-54.00\",\"47.30\",\"ARGENTIA
        A\",\"8400100\",\"1965-01-06 09:30\",\"1965\",\"01\",\"06\",\"09:30\",\"0.6\",\"\",\"-1.7\",\"\",\"85\",\"\",\"32\",\"\",\"26\",\"\",\"19.3\",\"\",\"100.61\",\"\",\"\",\"\",\"\",\"\",\"Cloudy\"\r\n\"-54.00\",\"47.30\",\"ARGENTIA
        A\",\"8400100\",\"1965-01-06 10:30\",\"1965\",\"01\",\"06\",\"10:30\",\"0.6\",\"\",\"-1.7\",\"\",\"85\",\"\",\"32\",\"\",\"24\",\"\",\"19.3\",\"\",\"100.71\",\"\",\"\",\"\",\"\",\"\",\"Cloudy\"\r\n\"-54.00\",\"47.30\",\"ARGENTIA
        A\",\"8400100\",\"1965-01-06 11:30\",\"1965\",\"01\",\"06\",\"11:30\",\"0.6\",\"\",\"-1.7\",\"\",\"85\",\"\",\"32\",\"\",\"23\",\"\",\"19.3\",\"\",\"100.81\",\"\",\"\",\"\",\"\",\"\",\"Cloudy\"\r\n\"-54.00\",\"47.30\",\"ARGENTIA
        A\",\"8400100\",\"1965-01-06 12:30\",\"1965\",\"01\",\"06\",\"12:30\",\"0.6\",\"\",\"-2.2\",\"\",\"82\",\"\",\"34\",\"\",\"19\",\"\",\"19.3\",\"\",\"100.91\",\"\",\"\",\"\",\"\",\"\",\"Cloudy\"\r\n\"-54.00\",\"47.30\",\"ARGENTIA
        A\",\"8400100\",\"1965-01-06 13:30\",\"1965\",\"01\",\"06\",\"13:30\",\"0.6\",\"\",\"-2.2\",\"\",\"82\",\"\",\"36\",\"\",\"13\",\"\",\"24.1\",\"\",\"100.98\",\"\",\"\",\"\",\"\",\"\",\"Cloudy\"\r\n\"-54.00\",\"47.30\",\"ARGENTIA
        A\",\"8400100\",\"1965-01-06 14:30\",\"1965\",\"01\",\"06\",\"14:30\",\"0.6\",\"\",\"-3.3\",\"\",\"75\",\"\",\"2\",\"\",\"14\",\"\",\"24.1\",\"\",\"101.05\",\"\",\"\",\"\",\"\",\"\",\"Cloudy\"\r\n\"-54.00\",\"47.30\",\"ARGENTIA
        A\",\"8400100\",\"1965-01-06 15:30\",\"1965\",\"01\",\"06\",\"15:30\",\"0.6\",\"\",\"-3.3\",\"\",\"75\",\"\",\"2\",\"\",\"8\",\"\",\"24.1\",\"\",\"101.15\",\"\",\"\",\"\",\"\",\"\",\"Cloudy\"\r\n\"-54.00\",\"47.30\",\"ARGENTIA
        A\",\"8400100\",\"1965-01-06 16:30\",\"1965\",\"01\",\"06\",\"16:30\",\"0.6\",\"\",\"-3.3\",\"\",\"75\",\"\",\"2\",\"\",\"8\",\"\",\"24.1\",\"\",\"101.25\",\"\",\"\",\"\",\"\",\"\",\"Cloudy\"\r\n\"-54.00\",\"47.30\",\"ARGENTIA
        A\",\"8400100\",\"1965-01-06 17:30\",\"1965\",\"01\",\"06\",\"17:30\",\"0.6\",\"\",\"-2.2\",\"\",\"82\",\"\",\"\",\"\",\"0\",\"\",\"16.1\",\"\",\"101.39\",\"\",\"\",\"\",\"\",\"\",\"Cloudy\"\r\n\"-54.00\",\"47.30\",\"ARGENTIA
        A\",\"8400100\",\"1965-01-06 18:30\",\"1965\",\"01\",\"06\",\"18:30\",\"0.0\",\"\",\"-2.2\",\"\",\"85\",\"\",\"9\",\"\",\"5\",\"\",\"16.1\",\"\",\"101.46\",\"\",\"\",\"\",\"-2\",\"\",\"Cloudy\"\r\n\"-54.00\",\"47.30\",\"ARGENTIA
        A\",\"8400100\",\"1965-01-06 19:30\",\"1965\",\"01\",\"06\",\"19:30\",\"0.0\",\"\",\"-1.7\",\"\",\"89\",\"\",\"9\",\"\",\"5\",\"\",\"16.1\",\"\",\"101.46\",\"\",\"\",\"\",\"-2\",\"\",\"Cloudy\"\r\n\"-54.00\",\"47.30\",\"ARGENTIA
        A\",\"8400100\",\"1965-01-06 20:30\",\"1965\",\"01\",\"06\",\"20:30\",\"0.0\",\"\",\"-1.7\",\"\",\"89\",\"\",\"9\",\"\",\"10\",\"\",\"16.1\",\"\",\"101.52\",\"\",\"\",\"\",\"-3\",\"\",\"Cloudy\"\r\n\"-54.00\",\"47.30\",\"ARGENTIA
        A\",\"8400100\",\"1965-01-06 21:30\",\"1965\",\"01\",\"06\",\"21:30\",\"0.0\",\"\",\"-1.7\",\"\",\"89\",\"\",\"11\",\"\",\"48\",\"\",\"16.1\",\"\",\"101.56\",\"\",\"\",\"\",\"-8\",\"\",\"Cloudy\"\r\n\"-54.00\",\"47.30\",\"ARGENTIA
        A\",\"8400100\",\"1965-01-06 22:30\",\"1965\",\"01\",\"06\",\"22:30\",\"0.0\",\"\",\"-1.7\",\"\",\"89\",\"\",\"14\",\"\",\"14\",\"\",\"12.9\",\"\",\"101.59\",\"\",\"\",\"\",\"-4\",\"\",\"Rain\"\r\n\"-54.00\",\"47.30\",\"ARGENTIA
        A\",\"8400100\",\"1965-01-06 23:30\",\"1965\",\"01\",\"06\",\"23:30\",\"-0.6\",\"\",\"-1.1\",\"\",\"96\",\"\",\"18\",\"\",\"16\",\"\",\"2.4\",\"\",\"101.69\",\"\",\"\",\"\",\"-5\",\"\",\"Snow\"\r\n\"-54.00\",\"47.30\",\"ARGENTIA
        A\",\"8400100\",\"1965-01-07 00:30\",\"1965\",\"01\",\"07\",\"00:30\",\"-0.6\",\"\",\"-1.1\",\"\",\"96\",\"\",\"20\",\"\",\"16\",\"\",\"3.2\",\"\",\"101.69\",\"\",\"\",\"\",\"-5\",\"\",\"Snow\"\r\n\"-54.00\",\"47.30\",\"ARGENTIA
        A\",\"8400100\",\"1965-01-07 01:30\",\"1965\",\"01\",\"07\",\"01:30\",\"-0.6\",\"\",\"-1.1\",\"\",\"96\",\"\",\"20\",\"\",\"19\",\"\",\"12.9\",\"\",\"101.80\",\"\",\"\",\"\",\"-6\",\"\",\"Cloudy\"\r\n\"-54.00\",\"47.30\",\"ARGENTIA
        A\",\"8400100\",\"1965-01-07 02:30\",\"1965\",\"01\",\"07\",\"02:30\",\"-1.1\",\"\",\"-2.2\",\"\",\"92\",\"\",\"20\",\"\",\"14\",\"\",\"12.9\",\"\",\"101.83\",\"\",\"\",\"\",\"-6\",\"\",\"Cloudy\"\r\n\"-54.00\",\"47.30\",\"ARGENTIA
        A\",\"8400100\",\"1965-01-07 03:30\",\"1965\",\"01\",\"07\",\"03:30\",\"-1.1\",\"\",\"-3.3\",\"\",\"85\",\"\",\"16\",\"\",\"19\",\"\",\"16.1\",\"\",\"101.83\",\"\",\"\",\"\",\"-6\",\"\",\"Mostly
        Cloudy\"\r\n\"-54.00\",\"47.30\",\"ARGENTIA A\",\"8400100\",\"1965-01-07 04:30\",\"1965\",\"01\",\"07\",\"04:30\",\"-1.1\",\"\",\"-3.3\",\"\",\"85\",\"\",\"16\",\"\",\"19\",\"\",\"16.1\",\"\",\"101.83\",\"\",\"\",\"\",\"-6\",\"\",\"Mostly
        Cloudy\"\r\n\"-54.00\",\"47.30\",\"ARGENTIA A\",\"8400100\",\"1965-01-07 05:30\",\"1965\",\"01\",\"07\",\"05:30\",\"-1.1\",\"\",\"-3.9\",\"\",\"81\",\"\",\"14\",\"\",\"21\",\"\",\"16.1\",\"\",\"101.90\",\"\",\"\",\"\",\"-7\",\"\",\"Mostly
        Cloudy\"\r\n\"-54.00\",\"47.30\",\"ARGENTIA A\",\"8400100\",\"1965-01-07 06:30\",\"1965\",\"01\",\"07\",\"06:30\",\"-1.1\",\"\",\"-3.9\",\"\",\"81\",\"\",\"14\",\"\",\"23\",\"\",\"16.1\",\"\",\"101.90\",\"\",\"\",\"\",\"-7\",\"\",\"Cloudy\"\r\n\"-54.00\",\"47.30\",\"ARGENTIA
        A\",\"8400100\",\"1965-01-07 07:30\",\"1965\",\"01\",\"07\",\"07:30\",\"-1.1\",\"\",\"-3.3\",\"\",\"85\",\"\",\"11\",\"\",\"14\",\"\",\"16.1\",\"\",\"101.93\",\"\",\"\",\"\",\"-6\",\"\",\"Mostly
        Cloudy\"\r\n\"-54.00\",\"47.30\",\"ARGENTIA A\",\"8400100\",\"1965-01-07 08:30\",\"1965\",\"01\",\"07\",\"08:30\"\r\n\"-54.00\",\"47.30\",\"ARGENTIA
        A\",\"8400100\",\"1965-01-07 09:30\",\"1965\",\"01\",\"07\",\"09:30\",\"0.0\",\"\",\"-2.2\",\"\",\"85\",\"\",\"11\",\"\",\"29\",\"\",\"19.3\",\"\",\"101.86\",\"\",\"\",\"\",\"-6\",\"\",\"Cloudy\"\r\n\"-54.00\",\"47.30\",\"ARGENTIA
        A\",\"8400100\",\"1965-01-07 10:30\",\"1965\",\"01\",\"07\",\"10:30\",\"0.0\",\"\",\"-1.1\",\"\",\"92\",\"\",\"9\",\"\",\"21\",\"\",\"11.3\",\"\",\"101.83\",\"\",\"\",\"\",\"-5\",\"\",\"Snow\"\r\n\"-54.00\",\"47.30\",\"ARGENTIA
        A\",\"8400100\",\"1965-01-07 11:30\",\"1965\",\"01\",\"07\",\"11:30\",\"0.6\",\"\",\"-1.1\",\"\",\"89\",\"\",\"9\",\"\",\"21\",\"\",\"4.8\",\"\",\"101.76\",\"\",\"\",\"\",\"\",\"\",\"Snow\"\r\n\"-54.00\",\"47.30\",\"ARGENTIA
        A\",\"8400100\",\"1965-01-07 12:30\",\"1965\",\"01\",\"07\",\"12:30\",\"0.0\",\"\",\"-1.1\",\"\",\"92\",\"\",\"7\",\"\",\"24\",\"\",\"1.6\",\"\",\"101.59\",\"\",\"\",\"\",\"-6\",\"\",\"Snow\"\r\n\"-54.00\",\"47.30\",\"ARGENTIA
        A\",\"8400100\",\"1965-01-07 13:30\",\"1965\",\"01\",\"07\",\"13:30\",\"0.6\",\"\",\"-0.6\",\"\",\"92\",\"\",\"5\",\"\",\"26\",\"\",\"3.2\",\"\",\"101.39\",\"\",\"\",\"\",\"\",\"\",\"Snow\"\r\n\"-54.00\",\"47.30\",\"ARGENTIA
        A\",\"8400100\",\"1965-01-07 14:30\",\"1965\",\"01\",\"07\",\"14:30\",\"0.0\",\"\",\"-0.6\",\"\",\"96\",\"\",\"7\",\"\",\"23\",\"\",\"3.2\",\"\",\"101.36\",\"\",\"\",\"\",\"-6\",\"\",\"Snow\"\r\n\"-54.00\",\"47.30\",\"ARGENTIA
        A\",\"8400100\",\"1965-01-07 15:30\",\"1965\",\"01\",\"07\",\"15:30\",\"0.6\",\"\",\"0.0\",\"\",\"96\",\"\",\"7\",\"\",\"21\",\"\",\"4.8\",\"\",\"101.32\",\"\",\"\",\"\",\"\",\"\",\"Rain,Snow,Fog\"\r\n\"-54.00\",\"47.30\",\"ARGENTIA
        A\",\"8400100\",\"1965-01-07 16:30\",\"1965\",\"01\",\"07\",\"16:30\",\"0.6\",\"\",\"-0.6\",\"\",\"92\",\"\",\"7\",\"\",\"23\",\"\",\"4.8\",\"\",\"101.22\",\"\",\"\",\"\",\"\",\"\",\"Drizzle,Fog\"\r\n\"-54.00\",\"47.30\",\"ARGENTIA
        A\",\"8400100\",\"1965-01-07 17:30\",\"1965\",\"01\",\"07\",\"17:30\",\"0.6\",\"\",\"0.0\",\"\",\"96\",\"\",\"7\",\"\",\"19\",\"\",\"8.0\",\"\",\"101.12\",\"\",\"\",\"\",\"\",\"\",\"Fog\"\r\n\"-54.00\",\"47.30\",\"ARGENTIA
        A\",\"8400100\",\"1965-01-07 18:30\",\"1965\",\"01\",\"07\",\"18:30\",\"0.6\",\"\",\"0.0\",\"\",\"96\",\"\",\"7\",\"\",\"13\",\"\",\"8.0\",\"\",\"101.08\",\"\",\"\",\"\",\"\",\"\",\"Fog\"\r\n\"-54.00\",\"47.30\",\"ARGENTIA
        A\",\"8400100\",\"1965-01-07 19:30\",\"1965\",\"01\",\"07\",\"19:30\",\"1.7\",\"\",\"1.1\",\"\",\"96\",\"\",\"18\",\"\",\"8\",\"\",\"8.0\",\"\",\"101.08\",\"\",\"\",\"\",\"\",\"\",\"Drizzle,Fog\"\r\n\"-54.00\",\"47.30\",\"ARGENTIA
        A\",\"8400100\",\"1965-01-07 20:30\",\"1965\",\"01\",\"07\",\"20:30\",\"1.7\",\"\",\"1.1\",\"\",\"96\",\"\",\"20\",\"\",\"14\",\"\",\"8.0\",\"\",\"101.12\",\"\",\"\",\"\",\"\",\"\",\"Drizzle,Fog\"\r\n\"-54.00\",\"47.30\",\"ARGENTIA
        A\",\"8400100\",\"1965-01-07 21:30\",\"1965\",\"01\",\"07\",\"21:30\",\"1.7\",\"\",\"1.1\",\"\",\"96\",\"\",\"20\",\"\",\"27\",\"\",\"9.7\",\"\",\"101.12\",\"\",\"\",\"\",\"\",\"\",\"Drizzle\"\r\n\"-54.00\",\"47.30\",\"ARGENTIA
        A\",\"8400100\",\"1965-01-07 22:30\",\"1965\",\"01\",\"07\",\"22:30\",\"0.6\",\"\",\"-0.6\",\"\",\"92\",\"\",\"23\",\"\",\"29\",\"\",\"11.3\",\"\",\"101.15\",\"\",\"\",\"\",\"\",\"\",\"Cloudy\"\r\n\"-54.00\",\"47.30\",\"ARGENTIA
        A\",\"8400100\",\"1965-01-07 23:30\",\"1965\",\"01\",\"07\",\"23:30\",\"0.6\",\"\",\"-1.1\",\"\",\"89\",\"\",\"23\",\"\",\"34\",\"\",\"12.9\",\"\",\"101.25\",\"\",\"\",\"\",\"\",\"\",\"Mostly
        Cloudy\"\r\n\"-54.00\",\"47.30\",\"ARGENTIA A\",\"8400100\",\"1965-01-08 00:30\",\"1965\",\"01\",\"08\",\"00:30\",\"0.0\",\"\",\"-2.2\",\"\",\"85\",\"\",\"25\",\"\",\"47\",\"\",\"12.9\",\"\",\"101.29\",\"\",\"\",\"\",\"-8\",\"\",\"Cloudy\"\r\n\"-54.00\",\"47.30\",\"ARGENTIA
        A\",\"8400100\",\"1965-01-08 01:30\",\"1965\",\"01\",\"08\",\"01:30\",\"0.0\",\"\",\"-2.2\",\"\",\"85\",\"\",\"25\",\"\",\"43\",\"\",\"12.9\",\"\",\"101.29\",\"\",\"\",\"\",\"-8\",\"\",\"Mostly
        Cloudy\"\r\n\"-54.00\",\"47.30\",\"ARGENTIA A\",\"8400100\",\"1965-01-08 02:30\",\"1965\",\"01\",\"08\",\"02:30\",\"0.0\",\"\",\"-2.2\",\"\",\"85\",\"\",\"25\",\"\",\"45\",\"\",\"12.9\",\"\",\"101.32\",\"\",\"\",\"\",\"-8\",\"\",\"Cloudy\"\r\n\"-54.00\",\"47.30\",\"ARGENTIA
        A\",\"8400100\",\"1965-01-08 03:30\",\"1965\",\"01\",\"08\",\"03:30\",\"0.0\",\"\",\"-2.2\",\"\",\"85\",\"\",\"25\",\"\",\"48\",\"\",\"12.9\",\"\",\"101.32\",\"\",\"\",\"\",\"-8\",\"\",\"Cloudy\"\r\n\"-54.00\",\"47.30\",\"ARGENTIA
        A\",\"8400100\",\"1965-01-08 04:30\",\"1965\",\"01\",\"08\",\"04:30\",\"0.0\",\"\",\"-3.3\",\"\",\"78\",\"\",\"25\",\"\",\"45\",\"\",\"12.9\",\"\",\"101.32\",\"\",\"\",\"\",\"-8\",\"\",\"Cloudy\"\r\n\"-54.00\",\"47.30\",\"ARGENTIA
        A\",\"8400100\",\"1965-01-08 05:30\",\"1965\",\"01\",\"08\",\"05:30\",\"0.0\",\"\",\"-3.3\",\"\",\"78\",\"\",\"25\",\"\",\"48\",\"\",\"12.9\",\"\",\"101.32\",\"\",\"\",\"\",\"-8\",\"\",\"Cloudy\"\r\n\"-54.00\",\"47.30\",\"ARGENTIA
        A\",\"8400100\",\"1965-01-08 06:30\",\"1965\",\"01\",\"08\",\"06:30\",\"0.0\",\"\",\"-2.8\",\"\",\"82\",\"\",\"25\",\"\",\"50\",\"\",\"12.9\",\"\",\"101.29\",\"\",\"\",\"\",\"-8\",\"\",\"Cloudy\"\r\n\"-54.00\",\"47.30\",\"ARGENTIA
        A\",\"8400100\",\"1965-01-08 07:30\",\"1965\",\"01\",\"08\",\"07:30\"\r\n\"-54.00\",\"47.30\",\"ARGENTIA
        A\",\"8400100\",\"1965-01-08 08:30\",\"1965\",\"01\",\"08\",\"08:30\",\"-1.1\",\"\",\"-5.0\",\"\",\"75\",\"\",\"25\",\"\",\"37\",\"\",\"24.1\",\"\",\"101.42\",\"\",\"\",\"\",\"-9\",\"\",\"Mostly
        Cloudy\"\r\n\"-54.00\",\"47.30\",\"ARGENTIA A\",\"8400100\",\"1965-01-08 09:30\",\"1965\",\"01\",\"08\",\"09:30\",\"-1.1\",\"\",\"-5.0\",\"\",\"75\",\"\",\"27\",\"\",\"37\",\"\",\"24.1\",\"\",\"101.46\",\"\",\"\",\"\",\"-9\",\"\",\"Mostly
        Cloudy\"\r\n\"-54.00\",\"47.30\",\"ARGENTIA A\",\"8400100\",\"1965-01-08 10:30\",\"1965\",\"01\",\"08\",\"10:30\",\"-1.1\",\"\",\"-5.6\",\"\",\"72\",\"\",\"27\",\"\",\"37\",\"\",\"24.1\",\"\",\"101.42\",\"\",\"\",\"\",\"-9\",\"\",\"Mostly
        Cloudy\"\r\n\"-54.00\",\"47.30\",\"ARGENTIA A\",\"8400100\",\"1965-01-08 11:30\",\"1965\",\"01\",\"08\",\"11:30\",\"-0.6\",\"\",\"-5.6\",\"\",\"69\",\"\",\"29\",\"\",\"45\",\"\",\"24.1\",\"\",\"101.36\",\"\",\"\",\"\",\"-9\",\"\",\"Mostly
        Cloudy\"\r\n\"-54.00\",\"47.30\",\"ARGENTIA A\",\"8400100\",\"1965-01-08 12:30\",\"1965\",\"01\",\"08\",\"12:30\",\"-1.1\",\"\",\"-6.1\",\"\",\"69\",\"\",\"27\",\"\",\"48\",\"\",\"24.1\",\"\",\"101.29\",\"\",\"\",\"\",\"-9\",\"\",\"Mostly
        Cloudy\"\r\n\"-54.00\",\"47.30\",\"ARGENTIA A\",\"8400100\",\"1965-01-08 13:30\",\"1965\",\"01\",\"08\",\"13:30\",\"-1.1\",\"\",\"-6.1\",\"\",\"69\",\"\",\"29\",\"\",\"51\",\"\",\"24.1\",\"\",\"101.22\",\"\",\"\",\"\",\"-10\",\"\",\"Mostly
        Cloudy\"\r\n\"-54.00\",\"47.30\",\"ARGENTIA A\",\"8400100\",\"1965-01-08 14:30\",\"1965\",\"01\",\"08\",\"14:30\",\"-1.7\",\"\",\"-7.2\",\"\",\"66\",\"\",\"29\",\"\",\"48\",\"\",\"24.1\",\"\",\"101.22\",\"\",\"\",\"\",\"-10\",\"\",\"Mostly
        Cloudy\"\r\n\"-54.00\",\"47.30\",\"ARGENTIA A\",\"8400100\",\"1965-01-08 15:30\",\"1965\",\"01\",\"08\",\"15:30\",\"-2.2\",\"\",\"-7.8\",\"\",\"66\",\"\",\"29\",\"\",\"48\",\"\",\"24.1\",\"\",\"101.25\",\"\",\"\",\"\",\"-11\",\"\",\"Mostly
        Cloudy\"\r\n\"-54.00\",\"47.30\",\"ARGENTIA A\",\"8400100\",\"1965-01-08 16:30\",\"1965\",\"01\",\"08\",\"16:30\",\"-2.2\",\"\",\"-7.8\",\"\",\"66\",\"\",\"32\",\"\",\"56\",\"\",\"19.3\",\"\",\"101.29\",\"\",\"\",\"\",\"-12\",\"\",\"Mostly
        Cloudy\"\r\n\"-54.00\",\"47.30\",\"ARGENTIA A\",\"8400100\",\"1965-01-08 17:30\",\"1965\",\"01\",\"08\",\"17:30\",\"-2.2\",\"\",\"-8.3\",\"\",\"63\",\"\",\"32\",\"\",\"56\",\"\",\"19.3\",\"\",\"101.39\",\"\",\"\",\"\",\"-12\",\"\",\"Mostly
        Cloudy\"\r\n\"-54.00\",\"47.30\",\"ARGENTIA A\",\"8400100\",\"1965-01-08 18:30\",\"1965\",\"01\",\"08\",\"18:30\",\"-2.2\",\"\",\"-8.3\",\"\",\"63\",\"\",\"32\",\"\",\"60\",\"\",\"19.3\",\"\",\"101.39\",\"\",\"\",\"\",\"-12\",\"\",\"Mostly
        Cloudy\"\r\n\"-54.00\",\"47.30\",\"ARGENTIA A\",\"8400100\",\"1965-01-08 19:30\",\"1965\",\"01\",\"08\",\"19:30\",\"-2.2\",\"\",\"-8.3\",\"\",\"63\",\"\",\"32\",\"\",\"47\",\"\",\"19.3\",\"\",\"101.49\",\"\",\"\",\"\",\"-11\",\"\",\"Mostly
        Cloudy\"\r\n\"-54.00\",\"47.30\",\"ARGENTIA A\",\"8400100\",\"1965-01-08 20:30\",\"1965\",\"01\",\"08\",\"20:30\",\"-2.8\",\"\",\"-8.3\",\"\",\"66\",\"\",\"32\",\"\",\"40\",\"\",\"16.1\",\"\",\"101.66\",\"\",\"\",\"\",\"-11\",\"\",\"Cloudy\"\r\n\"-54.00\",\"47.30\",\"ARGENTIA
        A\",\"8400100\",\"1965-01-08 21:30\",\"1965\",\"01\",\"08\",\"21:30\",\"-3.3\",\"\",\"-7.8\",\"\",\"71\",\"\",\"32\",\"\",\"53\",\"\",\"16.1\",\"\",\"101.66\",\"\",\"\",\"\",\"-13\",\"\",\"Mostly
        Cloudy\"\r\n\"-54.00\",\"47.30\",\"ARGENTIA A\",\"8400100\",\"1965-01-08 22:30\",\"1965\",\"01\",\"08\",\"22:30\",\"-3.3\",\"\",\"-8.3\",\"\",\"68\",\"\",\"32\",\"\",\"51\",\"\",\"16.1\",\"\",\"101.80\",\"\",\"\",\"\",\"-13\",\"\",\"Mainly
        Clear\"\r\n\"-54.00\",\"47.30\",\"ARGENTIA A\",\"8400100\",\"1965-01-08 23:30\",\"1965\",\"01\",\"08\",\"23:30\",\"-3.9\",\"\",\"-8.9\",\"\",\"68\",\"\",\"32\",\"\",\"50\",\"\",\"16.1\",\"\",\"101.83\",\"\",\"\",\"\",\"-13\",\"\",\"Mainly
        Clear\"\r\n\"-54.00\",\"47.30\",\"ARGENTIA A\",\"8400100\",\"1965-01-09 00:30\",\"1965\",\"01\",\"09\",\"00:30\",\"-4.4\",\"\",\"-11.1\",\"\",\"60\",\"\",\"32\",\"\",\"53\",\"\",\"16.1\",\"\",\"101.93\",\"\",\"\",\"\",\"-14\",\"\",\"Mainly
        Clear\"\r\n\"-54.00\",\"47.30\",\"ARGENTIA A\",\"8400100\",\"1965-01-09 01:30\",\"1965\",\"01\",\"09\",\"01:30\",\"-5.0\",\"\",\"-11.7\",\"\",\"59\",\"\",\"32\",\"\",\"45\",\"\",\"16.1\",\"\",\"102.00\",\"\",\"\",\"\",\"-15\",\"\",\"Mainly
        Clear\"\r\n\"-54.00\",\"47.30\",\"ARGENTIA A\",\"8400100\",\"1965-01-09 02:30\",\"1965\",\"01\",\"09\",\"02:30\",\"-5.0\",\"\",\"-12.2\",\"\",\"57\",\"\",\"32\",\"\",\"34\",\"\",\"16.1\",\"\",\"102.13\",\"\",\"\",\"\",\"-13\",\"\",\"Mainly
        Clear\"\r\n\"-54.00\",\"47.30\",\"ARGENTIA A\",\"8400100\",\"1965-01-09 03:30\",\"1965\",\"01\",\"09\",\"03:30\",\"-4.4\",\"\",\"-12.2\",\"\",\"55\",\"\",\"29\",\"\",\"26\",\"\",\"16.1\",\"\",\"102.24\",\"\",\"\",\"\",\"-12\",\"\",\"Mainly
        Clear\"\r\n\"-54.00\",\"47.30\",\"ARGENTIA A\",\"8400100\",\"1965-01-09 04:30\",\"1965\",\"01\",\"09\",\"04:30\",\"-3.9\",\"\",\"-12.2\",\"\",\"52\",\"\",\"32\",\"\",\"23\",\"\",\"16.1\",\"\",\"102.30\",\"\",\"\",\"\",\"-11\",\"\",\"Mainly
        Clear\"\r\n\"-54.00\",\"47.30\",\"ARGENTIA A\",\"8400100\",\"1965-01-09 05:30\",\"1965\",\"01\",\"09\",\"05:30\",\"-4.4\",\"\",\"-12.2\",\"\",\"55\",\"\",\"34\",\"\",\"26\",\"\",\"16.1\",\"\",\"102.30\",\"\",\"\",\"\",\"-12\",\"\",\"Clear\"\r\n\"-54.00\",\"47.30\",\"ARGENTIA
        A\",\"8400100\",\"1965-01-09 06:30\",\"1965\",\"01\",\"09\",\"06:30\",\"-4.4\",\"\",\"-12.2\",\"\",\"55\",\"\",\"9\",\"\",\"58\",\"\",\"16.1\",\"\",\"102.37\",\"\",\"\",\"\",\"-15\",\"\",\"Clear\"\r\n\"-54.00\",\"47.30\",\"ARGENTIA
        A\",\"8400100\",\"1965-01-09 07:30\",\"1965\",\"01\",\"09\",\"07:30\",\"-4.4\",\"\",\"-11.1\",\"\",\"60\",\"\",\"27\",\"\",\"24\",\"\",\"24.1\",\"\",\"102.40\",\"\",\"\",\"\",\"-11\",\"\",\"Clear\"\r\n\"-54.00\",\"47.30\",\"ARGENTIA
        A\",\"8400100\",\"1965-01-09 08:30\",\"1965\",\"01\",\"09\",\"08:30\",\"-3.3\",\"\",\"-7.2\",\"\",\"74\",\"\",\"27\",\"\",\"23\",\"\",\"24.1\",\"\",\"102.40\",\"\",\"\",\"\",\"-10\",\"\",\"Mainly
        Clear\"\r\n\"-54.00\",\"47.30\",\"ARGENTIA A\",\"8400100\",\"1965-01-09 09:30\",\"1965\",\"01\",\"09\",\"09:30\",\"-1.1\",\"\",\"-5.0\",\"\",\"75\",\"\",\"25\",\"\",\"23\",\"\",\"24.1\",\"\",\"102.40\",\"\",\"\",\"\",\"-7\",\"\",\"Mainly
        Clear\"\r\n\"-54.00\",\"47.30\",\"ARGENTIA A\",\"8400100\",\"1965-01-09 10:30\",\"1965\",\"01\",\"09\",\"10:30\",\"-1.1\",\"\",\"-5.0\",\"\",\"75\",\"\",\"25\",\"\",\"27\",\"\",\"24.1\",\"\",\"102.44\",\"\",\"\",\"\",\"-8\",\"\",\"Mostly
        Cloudy\"\r\n\"-54.00\",\"47.30\",\"ARGENTIA A\",\"8400100\",\"1965-01-09 11:30\",\"1965\",\"01\",\"09\",\"11:30\",\"-1.1\",\"\",\"-5.0\",\"\",\"75\",\"\",\"25\",\"\",\"37\",\"\",\"24.1\",\"\",\"102.40\",\"\",\"\",\"\",\"-9\",\"\",\"Mostly
        Cloudy\"\r\n\"-54.00\",\"47.30\",\"ARGENTIA A\",\"8400100\",\"1965-01-09 12:30\",\"1965\",\"01\",\"09\",\"12:30\",\"-1.1\",\"\",\"-4.4\",\"\",\"78\",\"\",\"25\",\"\",\"32\",\"\",\"24.1\",\"\",\"102.34\",\"\",\"\",\"\",\"-8\",\"\",\"Mostly
        Cloudy\"\r\n\"-54.00\",\"47.30\",\"ARGENTIA A\",\"8400100\",\"1965-01-09 13:30\",\"1965\",\"01\",\"09\",\"13:30\",\"-1.1\",\"\",\"-5.0\",\"\",\"75\",\"\",\"23\",\"\",\"34\",\"\",\"24.1\",\"\",\"102.17\",\"\",\"\",\"\",\"-8\",\"\",\"Mostly
        Cloudy\"\r\n\"-54.00\",\"47.30\",\"ARGENTIA A\",\"8400100\",\"1965-01-09 14:30\",\"1965\",\"01\",\"09\",\"14:30\",\"-0.6\",\"\",\"-3.9\",\"\",\"78\",\"\",\"20\",\"\",\"34\",\"\",\"24.1\",\"\",\"102.03\",\"\",\"\",\"\",\"-8\",\"\",\"Mostly
        Cloudy\"\r\n\"-54.00\",\"47.30\",\"ARGENTIA A\",\"8400100\",\"1965-01-09 15:30\",\"1965\",\"01\",\"09\",\"15:30\",\"-0.6\",\"\",\"-3.9\",\"\",\"78\",\"\",\"18\",\"\",\"34\",\"\",\"16.1\",\"\",\"101.96\",\"\",\"\",\"\",\"-8\",\"\",\"Cloudy\"\r\n\"-54.00\",\"47.30\",\"ARGENTIA
        A\",\"8400100\",\"1965-01-09 16:30\",\"1965\",\"01\",\"09\",\"16:30\",\"0.0\",\"\",\"-2.8\",\"\",\"82\",\"\",\"18\",\"\",\"37\",\"\",\"16.1\",\"\",\"101.90\",\"\",\"\",\"\",\"-7\",\"\",\"Cloudy\"\r\n\"-54.00\",\"47.30\",\"ARGENTIA
        A\",\"8400100\",\"1965-01-09 17:30\",\"1965\",\"01\",\"09\",\"17:30\",\"0.6\",\"\",\"-2.8\",\"\",\"78\",\"\",\"18\",\"\",\"37\",\"\",\"16.1\",\"\",\"101.80\",\"\",\"\",\"\",\"\",\"\",\"Snow\"\r\n\"-54.00\",\"47.30\",\"ARGENTIA
        A\",\"8400100\",\"1965-01-09 18:30\",\"1965\",\"01\",\"09\",\"18:30\",\"1.1\",\"\",\"-1.1\",\"\",\"85\",\"\",\"18\",\"\",\"45\",\"\",\"12.9\",\"\",\"101.56\",\"\",\"\",\"\",\"\",\"\",\"Snow\"\r\n\"-54.00\",\"47.30\",\"ARGENTIA
        A\",\"8400100\",\"1965-01-09 19:30\",\"1965\",\"01\",\"09\",\"19:30\",\"1.7\",\"\",\"-1.1\",\"\",\"82\",\"\",\"18\",\"\",\"51\",\"\",\"12.9\",\"\",\"101.29\",\"\",\"\",\"\",\"\",\"\",\"Rain\"\r\n\"-54.00\",\"47.30\",\"ARGENTIA
        A\",\"8400100\",\"1965-01-09 20:30\",\"1965\",\"01\",\"09\",\"20:30\",\"3.3\",\"\",\"2.2\",\"\",\"92\",\"\",\"18\",\"\",\"71\",\"\",\"6.4\",\"\",\"101.02\",\"\",\"\",\"\",\"\",\"\",\"Rain,Fog\"\r\n\"-54.00\",\"47.30\",\"ARGENTIA
        A\",\"8400100\",\"1965-01-09 21:30\",\"1965\",\"01\",\"09\",\"21:30\",\"4.4\",\"\",\"3.9\",\"\",\"96\",\"\",\"18\",\"\",\"74\",\"\",\"6.4\",\"\",\"100.64\",\"\",\"\",\"\",\"\",\"\",\"Rain,Fog\"\r\n\"-54.00\",\"47.30\",\"ARGENTIA
        A\",\"8400100\",\"1965-01-09 22:30\",\"1965\",\"01\",\"09\",\"22:30\",\"5.6\",\"\",\"5.6\",\"\",\"100\",\"\",\"20\",\"\",\"74\",\"\",\"6.4\",\"\",\"100.58\",\"\",\"\",\"\",\"\",\"\",\"Rain,Fog\"\r\n\"-54.00\",\"47.30\",\"ARGENTIA
        A\",\"8400100\",\"1965-01-09 23:30\",\"1965\",\"01\",\"09\",\"23:30\",\"3.9\",\"\",\"3.9\",\"\",\"100\",\"\",\"20\",\"\",\"64\",\"\",\"3.2\",\"\",\"100.64\",\"\",\"\",\"\",\"\",\"\",\"Rain,Fog\"\r\n\"-54.00\",\"47.30\",\"ARGENTIA
        A\",\"8400100\",\"1965-01-10 00:30\",\"1965\",\"01\",\"10\",\"00:30\",\"3.9\",\"\",\"3.9\",\"\",\"100\",\"\",\"20\",\"\",\"47\",\"\",\"6.4\",\"\",\"100.51\",\"\",\"\",\"\",\"\",\"\",\"Rain,Fog\"\r\n\"-54.00\",\"47.30\",\"ARGENTIA
        A\",\"8400100\",\"1965-01-10 01:30\",\"1965\",\"01\",\"10\",\"01:30\",\"3.3\",\"\",\"3.3\",\"\",\"100\",\"\",\"20\",\"\",\"47\",\"\",\"3.2\",\"\",\"100.51\",\"\",\"\",\"\",\"\",\"\",\"Rain,Fog\"\r\n\"-54.00\",\"47.30\",\"ARGENTIA
        A\",\"8400100\",\"1965-01-10 02:30\",\"1965\",\"01\",\"10\",\"02:30\",\"2.8\",\"\",\"2.8\",\"\",\"100\",\"\",\"20\",\"\",\"40\",\"\",\"3.2\",\"\",\"100.54\",\"\",\"\",\"\",\"\",\"\",\"Rain,Fog\"\r\n\"-54.00\",\"47.30\",\"ARGENTIA
        A\",\"8400100\",\"1965-01-10 03:30\",\"1965\",\"01\",\"10\",\"03:30\",\"2.2\",\"\",\"2.2\",\"\",\"100\",\"\",\"23\",\"\",\"43\",\"\",\"11.3\",\"\",\"100.61\",\"\",\"\",\"\",\"\",\"\",\"Cloudy\"\r\n\"-54.00\",\"47.30\",\"ARGENTIA
        A\",\"8400100\",\"1965-01-10 04:30\",\"1965\",\"01\",\"10\",\"04:30\",\"1.7\",\"\",\"1.1\",\"\",\"96\",\"\",\"23\",\"\",\"32\",\"\",\"11.3\",\"\",\"100.71\",\"\",\"\",\"\",\"\",\"\",\"Cloudy\"\r\n\"-54.00\",\"47.30\",\"ARGENTIA
        A\",\"8400100\",\"1965-01-10 05:30\",\"1965\",\"01\",\"10\",\"05:30\",\"1.7\",\"\",\"0.6\",\"\",\"92\",\"\",\"23\",\"\",\"37\",\"\",\"11.3\",\"\",\"100.88\",\"\",\"\",\"\",\"\",\"\",\"Cloudy\"\r\n\"-54.00\",\"47.30\",\"ARGENTIA
        A\",\"8400100\",\"1965-01-10 06:30\",\"1965\",\"01\",\"10\",\"06:30\",\"1.7\",\"\",\"-1.1\",\"\",\"82\",\"\",\"27\",\"\",\"56\",\"\",\"11.3\",\"\",\"100.98\",\"\",\"\",\"\",\"\",\"\",\"Cloudy\"\r\n\"-54.00\",\"47.30\",\"ARGENTIA
        A\",\"8400100\",\"1965-01-10 07:30\",\"1965\",\"01\",\"10\",\"07:30\",\"0.6\",\"\",\"-3.3\",\"\",\"75\",\"\",\"27\",\"\",\"48\",\"\",\"12.9\",\"\",\"101.08\",\"\",\"\",\"\",\"\",\"\",\"Cloudy\"\r\n\"-54.00\",\"47.30\",\"ARGENTIA
        A\",\"8400100\",\"1965-01-10 08:30\",\"1965\",\"01\",\"10\",\"08:30\",\"0.6\",\"\",\"-3.3\",\"\",\"75\",\"\",\"29\",\"\",\"34\",\"\",\"12.9\",\"\",\"101.19\",\"\",\"\",\"\",\"\",\"\",\"Cloudy\"\r\n\"-54.00\",\"47.30\",\"ARGENTIA
        A\",\"8400100\",\"1965-01-10 09:30\",\"1965\",\"01\",\"10\",\"09:30\"\r\n\"-54.00\",\"47.30\",\"ARGENTIA
        A\",\"8400100\",\"1965-01-10 10:30\",\"1965\",\"01\",\"10\",\"10:30\"\r\n\"-54.00\",\"47.30\",\"ARGENTIA
        A\",\"8400100\",\"1965-01-10 11:30\",\"1965\",\"01\",\"10\",\"11:30\",\"-2.2\",\"\",\"-11.1\",\"\",\"51\",\"\",\"27\",\"\",\"48\",\"\",\"16.1\",\"\",\"101.52\",\"\",\"\",\"\",\"-11\",\"\",\"Cloudy\"\r\n\"-54.00\",\"47.30\",\"ARGENTIA
        A\",\"8400100\",\"1965-01-10 12:30\",\"1965\",\"01\",\"10\",\"12:30\",\"-2.8\",\"\",\"-10.6\",\"\",\"55\",\"\",\"27\",\"\",\"37\",\"\",\"16.1\",\"\",\"101.63\",\"\",\"\",\"\",\"-11\",\"\",\"Cloudy\"\r\n\"-54.00\",\"47.30\",\"ARGENTIA
        A\",\"8400100\",\"1965-01-10 13:30\",\"1965\",\"01\",\"10\",\"13:30\",\"-3.3\",\"\",\"-11.1\",\"\",\"55\",\"\",\"27\",\"\",\"40\",\"\",\"16.1\",\"\",\"101.69\",\"\",\"\",\"\",\"-12\",\"\",\"Cloudy\"\r\n\"-54.00\",\"47.30\",\"ARGENTIA
        A\",\"8400100\",\"1965-01-10 14:30\",\"1965\",\"01\",\"10\",\"14:30\",\"-3.9\",\"\",\"-10.6\",\"\",\"60\",\"\",\"27\",\"\",\"40\",\"\",\"16.1\",\"\",\"101.76\",\"\",\"\",\"\",\"-13\",\"\",\"Cloudy\"\r\n\"-54.00\",\"47.30\",\"ARGENTIA
        A\",\"8400100\",\"1965-01-10 15:30\",\"1965\",\"01\",\"10\",\"15:30\",\"-4.4\",\"\",\"-11.1\",\"\",\"60\",\"\",\"29\",\"\",\"26\",\"\",\"16.1\",\"\",\"101.86\",\"\",\"\",\"\",\"-12\",\"\",\"Cloudy\"\r\n\"-54.00\",\"47.30\",\"ARGENTIA
        A\",\"8400100\",\"1965-01-10 16:30\",\"1965\",\"01\",\"10\",\"16:30\"\r\n\"-54.00\",\"47.30\",\"ARGENTIA
        A\",\"8400100\",\"1965-01-10 17:30\",\"1965\",\"01\",\"10\",\"17:30\"\r\n\"-54.00\",\"47.30\",\"ARGENTIA
        A\",\"8400100\",\"1965-01-10 18:30\",\"1965\",\"01\",\"10\",\"18:30\"\r\n\"-54.00\",\"47.30\",\"ARGENTIA
        A\",\"8400100\",\"1965-01-10 19:30\",\"1965\",\"01\",\"10\",\"19:30\"\r\n\"-54.00\",\"47.30\",\"ARGENTIA
        A\",\"8400100\",\"1965-01-10 20:30\",\"1965\",\"01\",\"10\",\"20:30\"\r\n\"-54.00\",\"47.30\",\"ARGENTIA
        A\",\"8400100\",\"1965-01-10 21:30\",\"1965\",\"01\",\"10\",\"21:30\"\r\n\"-54.00\",\"47.30\",\"ARGENTIA
        A\",\"8400100\",\"1965-01-10 22:30\",\"1965\",\"01\",\"10\",\"22:30\"\r\n\"-54.00\",\"47.30\",\"ARGENTIA
        A\",\"8400100\",\"1965-01-10 23:30\",\"1965\",\"01\",\"10\",\"23:30\"\r\n\"-54.00\",\"47.30\",\"ARGENTIA
        A\",\"8400100\",\"1965-01-11 00:30\",\"1965\",\"01\",\"11\",\"00:30\",\"-6.1\",\"\",\"-12.2\",\"\",\"62\",\"\",\"32\",\"\",\"8\",\"\",\"16.1\",\"\",\"102.44\",\"\",\"\",\"\",\"-10\",\"\",\"Cloudy\"\r\n\"-54.00\",\"47.30\",\"ARGENTIA
        A\",\"8400100\",\"1965-01-11 01:30\",\"1965\",\"01\",\"11\",\"01:30\",\"-6.1\",\"\",\"-12.2\",\"\",\"62\",\"\",\"36\",\"\",\"8\",\"\",\"16.1\",\"\",\"102.44\",\"\",\"\",\"\",\"-10\",\"\",\"Cloudy\"\r\n\"-54.00\",\"47.30\",\"ARGENTIA
        A\",\"8400100\",\"1965-01-11 02:30\",\"1965\",\"01\",\"11\",\"02:30\",\"-6.1\",\"\",\"-11.7\",\"\",\"65\",\"\",\"34\",\"\",\"5\",\"\",\"16.1\",\"\",\"102.44\",\"\",\"\",\"\",\"-9\",\"\",\"Cloudy\"\r\n\"-54.00\",\"47.30\",\"ARGENTIA
        A\",\"8400100\",\"1965-01-11 03:30\",\"1965\",\"01\",\"11\",\"03:30\",\"-6.7\",\"\",\"-11.7\",\"\",\"68\",\"\",\"9\",\"\",\"11\",\"\",\"16.1\",\"\",\"102.44\",\"\",\"\",\"\",\"-12\",\"\",\"Cloudy\"\r\n\"-54.00\",\"47.30\",\"ARGENTIA
        A\",\"8400100\",\"1965-01-11 04:30\",\"1965\",\"01\",\"11\",\"04:30\",\"-6.7\",\"\",\"-12.2\",\"\",\"65\",\"\",\"9\",\"\",\"11\",\"\",\"16.1\",\"\",\"102.40\",\"\",\"\",\"\",\"-12\",\"\",\"Cloudy\"\r\n\"-54.00\",\"47.30\",\"ARGENTIA
        A\",\"8400100\",\"1965-01-11 05:30\",\"1965\",\"01\",\"11\",\"05:30\",\"-7.2\",\"\",\"-12.2\",\"\",\"67\",\"\",\"9\",\"\",\"11\",\"\",\"16.1\",\"\",\"102.40\",\"\",\"\",\"\",\"-12\",\"\",\"Cloudy\"\r\n\"-54.00\",\"47.30\",\"ARGENTIA
        A\",\"8400100\",\"1965-01-11 06:30\",\"1965\",\"01\",\"11\",\"06:30\",\"-7.2\",\"\",\"-12.2\",\"\",\"67\",\"\",\"9\",\"\",\"11\",\"\",\"12.9\",\"\",\"102.40\",\"\",\"\",\"\",\"-12\",\"\",\"Snow\"\r\n\"-54.00\",\"47.30\",\"ARGENTIA
        A\",\"8400100\",\"1965-01-11 07:30\",\"1965\",\"01\",\"11\",\"07:30\",\"-7.8\",\"\",\"-10.6\",\"\",\"80\",\"\",\"9\",\"\",\"11\",\"\",\"4.0\",\"\",\"102.34\",\"\",\"\",\"\",\"-13\",\"\",\"Snow\"\r\n\"-54.00\",\"47.30\",\"ARGENTIA
        A\",\"8400100\",\"1965-01-11 08:30\",\"1965\",\"01\",\"11\",\"08:30\",\"-7.8\",\"\",\"-10.6\",\"\",\"80\",\"\",\"7\",\"\",\"13\",\"\",\"1.0\",\"\",\"102.30\",\"\",\"\",\"\",\"-14\",\"\",\"Snow\"\r\n\"-54.00\",\"47.30\",\"ARGENTIA
        A\",\"8400100\",\"1965-01-11 09:30\",\"1965\",\"01\",\"11\",\"09:30\",\"-7.8\",\"\",\"-9.4\",\"\",\"88\",\"\",\"9\",\"\",\"11\",\"\",\"1.2\",\"\",\"102.30\",\"\",\"\",\"\",\"-13\",\"\",\"Snow\"\r\n\"-54.00\",\"47.30\",\"ARGENTIA
        A\",\"8400100\",\"1965-01-11 10:30\",\"1965\",\"01\",\"11\",\"10:30\",\"-7.8\",\"\",\"-9.4\",\"\",\"88\",\"\",\"5\",\"\",\"16\",\"\",\"1.0\",\"\",\"102.27\",\"\",\"\",\"\",\"-14\",\"\",\"Snow\"\r\n\"-54.00\",\"47.30\",\"ARGENTIA
        A\",\"8400100\",\"1965-01-11 11:30\",\"1965\",\"01\",\"11\",\"11:30\",\"-7.8\",\"\",\"-9.4\",\"\",\"88\",\"\",\"7\",\"\",\"19\",\"\",\"1.0\",\"\",\"102.13\",\"\",\"\",\"\",\"-15\",\"\",\"Snow\"\r\n\"-54.00\",\"47.30\",\"ARGENTIA
        A\",\"8400100\",\"1965-01-11 12:30\",\"1965\",\"01\",\"11\",\"12:30\",\"-7.8\",\"\",\"-9.4\",\"\",\"88\",\"\",\"7\",\"\",\"21\",\"\",\"1.6\",\"\",\"101.96\",\"\",\"\",\"\",\"-15\",\"\",\"Snow\"\r\n\"-54.00\",\"47.30\",\"ARGENTIA
        A\",\"8400100\",\"1965-01-11 13:30\",\"1965\",\"01\",\"11\",\"13:30\",\"-7.2\",\"\",\"-8.9\",\"\",\"88\",\"\",\"7\",\"\",\"21\",\"\",\"3.2\",\"\",\"101.76\",\"\",\"\",\"\",\"-15\",\"\",\"Snow\"\r\n\"-54.00\",\"47.30\",\"ARGENTIA
        A\",\"8400100\",\"1965-01-11 14:30\",\"1965\",\"01\",\"11\",\"14:30\",\"-7.2\",\"\",\"-8.9\",\"\",\"88\",\"\",\"7\",\"\",\"35\",\"\",\"2.0\",\"\",\"101.76\",\"\",\"\",\"\",\"-16\",\"\",\"Snow\"\r\n\"-54.00\",\"47.30\",\"ARGENTIA
        A\",\"8400100\",\"1965-01-11 15:30\",\"1965\",\"01\",\"11\",\"15:30\",\"-7.2\",\"\",\"-8.9\",\"\",\"88\",\"\",\"5\",\"\",\"34\",\"\",\"6.4\",\"\",\"101.69\",\"\",\"\",\"\",\"-16\",\"\",\"Blowing
        Snow\"\r\n\"-54.00\",\"47.30\",\"ARGENTIA A\",\"8400100\",\"1965-01-11 16:30\",\"1965\",\"01\",\"11\",\"16:30\",\"-7.2\",\"\",\"-8.9\",\"\",\"88\",\"\",\"5\",\"\",\"32\",\"\",\"1.6\",\"\",\"101.66\",\"\",\"\",\"\",\"-16\",\"\",\"Snow\"\r\n\"-54.00\",\"47.30\",\"ARGENTIA
        A\",\"8400100\",\"1965-01-11 17:30\",\"1965\",\"01\",\"11\",\"17:30\",\"-6.7\",\"\",\"-8.3\",\"\",\"88\",\"\",\"7\",\"\",\"34\",\"\",\"3.2\",\"\",\"101.59\",\"\",\"\",\"\",\"-16\",\"\",\"Snow\"\r\n\"-54.00\",\"47.30\",\"ARGENTIA
        A\",\"8400100\",\"1965-01-11 18:30\",\"1965\",\"01\",\"11\",\"18:30\",\"-7.2\",\"\",\"-9.4\",\"\",\"84\",\"\",\"5\",\"\",\"34\",\"\",\"8.0\",\"\",\"101.59\",\"\",\"\",\"\",\"-16\",\"\",\"Snow\"\r\n\"-54.00\",\"47.30\",\"ARGENTIA
        A\",\"8400100\",\"1965-01-11 19:30\",\"1965\",\"01\",\"11\",\"19:30\",\"-7.2\",\"\",\"-9.4\",\"\",\"84\",\"\",\"5\",\"\",\"27\",\"\",\"1.6\",\"\",\"101.52\",\"\",\"\",\"\",\"-15\",\"\",\"Snow\"\r\n\"-54.00\",\"47.30\",\"ARGENTIA
        A\",\"8400100\",\"1965-01-11 20:30\",\"1965\",\"01\",\"11\",\"20:30\",\"-6.7\",\"\",\"-8.9\",\"\",\"84\",\"\",\"5\",\"\",\"34\",\"\",\"3.2\",\"\",\"101.52\",\"\",\"\",\"\",\"-16\",\"\",\"Snow\"\r\n\"-54.00\",\"47.30\",\"ARGENTIA
        A\",\"8400100\",\"1965-01-11 21:30\",\"1965\",\"01\",\"11\",\"21:30\",\"-6.7\",\"\",\"-8.3\",\"\",\"88\",\"\",\"5\",\"\",\"37\",\"\",\"3.2\",\"\",\"101.46\",\"\",\"\",\"\",\"-16\",\"\",\"Snow\"\r\n\"-54.00\",\"47.30\",\"ARGENTIA
        A\",\"8400100\",\"1965-01-11 22:30\",\"1965\",\"01\",\"11\",\"22:30\",\"-6.1\",\"\",\"-8.3\",\"\",\"84\",\"\",\"5\",\"\",\"43\",\"\",\"4.8\",\"\",\"101.42\",\"\",\"\",\"\",\"-16\",\"\",\"Snow,Blowing
        Snow\"\r\n\"-54.00\",\"47.30\",\"ARGENTIA A\",\"8400100\",\"1965-01-11 23:30\",\"1965\",\"01\",\"11\",\"23:30\",\"-6.1\",\"\",\"-8.3\",\"\",\"84\",\"\",\"36\",\"\",\"47\",\"\",\"6.4\",\"\",\"101.42\",\"\",\"\",\"\",\"-16\",\"\",\"Snow\"\r\n\"-54.00\",\"47.30\",\"ARGENTIA
        A\",\"8400100\",\"1965-01-12 00:30\",\"1965\",\"01\",\"12\",\"00:30\",\"-6.1\",\"\",\"-8.3\",\"\",\"84\",\"\",\"2\",\"\",\"40\",\"\",\"12.9\",\"\",\"101.42\",\"\",\"\",\"\",\"-16\",\"\",\"Cloudy\"\r\n\"-54.00\",\"47.30\",\"ARGENTIA
        A\",\"8400100\",\"1965-01-12 01:30\",\"1965\",\"01\",\"12\",\"01:30\",\"-6.7\",\"\",\"-8.9\",\"\",\"84\",\"\",\"36\",\"\",\"40\",\"\",\"9.7\",\"\",\"101.49\",\"\",\"\",\"\",\"-16\",\"\",\"Snow\"\r\n\"-54.00\",\"47.30\",\"ARGENTIA
        A\",\"8400100\",\"1965-01-12 02:30\",\"1965\",\"01\",\"12\",\"02:30\",\"-6.1\",\"\",\"-8.3\",\"\",\"84\",\"\",\"2\",\"\",\"43\",\"\",\"8.0\",\"\",\"101.63\",\"\",\"\",\"\",\"-16\",\"\",\"Snow\"\r\n\"-54.00\",\"47.30\",\"ARGENTIA
        A\",\"8400100\",\"1965-01-12 03:30\",\"1965\",\"01\",\"12\",\"03:30\",\"-6.7\",\"\",\"-8.9\",\"\",\"84\",\"\",\"36\",\"\",\"47\",\"\",\"8.0\",\"\",\"101.76\",\"\",\"\",\"\",\"-17\",\"\",\"Snow,Blowing
        Snow\"\r\n\"-54.00\",\"47.30\",\"ARGENTIA A\",\"8400100\",\"1965-01-12 04:30\",\"1965\",\"01\",\"12\",\"04:30\",\"-7.2\",\"\",\"-9.4\",\"\",\"84\",\"\",\"36\",\"\",\"51\",\"\",\"9.7\",\"\",\"101.86\",\"\",\"\",\"\",\"-18\",\"\",\"Blowing
        Snow\"\r\n\"-54.00\",\"47.30\",\"ARGENTIA A\",\"8400100\",\"1965-01-12 05:30\",\"1965\",\"01\",\"12\",\"05:30\",\"-7.2\",\"\",\"-10.6\",\"\",\"77\",\"\",\"36\",\"\",\"47\",\"\",\"12.9\",\"\",\"102.03\",\"\",\"\",\"\",\"-18\",\"\",\"Cloudy\"\r\n\"-54.00\",\"47.30\",\"ARGENTIA
        A\",\"8400100\",\"1965-01-12 06:30\",\"1965\",\"01\",\"12\",\"06:30\",\"-7.2\",\"\",\"-10.6\",\"\",\"77\",\"\",\"36\",\"\",\"43\",\"\",\"16.1\",\"\",\"102.17\",\"\",\"\",\"\",\"-17\",\"\",\"Cloudy\"\r\n\"-54.00\",\"47.30\",\"ARGENTIA
        A\",\"8400100\",\"1965-01-12 07:30\",\"1965\",\"01\",\"12\",\"07:30\",\"-7.2\",\"\",\"-11.1\",\"\",\"74\",\"\",\"2\",\"\",\"37\",\"\",\"24.1\",\"\",\"102.30\",\"\",\"\",\"\",\"-17\",\"\",\"Mostly
        Cloudy\"\r\n\"-54.00\",\"47.30\",\"ARGENTIA A\",\"8400100\",\"1965-01-12 08:30\",\"1965\",\"01\",\"12\",\"08:30\",\"-7.8\",\"\",\"-11.7\",\"\",\"74\",\"\",\"2\",\"\",\"32\",\"\",\"24.1\",\"\",\"102.34\",\"\",\"\",\"\",\"-17\",\"\",\"Mostly
        Cloudy\"\r\n\"-54.00\",\"47.30\",\"ARGENTIA A\",\"8400100\",\"1965-01-12 09:30\",\"1965\",\"01\",\"12\",\"09:30\",\"-8.3\",\"\",\"-11.1\",\"\",\"80\",\"\",\"2\",\"\",\"27\",\"\",\"24.1\",\"\",\"102.54\",\"\",\"\",\"\",\"-17\",\"\",\"Mainly
        Clear\"\r\n\"-54.00\",\"47.30\",\"ARGENTIA A\",\"8400100\",\"1965-01-12 10:30\",\"1965\",\"01\",\"12\",\"10:30\",\"-8.3\",\"\",\"-11.7\",\"\",\"77\",\"\",\"5\",\"\",\"24\",\"\",\"24.1\",\"\",\"102.54\",\"\",\"\",\"\",\"-16\",\"\",\"Mainly
        Clear\"\r\n\"-54.00\",\"47.30\",\"ARGENTIA A\",\"8400100\",\"1965-01-12 11:30\",\"1965\",\"01\",\"12\",\"11:30\",\"-6.7\",\"\",\"-11.7\",\"\",\"68\",\"\",\"5\",\"\",\"21\",\"\",\"24.1\",\"\",\"102.54\",\"\",\"\",\"\",\"-14\",\"\",\"Mainly
        Clear\"\r\n\"-54.00\",\"47.30\",\"ARGENTIA A\",\"8400100\",\"1965-01-12 12:30\",\"1965\",\"01\",\"12\",\"12:30\",\"-6.7\",\"\",\"-10.6\",\"\",\"74\",\"\",\"7\",\"\",\"10\",\"\",\"24.1\",\"\",\"102.57\",\"\",\"\",\"\",\"-11\",\"\",\"Mainly
        Clear\"\r\n\"-54.00\",\"47.30\",\"ARGENTIA A\",\"8400100\",\"1965-01-12 13:30\",\"1965\",\"01\",\"12\",\"13:30\",\"-6.1\",\"\",\"-10.0\",\"\",\"74\",\"\",\"9\",\"\",\"10\",\"\",\"24.1\",\"\",\"102.57\",\"\",\"\",\"\",\"-11\",\"\",\"Mainly
        Clear\"\r\n\"-54.00\",\"47.30\",\"ARGENTIA A\",\"8400100\",\"1965-01-12 14:30\",\"1965\",\"01\",\"12\",\"14:30\",\"-5.6\",\"\",\"-9.4\",\"\",\"74\",\"\",\"18\",\"\",\"11\",\"\",\"24.1\",\"\",\"102.57\",\"\",\"\",\"\",\"-10\",\"\",\"Mainly
        Clear\"\r\n\"-54.00\",\"47.30\",\"ARGENTIA A\",\"8400100\",\"1965-01-12 15:30\",\"1965\",\"01\",\"12\",\"15:30\",\"-6.1\",\"\",\"-11.1\",\"\",\"68\",\"\",\"18\",\"\",\"19\",\"\",\"24.1\",\"\",\"102.51\",\"\",\"\",\"\",\"-13\",\"\",\"Mainly
        Clear\"\r\n\"-54.00\",\"47.30\",\"ARGENTIA A\",\"8400100\",\"1965-01-12 16:30\",\"1965\",\"01\",\"12\",\"16:30\",\"-6.1\",\"\",\"-10.0\",\"\",\"74\",\"\",\"18\",\"\",\"21\",\"\",\"24.1\",\"\",\"102.71\",\"\",\"\",\"\",\"-13\",\"\",\"Mostly
        Cloudy\"\r\n\"-54.00\",\"47.30\",\"ARGENTIA A\",\"8400100\",\"1965-01-12 17:30\",\"1965\",\"01\",\"12\",\"17:30\",\"-5.6\",\"\",\"-9.4\",\"\",\"74\",\"\",\"18\",\"\",\"26\",\"\",\"24.1\",\"\",\"102.74\",\"\",\"\",\"\",\"-13\",\"\",\"Cloudy\"\r\n\"-54.00\",\"47.30\",\"ARGENTIA
        A\",\"8400100\",\"1965-01-12 18:30\",\"1965\",\"01\",\"12\",\"18:30\",\"-5.0\",\"\",\"-8.3\",\"\",\"77\",\"\",\"18\",\"\",\"29\",\"\",\"24.1\",\"\",\"102.64\",\"\",\"\",\"\",\"-13\",\"\",\"Cloudy\"\r\n\"-54.00\",\"47.30\",\"ARGENTIA
        A\",\"8400100\",\"1965-01-12 19:30\",\"1965\",\"01\",\"12\",\"19:30\",\"-4.4\",\"\",\"-8.3\",\"\",\"74\",\"\",\"18\",\"\",\"26\",\"\",\"24.1\",\"\",\"102.61\",\"\",\"\",\"\",\"-12\",\"\",\"Cloudy\"\r\n\"-54.00\",\"47.30\",\"ARGENTIA
        A\",\"8400100\",\"1965-01-12 20:30\",\"1965\",\"01\",\"12\",\"20:30\",\"-3.3\",\"\",\"-7.8\",\"\",\"71\",\"\",\"18\",\"\",\"32\",\"\",\"24.1\",\"\",\"102.61\",\"\",\"\",\"\",\"-11\",\"\",\"Cloudy\"\r\n\"-54.00\",\"47.30\",\"ARGENTIA
        A\",\"8400100\",\"1965-01-12 21:30\",\"1965\",\"01\",\"12\",\"21:30\",\"-2.2\",\"\",\"-6.1\",\"\",\"75\",\"\",\"18\",\"\",\"26\",\"\",\"24.1\",\"\",\"102.54\",\"\",\"\",\"\",\"-9\",\"\",\"Cloudy\"\r\n\"-54.00\",\"47.30\",\"ARGENTIA
        A\",\"8400100\",\"1965-01-12 22:30\",\"1965\",\"01\",\"12\",\"22:30\",\"-1.7\",\"\",\"-5.6\",\"\",\"75\",\"\",\"20\",\"\",\"39\",\"\",\"24.1\",\"\",\"102.51\",\"\",\"\",\"\",\"-10\",\"\",\"Cloudy\"\r\n\"-54.00\",\"47.30\",\"ARGENTIA
        A\",\"8400100\",\"1965-01-12 23:30\",\"1965\",\"01\",\"12\",\"23:30\",\"-1.1\",\"\",\"-5.0\",\"\",\"75\",\"\",\"23\",\"\",\"47\",\"\",\"16.1\",\"\",\"102.44\",\"\",\"\",\"\",\"-9\",\"\",\"Snow
        Showers\"\r\n\"-54.00\",\"47.30\",\"ARGENTIA A\",\"8400100\",\"1965-01-13
        00:30\",\"1965\",\"01\",\"13\",\"00:30\",\"-0.6\",\"\",\"-3.9\",\"\",\"78\",\"\",\"20\",\"\",\"48\",\"\",\"16.1\",\"\",\"102.34\",\"\",\"\",\"\",\"-9\",\"\",\"Cloudy\"\r\n\"-54.00\",\"47.30\",\"ARGENTIA
        A\",\"8400100\",\"1965-01-13 01:30\",\"1965\",\"01\",\"13\",\"01:30\",\"0.6\",\"\",\"-3.3\",\"\",\"75\",\"\",\"20\",\"\",\"47\",\"\",\"16.1\",\"\",\"102.34\",\"\",\"\",\"\",\"\",\"\",\"Cloudy\"\r\n\"-54.00\",\"47.30\",\"ARGENTIA
        A\",\"8400100\",\"1965-01-13 02:30\",\"1965\",\"01\",\"13\",\"02:30\",\"0.6\",\"\",\"-1.7\",\"\",\"85\",\"\",\"23\",\"\",\"48\",\"\",\"16.1\",\"\",\"102.30\",\"\",\"\",\"\",\"\",\"\",\"Snow
        Showers\"\r\n\"-54.00\",\"47.30\",\"ARGENTIA A\",\"8400100\",\"1965-01-13
        03:30\",\"1965\",\"01\",\"13\",\"03:30\",\"0.6\",\"\",\"-1.7\",\"\",\"85\",\"\",\"20\",\"\",\"45\",\"\",\"16.1\",\"\",\"102.24\",\"\",\"\",\"\",\"\",\"\",\"Cloudy\"\r\n\"-54.00\",\"47.30\",\"ARGENTIA
        A\",\"8400100\",\"1965-01-13 04:30\",\"1965\",\"01\",\"13\",\"04:30\",\"1.1\",\"\",\"-1.1\",\"\",\"85\",\"\",\"20\",\"\",\"45\",\"\",\"16.1\",\"\",\"102.17\",\"\",\"\",\"\",\"\",\"\",\"Cloudy\"\r\n\"-54.00\",\"47.30\",\"ARGENTIA
        A\",\"8400100\",\"1965-01-13 05:30\",\"1965\",\"01\",\"13\",\"05:30\",\"1.7\",\"\",\"-0.6\",\"\",\"85\",\"\",\"20\",\"\",\"48\",\"\",\"16.1\",\"\",\"102.13\",\"\",\"\",\"\",\"\",\"\",\"Cloudy\"\r\n\"-54.00\",\"47.30\",\"ARGENTIA
        A\",\"8400100\",\"1965-01-13 06:30\",\"1965\",\"01\",\"13\",\"06:30\",\"1.1\",\"\",\"0.0\",\"\",\"92\",\"\",\"20\",\"\",\"43\",\"\",\"16.1\",\"\",\"102.13\",\"\",\"\",\"\",\"\",\"\",\"Mostly
        Cloudy\"\r\n\"-54.00\",\"47.30\",\"ARGENTIA A\",\"8400100\",\"1965-01-13 07:30\",\"1965\",\"01\",\"13\",\"07:30\",\"1.7\",\"\",\"0.0\",\"\",\"89\",\"\",\"23\",\"\",\"47\",\"\",\"11.3\",\"\",\"102.13\",\"\",\"\",\"\",\"\",\"\",\"Cloudy\"\r\n\"-54.00\",\"47.30\",\"ARGENTIA
        A\",\"8400100\",\"1965-01-13 08:30\",\"1965\",\"01\",\"13\",\"08:30\",\"2.2\",\"\",\"0.6\",\"\",\"89\",\"\",\"23\",\"\",\"45\",\"\",\"11.3\",\"\",\"102.17\",\"\",\"\",\"\",\"\",\"\",\"Cloudy\"\r\n\"-54.00\",\"47.30\",\"ARGENTIA
        A\",\"8400100\",\"1965-01-13 09:30\",\"1965\",\"01\",\"13\",\"09:30\",\"2.2\",\"\",\"0.6\",\"\",\"89\",\"\",\"23\",\"\",\"40\",\"\",\"9.7\",\"\",\"102.24\",\"\",\"\",\"\",\"\",\"\",\"Rain\"\r\n\"-54.00\",\"47.30\",\"ARGENTIA
        A\",\"8400100\",\"1965-01-13 10:30\",\"1965\",\"01\",\"13\",\"10:30\",\"1.7\",\"\",\"0.6\",\"\",\"92\",\"\",\"23\",\"\",\"37\",\"\",\"12.9\",\"\",\"102.24\",\"\",\"\",\"\",\"\",\"\",\"Cloudy\"\r\n\"-54.00\",\"47.30\",\"ARGENTIA
        A\",\"8400100\",\"1965-01-13 11:30\",\"1965\",\"01\",\"13\",\"11:30\",\"2.2\",\"\",\"1.1\",\"\",\"92\",\"\",\"23\",\"\",\"29\",\"\",\"12.9\",\"\",\"102.27\",\"\",\"\",\"\",\"\",\"\",\"Mainly
        Clear\"\r\n\"-54.00\",\"47.30\",\"ARGENTIA A\",\"8400100\",\"1965-01-13 12:30\",\"1965\",\"01\",\"13\",\"12:30\",\"2.2\",\"\",\"0.6\",\"\",\"89\",\"\",\"25\",\"\",\"24\",\"\",\"16.1\",\"\",\"102.24\",\"\",\"\",\"\",\"\",\"\",\"Mainly
        Clear\"\r\n\"-54.00\",\"47.30\",\"ARGENTIA A\",\"8400100\",\"1965-01-13 13:30\",\"1965\",\"01\",\"13\",\"13:30\"\r\n\"-54.00\",\"47.30\",\"ARGENTIA
        A\",\"8400100\",\"1965-01-13 14:30\",\"1965\",\"01\",\"13\",\"14:30\"\r\n\"-54.00\",\"47.30\",\"ARGENTIA
        A\",\"8400100\",\"1965-01-13 15:30\",\"1965\",\"01\",\"13\",\"15:30\"\r\n\"-54.00\",\"47.30\",\"ARGENTIA
        A\",\"8400100\",\"1965-01-13 16:30\",\"1965\",\"01\",\"13\",\"16:30\"\r\n\"-54.00\",\"47.30\",\"ARGENTIA
        A\",\"8400100\",\"1965-01-13 17:30\",\"1965\",\"01\",\"13\",\"17:30\"\r\n\"-54.00\",\"47.30\",\"ARGENTIA
        A\",\"8400100\",\"1965-01-13 18:30\",\"1965\",\"01\",\"13\",\"18:30\"\r\n\"-54.00\",\"47.30\",\"ARGENTIA
        A\",\"8400100\",\"1965-01-13 19:30\",\"1965\",\"01\",\"13\",\"19:30\",\"0.6\",\"\",\"-2.2\",\"\",\"82\",\"\",\"25\",\"\",\"14\",\"\",\"16.1\",\"\",\"102.34\",\"\",\"\",\"\",\"\",\"\",\"Mostly
        Cloudy\"\r\n\"-54.00\",\"47.30\",\"ARGENTIA A\",\"8400100\",\"1965-01-13 20:30\",\"1965\",\"01\",\"13\",\"20:30\",\"0.0\",\"\",\"-2.2\",\"\",\"85\",\"\",\"16\",\"\",\"11\",\"\",\"16.1\",\"\",\"102.34\",\"\",\"\",\"\",\"-4\",\"\",\"Mostly
        Cloudy\"\r\n\"-54.00\",\"47.30\",\"ARGENTIA A\",\"8400100\",\"1965-01-13 21:30\",\"1965\",\"01\",\"13\",\"21:30\",\"0.0\",\"\",\"-1.1\",\"\",\"92\",\"\",\"9\",\"\",\"3\",\"\",\"16.1\",\"\",\"102.27\",\"\",\"\",\"\",\"-1\",\"\",\"Mostly
        Cloudy\"\r\n\"-54.00\",\"47.30\",\"ARGENTIA A\",\"8400100\",\"1965-01-13 22:30\",\"1965\",\"01\",\"13\",\"22:30\",\"0.0\",\"\",\"-1.7\",\"\",\"89\",\"\",\"14\",\"\",\"8\",\"\",\"12.9\",\"\",\"102.20\",\"\",\"\",\"\",\"-3\",\"\",\"Snow\"\r\n\"-54.00\",\"47.30\",\"ARGENTIA
        A\",\"8400100\",\"1965-01-13 23:30\",\"1965\",\"01\",\"13\",\"23:30\",\"0.0\",\"\",\"-1.1\",\"\",\"92\",\"\",\"11\",\"\",\"8\",\"\",\"12.9\",\"\",\"102.10\",\"\",\"\",\"\",\"-3\",\"\",\"Cloudy\"\r\n\"-54.00\",\"47.30\",\"ARGENTIA
        A\",\"8400100\",\"1965-01-14 00:30\",\"1965\",\"01\",\"14\",\"00:30\",\"0.6\",\"\",\"-1.1\",\"\",\"89\",\"\",\"11\",\"\",\"10\",\"\",\"11.3\",\"\",\"102.00\",\"\",\"\",\"\",\"\",\"\",\"Snow\"\r\n\"-54.00\",\"47.30\",\"ARGENTIA
        A\",\"8400100\",\"1965-01-14 01:30\",\"1965\",\"01\",\"14\",\"01:30\",\"0.6\",\"\",\"-1.1\",\"\",\"89\",\"\",\"11\",\"\",\"23\",\"\",\"2.4\",\"\",\"101.73\",\"\",\"\",\"\",\"\",\"\",\"Rain,Fog\"\r\n\"-54.00\",\"47.30\",\"ARGENTIA
        A\",\"8400100\",\"1965-01-14 02:30\",\"1965\",\"01\",\"14\",\"02:30\",\"0.6\",\"\",\"-0.6\",\"\",\"92\",\"\",\"11\",\"\",\"26\",\"\",\"2.4\",\"\",\"101.63\",\"\",\"\",\"\",\"\",\"\",\"Rain,Fog\"\r\n\"-54.00\",\"47.30\",\"ARGENTIA
        A\",\"8400100\",\"1965-01-14 03:30\",\"1965\",\"01\",\"14\",\"03:30\",\"2.2\",\"\",\"1.1\",\"\",\"92\",\"\",\"14\",\"\",\"34\",\"\",\"9.7\",\"\",\"101.42\",\"\",\"\",\"\",\"\",\"\",\"Rain\"\r\n\"-54.00\",\"47.30\",\"ARGENTIA
        A\",\"8400100\",\"1965-01-14 04:30\",\"1965\",\"01\",\"14\",\"04:30\",\"2.2\",\"\",\"1.1\",\"\",\"92\",\"\",\"16\",\"\",\"48\",\"\",\"6.4\",\"\",\"101.19\",\"\",\"\",\"\",\"\",\"\",\"Rain\"\r\n\"-54.00\",\"47.30\",\"ARGENTIA
        A\",\"8400100\",\"1965-01-14 05:30\",\"1965\",\"01\",\"14\",\"05:30\",\"2.2\",\"\",\"1.1\",\"\",\"92\",\"\",\"16\",\"\",\"56\",\"\",\"6.4\",\"\",\"100.85\",\"\",\"\",\"\",\"\",\"\",\"Rain\"\r\n\"-54.00\",\"47.30\",\"ARGENTIA
        A\",\"8400100\",\"1965-01-14 06:30\",\"1965\",\"01\",\"14\",\"06:30\",\"2.8\",\"\",\"1.7\",\"\",\"92\",\"\",\"16\",\"\",\"56\",\"\",\"6.4\",\"\",\"100.64\",\"\",\"\",\"\",\"\",\"\",\"Rain\"\r\n\"-54.00\",\"47.30\",\"ARGENTIA
        A\",\"8400100\",\"1965-01-14 07:30\",\"1965\",\"01\",\"14\",\"07:30\",\"3.3\",\"\",\"2.2\",\"\",\"92\",\"\",\"16\",\"\",\"74\",\"\",\"6.4\",\"\",\"100.27\",\"\",\"\",\"\",\"\",\"\",\"Rain\"\r\n\"-54.00\",\"47.30\",\"ARGENTIA
        A\",\"8400100\",\"1965-01-14 08:30\",\"1965\",\"01\",\"14\",\"08:30\",\"3.3\",\"\",\"2.8\",\"\",\"96\",\"\",\"16\",\"\",\"71\",\"\",\"8.0\",\"\",\"100.03\",\"\",\"\",\"\",\"\",\"\",\"Rain,Fog\"\r\n\"-54.00\",\"47.30\",\"ARGENTIA
        A\",\"8400100\",\"1965-01-14 09:30\",\"1965\",\"01\",\"14\",\"09:30\",\"4.4\",\"\",\"4.4\",\"\",\"100\",\"\",\"16\",\"\",\"60\",\"\",\"8.0\",\"\",\"100.00\",\"\",\"\",\"\",\"\",\"\",\"Rain,Fog\"\r\n\"-54.00\",\"47.30\",\"ARGENTIA
        A\",\"8400100\",\"1965-01-14 10:30\",\"1965\",\"01\",\"14\",\"10:30\",\"5.6\",\"\",\"5.0\",\"\",\"96\",\"\",\"18\",\"\",\"51\",\"\",\"3.2\",\"\",\"100.00\",\"\",\"\",\"\",\"\",\"\",\"Rain,Fog\"\r\n\"-54.00\",\"47.30\",\"ARGENTIA
        A\",\"8400100\",\"1965-01-14 11:30\",\"1965\",\"01\",\"14\",\"11:30\",\"6.1\",\"\",\"6.1\",\"\",\"100\",\"\",\"20\",\"\",\"56\",\"\",\"0.8\",\"\",\"99.93\",\"\",\"\",\"\",\"\",\"\",\"Rain,Fog\"\r\n\"-54.00\",\"47.30\",\"ARGENTIA
        A\",\"8400100\",\"1965-01-14 12:30\",\"1965\",\"01\",\"14\",\"12:30\",\"3.9\",\"\",\"3.9\",\"\",\"100\",\"\",\"20\",\"\",\"47\",\"\",\"0.2\",\"\",\"99.73\",\"\",\"\",\"\",\"\",\"\",\"Rain,Fog\"\r\n\"-54.00\",\"47.30\",\"ARGENTIA
        A\",\"8400100\",\"1965-01-14 13:30\",\"1965\",\"01\",\"14\",\"13:30\",\"3.3\",\"\",\"3.3\",\"\",\"100\",\"\",\"20\",\"\",\"40\",\"\",\"0.4\",\"\",\"99.83\",\"\",\"\",\"\",\"\",\"\",\"Fog\"\r\n\"-54.00\",\"47.30\",\"ARGENTIA
        A\",\"8400100\",\"1965-01-14 14:30\",\"1965\",\"01\",\"14\",\"14:30\",\"2.2\",\"\",\"2.2\",\"\",\"100\",\"\",\"20\",\"\",\"35\",\"\",\"2.4\",\"\",\"99.70\",\"\",\"\",\"\",\"\",\"\",\"Fog\"\r\n\"-54.00\",\"47.30\",\"ARGENTIA
        A\",\"8400100\",\"1965-01-14 15:30\",\"1965\",\"01\",\"14\",\"15:30\",\"2.2\",\"\",\"2.2\",\"\",\"100\",\"\",\"20\",\"\",\"35\",\"\",\"2.4\",\"\",\"99.70\",\"\",\"\",\"\",\"\",\"\",\"Fog\"\r\n\"-54.00\",\"47.30\",\"ARGENTIA
        A\",\"8400100\",\"1965-01-14 16:30\",\"1965\",\"01\",\"14\",\"16:30\",\"2.2\",\"\",\"2.2\",\"\",\"100\",\"\",\"20\",\"\",\"37\",\"\",\"0.2\",\"\",\"99.70\",\"\",\"\",\"\",\"\",\"\",\"Fog\"\r\n\"-54.00\",\"47.30\",\"ARGENTIA
        A\",\"8400100\",\"1965-01-14 17:30\",\"1965\",\"01\",\"14\",\"17:30\",\"1.7\",\"\",\"1.7\",\"\",\"100\",\"\",\"20\",\"\",\"34\",\"\",\"0.8\",\"\",\"99.70\",\"\",\"\",\"\",\"\",\"\",\"Rain,Fog\"\r\n\"-54.00\",\"47.30\",\"ARGENTIA
        A\",\"8400100\",\"1965-01-14 18:30\",\"1965\",\"01\",\"14\",\"18:30\",\"1.7\",\"\",\"1.7\",\"\",\"100\",\"\",\"20\",\"\",\"34\",\"\",\"1.0\",\"\",\"99.66\",\"\",\"\",\"\",\"\",\"\",\"Rain,Fog\"\r\n\"-54.00\",\"47.30\",\"ARGENTIA
        A\",\"8400100\",\"1965-01-14 19:30\",\"1965\",\"01\",\"14\",\"19:30\",\"2.2\",\"\",\"2.2\",\"\",\"100\",\"\",\"23\",\"\",\"39\",\"\",\"4.8\",\"\",\"99.73\",\"\",\"\",\"\",\"\",\"\",\"Fog\"\r\n\"-54.00\",\"47.30\",\"ARGENTIA
        A\",\"8400100\",\"1965-01-14 20:30\",\"1965\",\"01\",\"14\",\"20:30\",\"2.2\",\"\",\"1.1\",\"\",\"92\",\"\",\"23\",\"\",\"40\",\"\",\"4.8\",\"\",\"99.83\",\"\",\"\",\"\",\"\",\"\",\"Fog\"\r\n\"-54.00\",\"47.30\",\"ARGENTIA
        A\",\"8400100\",\"1965-01-14 21:30\",\"1965\",\"01\",\"14\",\"21:30\",\"2.2\",\"\",\"0.0\",\"\",\"85\",\"\",\"23\",\"\",\"48\",\"\",\"8.0\",\"\",\"99.87\",\"\",\"\",\"\",\"\",\"\",\"Fog\"\r\n\"-54.00\",\"47.30\",\"ARGENTIA
        A\",\"8400100\",\"1965-01-14 22:30\",\"1965\",\"01\",\"14\",\"22:30\",\"2.2\",\"\",\"-0.6\",\"\",\"82\",\"\",\"23\",\"\",\"56\",\"\",\"12.9\",\"\",\"99.90\",\"\",\"\",\"\",\"\",\"\",\"Cloudy\"\r\n\"-54.00\",\"47.30\",\"ARGENTIA
        A\",\"8400100\",\"1965-01-14 23:30\",\"1965\",\"01\",\"14\",\"23:30\",\"1.7\",\"\",\"-2.2\",\"\",\"75\",\"\",\"27\",\"\",\"63\",\"\",\"12.9\",\"\",\"100.00\",\"\",\"\",\"\",\"\",\"\",\"Cloudy\"\r\n\"-54.00\",\"47.30\",\"ARGENTIA
        A\",\"8400100\",\"1965-01-15 00:30\",\"1965\",\"01\",\"15\",\"00:30\",\"1.7\",\"\",\"-3.3\",\"\",\"69\",\"\",\"25\",\"\",\"60\",\"\",\"12.9\",\"\",\"100.10\",\"\",\"\",\"\",\"\",\"\",\"Mostly
        Cloudy\"\r\n\"-54.00\",\"47.30\",\"ARGENTIA A\",\"8400100\",\"1965-01-15 01:30\",\"1965\",\"01\",\"15\",\"01:30\",\"-0.6\",\"\",\"-1.7\",\"\",\"92\",\"\",\"25\",\"\",\"68\",\"\",\"9.7\",\"\",\"100.17\",\"\",\"\",\"\",\"-10\",\"\",\"Snow\"\r\n\"-54.00\",\"47.30\",\"ARGENTIA
        A\",\"8400100\",\"1965-01-15 02:30\",\"1965\",\"01\",\"15\",\"02:30\",\"-1.7\",\"\",\"-5.0\",\"\",\"78\",\"\",\"27\",\"\",\"63\",\"\",\"11.3\",\"\",\"100.37\",\"\",\"\",\"\",\"-11\",\"\",\"Snow\"\r\n\"-54.00\",\"47.30\",\"ARGENTIA
        A\",\"8400100\",\"1965-01-15 03:30\",\"1965\",\"01\",\"15\",\"03:30\",\"-2.2\",\"\",\"-8.9\",\"\",\"60\",\"\",\"27\",\"\",\"68\",\"\",\"11.3\",\"\",\"100.64\",\"\",\"\",\"\",\"-12\",\"\",\"Mostly
        Cloudy\"\r\n\"-54.00\",\"47.30\",\"ARGENTIA A\",\"8400100\",\"1965-01-15 04:30\",\"1965\",\"01\",\"15\",\"04:30\",\"-2.2\",\"\",\"-10.0\",\"\",\"55\",\"\",\"25\",\"\",\"56\",\"\",\"11.3\",\"\",\"100.64\",\"\",\"\",\"\",\"-12\",\"\",\"Mostly
        Cloudy\"\r\n\"-54.00\",\"47.30\",\"ARGENTIA A\",\"8400100\",\"1965-01-15 05:30\",\"1965\",\"01\",\"15\",\"05:30\",\"-1.7\",\"\",\"-10.0\",\"\",\"53\",\"\",\"25\",\"\",\"68\",\"\",\"11.3\",\"\",\"100.64\",\"\",\"\",\"\",\"-12\",\"\",\"Mostly
        Cloudy\"\r\n\"-54.00\",\"47.30\",\"ARGENTIA A\",\"8400100\",\"1965-01-15 06:30\",\"1965\",\"01\",\"15\",\"06:30\",\"-2.8\",\"\",\"-7.8\",\"\",\"68\",\"\",\"25\",\"\",\"60\",\"\",\"9.7\",\"\",\"100.68\",\"\",\"\",\"\",\"-13\",\"\",\"Snow
        Showers\"\r\n\"-54.00\",\"47.30\",\"ARGENTIA A\",\"8400100\",\"1965-01-15
        07:30\",\"1965\",\"01\",\"15\",\"07:30\",\"-2.8\",\"\",\"-8.3\",\"\",\"66\",\"\",\"27\",\"\",\"71\",\"\",\"8.0\",\"\",\"100.81\",\"\",\"\",\"\",\"-13\",\"\",\"Snow
        Showers,Blowing Snow\"\r\n\"-54.00\",\"47.30\",\"ARGENTIA A\",\"8400100\",\"1965-01-15
        08:30\",\"1965\",\"01\",\"15\",\"08:30\",\"-3.9\",\"\",\"-11.7\",\"\",\"55\",\"\",\"25\",\"\",\"76\",\"\",\"12.9\",\"\",\"100.95\",\"\",\"\",\"\",\"-15\",\"\",\"Mostly
        Cloudy\"\r\n\"-54.00\",\"47.30\",\"ARGENTIA A\",\"8400100\",\"1965-01-15 09:30\",\"1965\",\"01\",\"15\",\"09:30\",\"-5.6\",\"\",\"-12.2\",\"\",\"59\",\"\",\"27\",\"\",\"74\",\"\",\"12.9\",\"\",\"101.19\",\"\",\"\",\"\",\"-17\",\"\",\"Mostly
        Cloudy\"\r\n\"-54.00\",\"47.30\",\"ARGENTIA A\",\"8400100\",\"1965-01-15 10:30\",\"1965\",\"01\",\"15\",\"10:30\",\"-7.2\",\"\",\"-9.4\",\"\",\"84\",\"\",\"27\",\"\",\"64\",\"\",\"1.6\",\"\",\"101.36\",\"\",\"\",\"\",\"-19\",\"\",\"Snow
        Showers,Blowing Snow\"\r\n\"-54.00\",\"47.30\",\"ARGENTIA A\",\"8400100\",\"1965-01-15
        11:30\",\"1965\",\"01\",\"15\",\"11:30\",\"-6.7\",\"\",\"-14.4\",\"\",\"54\",\"\",\"27\",\"\",\"74\",\"\",\"14.5\",\"\",\"101.39\",\"\",\"\",\"\",\"-19\",\"\",\"Mostly
        Cloudy\"\r\n\"-54.00\",\"47.30\",\"ARGENTIA A\",\"8400100\",\"1965-01-15 12:30\",\"1965\",\"01\",\"15\",\"12:30\",\"-7.2\",\"\",\"-13.3\",\"\",\"62\",\"\",\"25\",\"\",\"72\",\"\",\"12.9\",\"\",\"101.46\",\"\",\"\",\"\",\"-20\",\"\",\"Mostly
        Cloudy\"\r\n\"-54.00\",\"47.30\",\"ARGENTIA A\",\"8400100\",\"1965-01-15 13:30\",\"1965\",\"01\",\"15\",\"13:30\",\"-7.2\",\"\",\"-13.3\",\"\",\"62\",\"\",\"25\",\"\",\"71\",\"\",\"12.9\",\"\",\"101.49\",\"\",\"\",\"\",\"-19\",\"\",\"Mostly
        Cloudy\"\r\n\"-54.00\",\"47.30\",\"ARGENTIA A\",\"8400100\",\"1965-01-15 14:30\",\"1965\",\"01\",\"15\",\"14:30\",\"-7.8\",\"\",\"-14.4\",\"\",\"59\",\"\",\"25\",\"\",\"71\",\"\",\"11.3\",\"\",\"101.59\",\"\",\"\",\"\",\"-20\",\"\",\"Mostly
        Cloudy\"\r\n\"-54.00\",\"47.30\",\"ARGENTIA A\",\"8400100\",\"1965-01-15 15:30\",\"1965\",\"01\",\"15\",\"15:30\",\"-7.8\",\"\",\"-15.0\",\"\",\"56\",\"\",\"25\",\"\",\"71\",\"\",\"11.3\",\"\",\"101.80\",\"\",\"\",\"\",\"-20\",\"\",\"Mostly
        Cloudy\"\r\n\"-54.00\",\"47.30\",\"ARGENTIA A\",\"8400100\",\"1965-01-15 16:30\",\"1965\",\"01\",\"15\",\"16:30\",\"-8.3\",\"\",\"-13.9\",\"\",\"64\",\"\",\"27\",\"\",\"68\",\"\",\"14.5\",\"\",\"101.90\",\"\",\"\",\"\",\"-21\",\"\",\"Mostly
        Cloudy\"\r\n\"-54.00\",\"47.30\",\"ARGENTIA A\",\"8400100\",\"1965-01-15 17:30\",\"1965\",\"01\",\"15\",\"17:30\",\"-8.3\",\"\",\"-15.0\",\"\",\"59\",\"\",\"25\",\"\",\"68\",\"\",\"12.9\",\"\",\"101.93\",\"\",\"\",\"\",\"-21\",\"\",\"Mostly
        Cloudy\"\r\n\"-54.00\",\"47.30\",\"ARGENTIA A\",\"8400100\",\"1965-01-15 18:30\",\"1965\",\"01\",\"15\",\"18:30\",\"-8.3\",\"\",\"-15.0\",\"\",\"59\",\"\",\"25\",\"\",\"68\",\"\",\"12.9\",\"\",\"102.10\",\"\",\"\",\"\",\"-21\",\"\",\"Snow
        Showers\"\r\n\"-54.00\",\"47.30\",\"ARGENTIA A\",\"8400100\",\"1965-01-15
        19:30\",\"1965\",\"01\",\"15\",\"19:30\",\"-8.3\",\"\",\"-12.8\",\"\",\"70\",\"\",\"27\",\"\",\"63\",\"\",\"12.9\",\"\",\"102.27\",\"\",\"\",\"\",\"-20\",\"\",\"Cloudy\"\r\n\"-54.00\",\"47.30\",\"ARGENTIA
        A\",\"8400100\",\"1965-01-15 20:30\",\"1965\",\"01\",\"15\",\"20:30\",\"-8.3\",\"\",\"-10.6\",\"\",\"84\",\"\",\"27\",\"\",\"61\",\"\",\"4.8\",\"\",\"102.40\",\"\",\"\",\"\",\"-20\",\"\",\"Snow
        Showers\"\r\n\"-54.00\",\"47.30\",\"ARGENTIA A\",\"8400100\",\"1965-01-15
        21:30\",\"1965\",\"01\",\"15\",\"21:30\",\"-8.3\",\"\",\"-13.3\",\"\",\"67\",\"\",\"27\",\"\",\"68\",\"\",\"11.3\",\"\",\"102.54\",\"\",\"\",\"\",\"-21\",\"\",\"Cloudy\"\r\n\"-54.00\",\"47.30\",\"ARGENTIA
        A\",\"8400100\",\"1965-01-15 22:30\",\"1965\",\"01\",\"15\",\"22:30\",\"-9.4\",\"\",\"-11.7\",\"\",\"84\",\"\",\"32\",\"\",\"27\",\"\",\"12.9\",\"\",\"102.57\",\"\",\"\",\"\",\"-18\",\"\",\"Snow
        Showers\"\r\n\"-54.00\",\"47.30\",\"ARGENTIA A\",\"8400100\",\"1965-01-15
        23:30\",\"1965\",\"01\",\"15\",\"23:30\",\"-10.0\",\"\",\"-11.1\",\"\",\"92\",\"\",\"29\",\"\",\"34\",\"\",\"4.8\",\"\",\"102.64\",\"\",\"\",\"\",\"-20\",\"\",\"Snow
        Showers\"\r\n\"-54.00\",\"47.30\",\"ARGENTIA A\",\"8400100\",\"1965-01-16
        00:30\",\"1965\",\"01\",\"16\",\"00:30\",\"-9.4\",\"\",\"-15.0\",\"\",\"64\",\"\",\"29\",\"\",\"40\",\"\",\"8.0\",\"\",\"102.81\",\"\",\"\",\"\",\"-20\",\"\",\"Blowing
        Snow\"\r\n\"-54.00\",\"47.30\",\"ARGENTIA A\",\"8400100\",\"1965-01-16 01:30\",\"1965\",\"01\",\"16\",\"01:30\",\"-9.4\",\"\",\"-12.2\",\"\",\"80\",\"\",\"29\",\"\",\"39\",\"\",\"8.0\",\"\",\"102.91\",\"\",\"\",\"\",\"-20\",\"\",\"Blowing
        Snow\"\r\n\"-54.00\",\"47.30\",\"ARGENTIA A\",\"8400100\",\"1965-01-16 02:30\",\"1965\",\"01\",\"16\",\"02:30\",\"-8.9\",\"\",\"-12.2\",\"\",\"77\",\"\",\"29\",\"\",\"43\",\"\",\"12.9\",\"\",\"102.98\",\"\",\"\",\"\",\"-20\",\"\",\"Mostly
        Cloudy\"\r\n\"-54.00\",\"47.30\",\"ARGENTIA A\",\"8400100\",\"1965-01-16 03:30\",\"1965\",\"01\",\"16\",\"03:30\",\"-8.9\",\"\",\"-12.8\",\"\",\"73\",\"\",\"29\",\"\",\"39\",\"\",\"12.9\",\"\",\"103.08\",\"\",\"\",\"\",\"-19\",\"\",\"Mostly
        Cloudy\"\r\n\"-54.00\",\"47.30\",\"ARGENTIA A\",\"8400100\",\"1965-01-16 04:30\",\"1965\",\"01\",\"16\",\"04:30\",\"-8.9\",\"\",\"-13.3\",\"\",\"70\",\"\",\"29\",\"\",\"27\",\"\",\"12.9\",\"\",\"103.18\",\"\",\"\",\"\",\"-18\",\"\",\"Cloudy\"\r\n\"-54.00\",\"47.30\",\"ARGENTIA
        A\",\"8400100\",\"1965-01-16 05:30\",\"1965\",\"01\",\"16\",\"05:30\",\"-8.9\",\"\",\"-12.2\",\"\",\"77\",\"\",\"32\",\"\",\"23\",\"\",\"12.9\",\"\",\"103.22\",\"\",\"\",\"\",\"-17\",\"\",\"Mostly
        Cloudy\"\r\n\"-54.00\",\"47.30\",\"ARGENTIA A\",\"8400100\",\"1965-01-16 06:30\",\"1965\",\"01\",\"16\",\"06:30\",\"-8.9\",\"\",\"-11.1\",\"\",\"84\",\"\",\"32\",\"\",\"21\",\"\",\"12.9\",\"\",\"103.22\",\"\",\"\",\"\",\"-17\",\"\",\"Mostly
        Cloudy\"\r\n\"-54.00\",\"47.30\",\"ARGENTIA A\",\"8400100\",\"1965-01-16 07:30\",\"1965\",\"01\",\"16\",\"07:30\",\"-8.9\",\"\",\"-12.2\",\"\",\"77\",\"\",\"32\",\"\",\"26\",\"\",\"12.9\",\"\",\"103.29\",\"\",\"\",\"\",\"-18\",\"\",\"Mostly
        Cloudy\"\r\n\"-54.00\",\"47.30\",\"ARGENTIA A\",\"8400100\",\"1965-01-16 08:30\",\"1965\",\"01\",\"16\",\"08:30\",\"-8.9\",\"\",\"-13.3\",\"\",\"70\",\"\",\"32\",\"\",\"14\",\"\",\"14.5\",\"\",\"103.42\",\"\",\"\",\"\",\"-15\",\"\",\"Mostly
        Cloudy\"\r\n\"-54.00\",\"47.30\",\"ARGENTIA A\",\"8400100\",\"1965-01-16 09:30\",\"1965\",\"01\",\"16\",\"09:30\",\"-8.9\",\"\",\"-12.2\",\"\",\"77\",\"\",\"32\",\"\",\"19\",\"\",\"12.9\",\"\",\"103.45\",\"\",\"\",\"\",\"-16\",\"\",\"Snow
        Showers\"\r\n\"-54.00\",\"47.30\",\"ARGENTIA A\",\"8400100\",\"1965-01-16
        10:30\",\"1965\",\"01\",\"16\",\"10:30\",\"-8.3\",\"\",\"-13.3\",\"\",\"67\",\"\",\"29\",\"\",\"14\",\"\",\"12.9\",\"\",\"103.45\",\"\",\"\",\"\",\"-14\",\"\",\"Mostly
        Cloudy\"\r\n\"-54.00\",\"47.30\",\"ARGENTIA A\",\"8400100\",\"1965-01-16 11:30\",\"1965\",\"01\",\"16\",\"11:30\",\"-8.3\",\"\",\"-12.2\",\"\",\"73\",\"\",\"36\",\"\",\"11\",\"\",\"12.9\",\"\",\"103.45\",\"\",\"\",\"\",\"-14\",\"\",\"Snow
        Showers\"\r\n\"-54.00\",\"47.30\",\"ARGENTIA A\",\"8400100\",\"1965-01-16
        12:30\",\"1965\",\"01\",\"16\",\"12:30\"\r\n\"-54.00\",\"47.30\",\"ARGENTIA
        A\",\"8400100\",\"1965-01-16 13:30\",\"1965\",\"01\",\"16\",\"13:30\",\"-7.8\",\"\",\"-12.2\",\"\",\"70\",\"\",\"29\",\"\",\"14\",\"\",\"16.1\",\"\",\"103.35\",\"\",\"\",\"\",\"-14\",\"\",\"Cloudy\"\r\n\"-54.00\",\"47.30\",\"ARGENTIA
        A\",\"8400100\",\"1965-01-16 14:30\",\"1965\",\"01\",\"16\",\"14:30\",\"-7.8\",\"\",\"-12.2\",\"\",\"70\",\"\",\"27\",\"\",\"21\",\"\",\"16.1\",\"\",\"103.32\",\"\",\"\",\"\",\"-15\",\"\",\"Snow
        Showers\"\r\n\"-54.00\",\"47.30\",\"ARGENTIA A\",\"8400100\",\"1965-01-16
        15:30\",\"1965\",\"01\",\"16\",\"15:30\",\"-7.2\",\"\",\"-12.2\",\"\",\"67\",\"\",\"27\",\"\",\"16\",\"\",\"14.5\",\"\",\"103.32\",\"\",\"\",\"\",\"-14\",\"\",\"Cloudy\"\r\n\"-54.00\",\"47.30\",\"ARGENTIA
        A\",\"8400100\",\"1965-01-16 16:30\",\"1965\",\"01\",\"16\",\"16:30\",\"-7.2\",\"\",\"-11.7\",\"\",\"70\",\"\",\"25\",\"\",\"19\",\"\",\"14.5\",\"\",\"103.29\",\"\",\"\",\"\",\"-14\",\"\",\"Cloudy\"\r\n\"-54.00\",\"47.30\",\"ARGENTIA
        A\",\"8400100\",\"1965-01-16 17:30\",\"1965\",\"01\",\"16\",\"17:30\",\"-6.7\",\"\",\"-11.7\",\"\",\"68\",\"\",\"27\",\"\",\"11\",\"\",\"12.9\",\"\",\"103.29\",\"\",\"\",\"\",\"-12\",\"\",\"Cloudy\"\r\n\"-54.00\",\"47.30\",\"ARGENTIA
        A\",\"8400100\",\"1965-01-16 18:30\",\"1965\",\"01\",\"16\",\"18:30\",\"-7.2\",\"\",\"-11.7\",\"\",\"70\",\"\",\"27\",\"\",\"5\",\"\",\"12.9\",\"\",\"103.18\",\"\",\"\",\"\",\"-10\",\"\",\"Cloudy\"\r\n\"-54.00\",\"47.30\",\"ARGENTIA
        A\",\"8400100\",\"1965-01-16 19:30\",\"1965\",\"01\",\"16\",\"19:30\",\"-7.2\",\"\",\"-11.7\",\"\",\"70\",\"\",\"\",\"\",\"0\",\"\",\"12.9\",\"\",\"103.15\",\"\",\"\",\"\",\"\",\"\",\"Cloudy\"\r\n\"-54.00\",\"47.30\",\"ARGENTIA
        A\",\"8400100\",\"1965-01-16 20:30\",\"1965\",\"01\",\"16\",\"20:30\",\"-6.7\",\"\",\"-10.0\",\"\",\"77\",\"\",\"\",\"\",\"0\",\"\",\"12.9\",\"\",\"103.08\",\"\",\"\",\"\",\"\",\"\",\"Cloudy\"\r\n\"-54.00\",\"47.30\",\"ARGENTIA
        A\",\"8400100\",\"1965-01-16 21:30\",\"1965\",\"01\",\"16\",\"21:30\",\"-6.7\",\"\",\"-10.6\",\"\",\"74\",\"\",\"9\",\"\",\"11\",\"\",\"12.9\",\"\",\"102.98\",\"\",\"\",\"\",\"-12\",\"\",\"Cloudy\"\r\n\"-54.00\",\"47.30\",\"ARGENTIA
        A\",\"8400100\",\"1965-01-16 22:30\",\"1965\",\"01\",\"16\",\"22:30\",\"-7.8\",\"\",\"-8.9\",\"\",\"92\",\"\",\"9\",\"\",\"11\",\"\",\"11.3\",\"\",\"102.85\",\"\",\"\",\"\",\"-13\",\"\",\"Snow\"\r\n\"-54.00\",\"47.30\",\"ARGENTIA
        A\",\"8400100\",\"1965-01-16 23:30\",\"1965\",\"01\",\"16\",\"23:30\",\"-7.8\",\"\",\"-8.9\",\"\",\"92\",\"\",\"7\",\"\",\"14\",\"\",\"4.8\",\"\",\"102.74\",\"\",\"\",\"\",\"-14\",\"\",\"Snow\"\r\n\"-54.00\",\"47.30\",\"ARGENTIA
        A\",\"8400100\",\"1965-01-17 00:30\",\"1965\",\"01\",\"17\",\"00:30\",\"-7.8\",\"\",\"-9.4\",\"\",\"88\",\"\",\"5\",\"\",\"26\",\"\",\"3.2\",\"\",\"102.51\",\"\",\"\",\"\",\"-16\",\"\",\"Snow\"\r\n\"-54.00\",\"47.30\",\"ARGENTIA
        A\",\"8400100\",\"1965-01-17 01:30\",\"1965\",\"01\",\"17\",\"01:30\",\"-7.8\",\"\",\"-9.4\",\"\",\"88\",\"\",\"7\",\"\",\"14\",\"\",\"3.2\",\"\",\"102.51\",\"\",\"\",\"\",\"-14\",\"\",\"Snow\"\r\n\"-54.00\",\"47.30\",\"ARGENTIA
        A\",\"8400100\",\"1965-01-17 02:30\",\"1965\",\"01\",\"17\",\"02:30\",\"-7.8\",\"\",\"-9.4\",\"\",\"88\",\"\",\"7\",\"\",\"23\",\"\",\"3.2\",\"\",\"102.27\",\"\",\"\",\"\",\"-16\",\"\",\"Snow\"\r\n\"-54.00\",\"47.30\",\"ARGENTIA
        A\",\"8400100\",\"1965-01-17 03:30\",\"1965\",\"01\",\"17\",\"03:30\",\"-7.8\",\"\",\"-10.0\",\"\",\"84\",\"\",\"5\",\"\",\"40\",\"\",\"4.8\",\"\",\"102.13\",\"\",\"\",\"\",\"-18\",\"\",\"Snow,Blowing
        Snow\"\r\n\"-54.00\",\"47.30\",\"ARGENTIA A\",\"8400100\",\"1965-01-17 04:30\",\"1965\",\"01\",\"17\",\"04:30\",\"-7.8\",\"\",\"-10.0\",\"\",\"84\",\"\",\"7\",\"\",\"35\",\"\",\"4.8\",\"\",\"102.07\",\"\",\"\",\"\",\"-17\",\"\",\"Snow,Blowing
        Snow\"\r\n\"-54.00\",\"47.30\",\"ARGENTIA A\",\"8400100\",\"1965-01-17 05:30\",\"1965\",\"01\",\"17\",\"05:30\",\"-7.8\",\"\",\"-9.4\",\"\",\"88\",\"\",\"7\",\"\",\"34\",\"\",\"4.8\",\"\",\"101.96\",\"\",\"\",\"\",\"-17\",\"\",\"Snow,Blowing
        Snow\"\r\n\"-54.00\",\"47.30\",\"ARGENTIA A\",\"8400100\",\"1965-01-17 06:30\",\"1965\",\"01\",\"17\",\"06:30\",\"-6.7\",\"\",\"-8.9\",\"\",\"84\",\"\",\"7\",\"\",\"29\",\"\",\"4.8\",\"\",\"101.90\",\"\",\"\",\"\",\"-15\",\"\",\"Snow,Blowing
        Snow\"\r\n\"-54.00\",\"47.30\",\"ARGENTIA A\",\"8400100\",\"1965-01-17 07:30\",\"1965\",\"01\",\"17\",\"07:30\",\"-6.1\",\"\",\"-8.3\",\"\",\"84\",\"\",\"7\",\"\",\"32\",\"\",\"4.8\",\"\",\"101.83\",\"\",\"\",\"\",\"-15\",\"\",\"Snow,Blowing
        Snow\"\r\n\"-54.00\",\"47.30\",\"ARGENTIA A\",\"8400100\",\"1965-01-17 08:30\",\"1965\",\"01\",\"17\",\"08:30\",\"-6.1\",\"\",\"-8.3\",\"\",\"84\",\"\",\"7\",\"\",\"35\",\"\",\"3.2\",\"\",\"101.80\",\"\",\"\",\"\",\"-15\",\"\",\"Snow,Blowing
        Snow\"\r\n\"-54.00\",\"47.30\",\"ARGENTIA A\",\"8400100\",\"1965-01-17 09:30\",\"1965\",\"01\",\"17\",\"09:30\",\"-5.0\",\"\",\"-7.8\",\"\",\"81\",\"\",\"9\",\"\",\"35\",\"\",\"14.5\",\"\",\"101.80\",\"\",\"\",\"\",\"-14\",\"\",\"Snow\"\r\n\"-54.00\",\"47.30\",\"ARGENTIA
        A\",\"8400100\",\"1965-01-17 10:30\",\"1965\",\"01\",\"17\",\"10:30\",\"-3.9\",\"\",\"-6.7\",\"\",\"81\",\"\",\"9\",\"\",\"34\",\"\",\"14.5\",\"\",\"101.76\",\"\",\"\",\"\",\"-12\",\"\",\"Snow\"\r\n\"-54.00\",\"47.30\",\"ARGENTIA
        A\",\"8400100\",\"1965-01-17 11:30\",\"1965\",\"01\",\"17\",\"11:30\",\"-3.3\",\"\",\"-6.1\",\"\",\"81\",\"\",\"7\",\"\",\"37\",\"\",\"14.5\",\"\",\"101.69\",\"\",\"\",\"\",\"-12\",\"\",\"Cloudy\"\r\n\"-54.00\",\"47.30\",\"ARGENTIA
        A\",\"8400100\",\"1965-01-17 12:30\",\"1965\",\"01\",\"17\",\"12:30\",\"-3.3\",\"\",\"-5.6\",\"\",\"85\",\"\",\"9\",\"\",\"34\",\"\",\"12.9\",\"\",\"101.59\",\"\",\"\",\"\",\"-11\",\"\",\"Cloudy\"\r\n\"-54.00\",\"47.30\",\"ARGENTIA
        A\",\"8400100\",\"1965-01-17 13:30\",\"1965\",\"01\",\"17\",\"13:30\",\"-2.8\",\"\",\"-5.6\",\"\",\"81\",\"\",\"9\",\"\",\"34\",\"\",\"12.9\",\"\",\"101.49\",\"\",\"\",\"\",\"-11\",\"\",\"Cloudy\"\r\n\"-54.00\",\"47.30\",\"ARGENTIA
        A\",\"8400100\",\"1965-01-17 14:30\",\"1965\",\"01\",\"17\",\"14:30\",\"-2.8\",\"\",\"-5.6\",\"\",\"81\",\"\",\"9\",\"\",\"34\",\"\",\"12.9\",\"\",\"101.39\",\"\",\"\",\"\",\"-11\",\"\",\"Cloudy\"\r\n\"-54.00\",\"47.30\",\"ARGENTIA
        A\",\"8400100\",\"1965-01-17 15:30\",\"1965\",\"01\",\"17\",\"15:30\",\"-2.2\",\"\",\"-4.4\",\"\",\"85\",\"\",\"9\",\"\",\"34\",\"\",\"12.9\",\"\",\"101.32\",\"\",\"\",\"\",\"-10\",\"\",\"Cloudy\"\r\n\"-54.00\",\"47.30\",\"ARGENTIA
        A\",\"8400100\",\"1965-01-17 16:30\",\"1965\",\"01\",\"17\",\"16:30\",\"-2.2\",\"\",\"-4.4\",\"\",\"85\",\"\",\"9\",\"\",\"27\",\"\",\"12.9\",\"\",\"101.36\",\"\",\"\",\"\",\"-9\",\"\",\"Freezing
        Rain\"\r\n\"-54.00\",\"47.30\",\"ARGENTIA A\",\"8400100\",\"1965-01-17 17:30\",\"1965\",\"01\",\"17\",\"17:30\",\"-1.7\",\"\",\"-3.3\",\"\",\"88\",\"\",\"9\",\"\",\"32\",\"\",\"4.8\",\"\",\"101.32\",\"\",\"\",\"\",\"-9\",\"\",\"Freezing
        Rain\"\r\n\"-54.00\",\"47.30\",\"ARGENTIA A\",\"8400100\",\"1965-01-17 18:30\",\"1965\",\"01\",\"17\",\"18:30\",\"-1.1\",\"\",\"-3.3\",\"\",\"85\",\"\",\"7\",\"\",\"29\",\"\",\"3.2\",\"\",\"101.32\",\"\",\"\",\"\",\"-8\",\"\",\"Rain\"\r\n\"-54.00\",\"47.30\",\"ARGENTIA
        A\",\"8400100\",\"1965-01-17 19:30\",\"1965\",\"01\",\"17\",\"19:30\",\"-1.1\",\"\",\"-2.2\",\"\",\"92\",\"\",\"7\",\"\",\"29\",\"\",\"11.3\",\"\",\"101.32\",\"\",\"\",\"\",\"-8\",\"\",\"Freezing
        Rain\"\r\n\"-54.00\",\"47.30\",\"ARGENTIA A\",\"8400100\",\"1965-01-17 20:30\",\"1965\",\"01\",\"17\",\"20:30\",\"-0.6\",\"\",\"-1.7\",\"\",\"92\",\"\",\"9\",\"\",\"34\",\"\",\"11.3\",\"\",\"101.19\",\"\",\"\",\"\",\"-8\",\"\",\"Freezing
        Rain\"\r\n\"-54.00\",\"47.30\",\"ARGENTIA A\",\"8400100\",\"1965-01-17 21:30\",\"1965\",\"01\",\"17\",\"21:30\",\"0.0\",\"\",\"-1.7\",\"\",\"89\",\"\",\"9\",\"\",\"32\",\"\",\"11.3\",\"\",\"101.08\",\"\",\"\",\"\",\"-7\",\"\",\"Freezing
        Rain\"\r\n\"-54.00\",\"47.30\",\"ARGENTIA A\",\"8400100\",\"1965-01-17 22:30\",\"1965\",\"01\",\"17\",\"22:30\",\"0.0\",\"\",\"-1.7\",\"\",\"89\",\"\",\"9\",\"\",\"29\",\"\",\"11.3\",\"\",\"100.98\",\"\",\"\",\"\",\"-6\",\"\",\"Freezing
        Rain\"\r\n\"-54.00\",\"47.30\",\"ARGENTIA A\",\"8400100\",\"1965-01-17 23:30\",\"1965\",\"01\",\"17\",\"23:30\",\"0.6\",\"\",\"-0.6\",\"\",\"92\",\"\",\"9\",\"\",\"27\",\"\",\"11.3\",\"\",\"100.81\",\"\",\"\",\"\",\"\",\"\",\"Rain\"\r\n\"-54.00\",\"47.30\",\"ARGENTIA
        A\",\"8400100\",\"1965-01-18 00:30\",\"1965\",\"01\",\"18\",\"00:30\",\"0.6\",\"\",\"-0.6\",\"\",\"92\",\"\",\"9\",\"\",\"24\",\"\",\"6.4\",\"\",\"100.68\",\"\",\"\",\"\",\"\",\"\",\"Rain\"\r\n\"-54.00\",\"47.30\",\"ARGENTIA
        A\",\"8400100\",\"1965-01-18 01:30\",\"1965\",\"01\",\"18\",\"01:30\",\"1.7\",\"\",\"1.1\",\"\",\"96\",\"\",\"7\",\"\",\"14\",\"\",\"6.4\",\"\",\"100.44\",\"\",\"\",\"\",\"\",\"\",\"Rain\"\r\n\"-54.00\",\"47.30\",\"ARGENTIA
        A\",\"8400100\",\"1965-01-18 02:30\",\"1965\",\"01\",\"18\",\"02:30\",\"3.3\",\"\",\"3.3\",\"\",\"100\",\"\",\"16\",\"\",\"45\",\"\",\"8.0\",\"\",\"100.31\",\"\",\"\",\"\",\"\",\"\",\"Rain\"\r\n\"-54.00\",\"47.30\",\"ARGENTIA
        A\",\"8400100\",\"1965-01-18 03:30\",\"1965\",\"01\",\"18\",\"03:30\",\"6.1\",\"\",\"6.1\",\"\",\"100\",\"\",\"18\",\"\",\"40\",\"\",\"8.0\",\"\",\"100.17\",\"\",\"\",\"\",\"\",\"\",\"Rain\"\r\n\"-54.00\",\"47.30\",\"ARGENTIA
        A\",\"8400100\",\"1965-01-18 04:30\",\"1965\",\"01\",\"18\",\"04:30\",\"10.0\",\"\",\"8.9\",\"\",\"93\",\"\",\"20\",\"\",\"37\",\"\",\"9.7\",\"\",\"100.10\",\"\",\"\",\"\",\"\",\"\",\"Rain\"\r\n\"-54.00\",\"47.30\",\"ARGENTIA
        A\",\"8400100\",\"1965-01-18 05:30\",\"1965\",\"01\",\"18\",\"05:30\",\"10.0\",\"\",\"10.0\",\"\",\"100\",\"\",\"18\",\"\",\"45\",\"\",\"4.8\",\"\",\"99.90\",\"\",\"\",\"\",\"\",\"\",\"Rain,Fog\"\r\n\"-54.00\",\"47.30\",\"ARGENTIA
        A\",\"8400100\",\"1965-01-18 06:30\",\"1965\",\"01\",\"18\",\"06:30\",\"11.1\",\"\",\"10.0\",\"\",\"93\",\"\",\"18\",\"\",\"37\",\"\",\"9.7\",\"\",\"99.63\",\"\",\"\",\"\",\"\",\"\",\"Rain,Fog\"\r\n\"-54.00\",\"47.30\",\"ARGENTIA
        A\",\"8400100\",\"1965-01-18 07:30\",\"1965\",\"01\",\"18\",\"07:30\",\"7.8\",\"\",\"7.8\",\"\",\"100\",\"\",\"20\",\"\",\"40\",\"\",\"8.0\",\"\",\"99.97\",\"\",\"\",\"\",\"\",\"\",\"Rain,Fog\"\r\n\"-54.00\",\"47.30\",\"ARGENTIA
        A\",\"8400100\",\"1965-01-18 08:30\",\"1965\",\"01\",\"18\",\"08:30\",\"5.0\",\"\",\"5.0\",\"\",\"100\",\"\",\"20\",\"\",\"40\",\"\",\"3.2\",\"\",\"99.97\",\"\",\"\",\"\",\"\",\"\",\"Rain,Fog\"\r\n\"-54.00\",\"47.30\",\"ARGENTIA
        A\",\"8400100\",\"1965-01-18 09:30\",\"1965\",\"01\",\"18\",\"09:30\",\"3.9\",\"\",\"3.9\",\"\",\"100\",\"\",\"18\",\"\",\"29\",\"\",\"0.4\",\"\",\"99.90\",\"\",\"\",\"\",\"\",\"\",\"Rain,Fog\"\r\n\"-54.00\",\"47.30\",\"ARGENTIA
        A\",\"8400100\",\"1965-01-18 10:30\",\"1965\",\"01\",\"18\",\"10:30\",\"5.6\",\"\",\"5.6\",\"\",\"100\",\"\",\"20\",\"\",\"34\",\"\",\"1.6\",\"\",\"99.90\",\"\",\"\",\"\",\"\",\"\",\"Rain,Fog\"\r\n\"-54.00\",\"47.30\",\"ARGENTIA
        A\",\"8400100\",\"1965-01-18 11:30\",\"1965\",\"01\",\"18\",\"11:30\",\"5.0\",\"\",\"5.0\",\"\",\"100\",\"\",\"18\",\"\",\"37\",\"\",\"0.8\",\"\",\"99.80\",\"\",\"\",\"\",\"\",\"\",\"Rain,Fog\"\r\n\"-54.00\",\"47.30\",\"ARGENTIA
        A\",\"8400100\",\"1965-01-18 12:30\",\"1965\",\"01\",\"18\",\"12:30\",\"5.0\",\"\",\"5.0\",\"\",\"100\",\"\",\"20\",\"\",\"40\",\"\",\"0.0\",\"\",\"99.66\",\"\",\"\",\"\",\"\",\"\",\"Rain,Fog\"\r\n\"-54.00\",\"47.30\",\"ARGENTIA
        A\",\"8400100\",\"1965-01-18 13:30\",\"1965\",\"01\",\"18\",\"13:30\",\"3.9\",\"\",\"3.9\",\"\",\"100\",\"\",\"20\",\"\",\"39\",\"\",\"0.4\",\"\",\"99.56\",\"\",\"\",\"\",\"\",\"\",\"Rain,Fog\"\r\n\"-54.00\",\"47.30\",\"ARGENTIA
        A\",\"8400100\",\"1965-01-18 14:30\",\"1965\",\"01\",\"18\",\"14:30\",\"3.3\",\"\",\"3.3\",\"\",\"100\",\"\",\"20\",\"\",\"39\",\"\",\"0.0\",\"\",\"99.63\",\"\",\"\",\"\",\"\",\"\",\"Rain,Fog\"\r\n\"-54.00\",\"47.30\",\"ARGENTIA
        A\",\"8400100\",\"1965-01-18 15:30\",\"1965\",\"01\",\"18\",\"15:30\",\"1.7\",\"\",\"1.7\",\"\",\"100\",\"\",\"23\",\"\",\"34\",\"\",\"12.9\",\"\",\"99.87\",\"\",\"\",\"\",\"\",\"\",\"Rain\"\r\n\"-54.00\",\"47.30\",\"ARGENTIA
        A\",\"8400100\",\"1965-01-18 16:30\",\"1965\",\"01\",\"18\",\"16:30\",\"1.1\",\"\",\"0.6\",\"\",\"96\",\"\",\"25\",\"\",\"51\",\"\",\"14.5\",\"\",\"100.00\",\"\",\"\",\"\",\"\",\"\",\"Cloudy\"\r\n\"-54.00\",\"47.30\",\"ARGENTIA
        A\",\"8400100\",\"1965-01-18 17:30\",\"1965\",\"01\",\"18\",\"17:30\",\"1.1\",\"\",\"0.6\",\"\",\"96\",\"\",\"25\",\"\",\"48\",\"\",\"14.5\",\"\",\"100.37\",\"\",\"\",\"\",\"\",\"\",\"Mostly
        Cloudy\"\r\n\"-54.00\",\"47.30\",\"ARGENTIA A\",\"8400100\",\"1965-01-18 18:30\",\"1965\",\"01\",\"18\",\"18:30\",\"1.1\",\"\",\"0.0\",\"\",\"92\",\"\",\"27\",\"\",\"53\",\"\",\"12.9\",\"\",\"100.61\",\"\",\"\",\"\",\"\",\"\",\"Cloudy\"\r\n\"-54.00\",\"47.30\",\"ARGENTIA
        A\",\"8400100\",\"1965-01-18 19:30\",\"1965\",\"01\",\"18\",\"19:30\",\"1.1\",\"\",\"0.0\",\"\",\"92\",\"\",\"27\",\"\",\"40\",\"\",\"12.9\",\"\",\"100.81\",\"\",\"\",\"\",\"\",\"\",\"Cloudy\"\r\n\"-54.00\",\"47.30\",\"ARGENTIA
        A\",\"8400100\",\"1965-01-18 20:30\",\"1965\",\"01\",\"18\",\"20:30\",\"1.1\",\"\",\"0.0\",\"\",\"92\",\"\",\"25\",\"\",\"37\",\"\",\"12.9\",\"\",\"101.05\",\"\",\"\",\"\",\"\",\"\",\"Mostly
        Cloudy\"\r\n\"-54.00\",\"47.30\",\"ARGENTIA A\",\"8400100\",\"1965-01-18 21:30\",\"1965\",\"01\",\"18\",\"21:30\",\"1.1\",\"\",\"0.0\",\"\",\"92\",\"\",\"27\",\"\",\"43\",\"\",\"12.9\",\"\",\"101.19\",\"\",\"\",\"\",\"\",\"\",\"Mostly
        Cloudy\"\r\n\"-54.00\",\"47.30\",\"ARGENTIA A\",\"8400100\",\"1965-01-18 22:30\",\"1965\",\"01\",\"18\",\"22:30\",\"0.6\",\"\",\"-1.7\",\"\",\"85\",\"\",\"27\",\"\",\"45\",\"\",\"12.9\",\"\",\"101.36\",\"\",\"\",\"\",\"\",\"\",\"Cloudy\"\r\n\"-54.00\",\"47.30\",\"ARGENTIA
        A\",\"8400100\",\"1965-01-18 23:30\",\"1965\",\"01\",\"18\",\"23:30\",\"0.0\",\"\",\"-3.3\",\"\",\"78\",\"\",\"27\",\"\",\"37\",\"\",\"16.1\",\"\",\"101.39\",\"\",\"\",\"\",\"-7\",\"\",\"Cloudy\"\r\n\"-54.00\",\"47.30\",\"ARGENTIA
        A\",\"8400100\",\"1965-01-19 00:30\",\"1965\",\"01\",\"19\",\"00:30\",\"-0.6\",\"\",\"-5.0\",\"\",\"72\",\"\",\"27\",\"\",\"45\",\"\",\"11.3\",\"\",\"101.49\",\"\",\"\",\"\",\"-9\",\"\",\"Cloudy\"\r\n\"-54.00\",\"47.30\",\"ARGENTIA
        A\",\"8400100\",\"1965-01-19 01:30\",\"1965\",\"01\",\"19\",\"01:30\",\"0.0\",\"\",\"-5.0\",\"\",\"69\",\"\",\"27\",\"\",\"45\",\"\",\"11.3\",\"\",\"101.63\",\"\",\"\",\"\",\"-8\",\"\",\"Cloudy\"\r\n\"-54.00\",\"47.30\",\"ARGENTIA
        A\",\"8400100\",\"1965-01-19 02:30\",\"1965\",\"01\",\"19\",\"02:30\",\"-0.6\",\"\",\"-4.4\",\"\",\"75\",\"\",\"27\",\"\",\"40\",\"\",\"12.9\",\"\",\"101.73\",\"\",\"\",\"\",\"-8\",\"\",\"Cloudy\"\r\n\"-54.00\",\"47.30\",\"ARGENTIA
        A\",\"8400100\",\"1965-01-19 03:30\",\"1965\",\"01\",\"19\",\"03:30\",\"-1.1\",\"\",\"-5.0\",\"\",\"75\",\"\",\"27\",\"\",\"27\",\"\",\"12.9\",\"\",\"101.83\",\"\",\"\",\"\",\"-8\",\"\",\"Cloudy\"\r\n\"-54.00\",\"47.30\",\"ARGENTIA
        A\",\"8400100\",\"1965-01-19 04:30\",\"1965\",\"01\",\"19\",\"04:30\",\"-1.1\",\"\",\"-4.4\",\"\",\"78\",\"\",\"25\",\"\",\"34\",\"\",\"12.9\",\"\",\"101.86\",\"\",\"\",\"\",\"-8\",\"\",\"Cloudy\"\r\n\"-54.00\",\"47.30\",\"ARGENTIA
        A\",\"8400100\",\"1965-01-19 05:30\",\"1965\",\"01\",\"19\",\"05:30\",\"-1.1\",\"\",\"-4.4\",\"\",\"78\",\"\",\"27\",\"\",\"24\",\"\",\"12.9\",\"\",\"101.83\",\"\",\"\",\"\",\"-7\",\"\",\"Cloudy\"\r\n\"-54.00\",\"47.30\",\"ARGENTIA
        A\",\"8400100\",\"1965-01-19 06:30\",\"1965\",\"01\",\"19\",\"06:30\",\"-1.7\",\"\",\"-5.6\",\"\",\"75\",\"\",\"23\",\"\",\"14\",\"\",\"12.9\",\"\",\"101.69\",\"\",\"\",\"\",\"-6\",\"\",\"Cloudy\"\r\n\"-54.00\",\"47.30\",\"ARGENTIA
        A\",\"8400100\",\"1965-01-19 07:30\",\"1965\",\"01\",\"19\",\"07:30\",\"-1.7\",\"\",\"-5.6\",\"\",\"75\",\"\",\"18\",\"\",\"24\",\"\",\"16.1\",\"\",\"101.66\",\"\",\"\",\"\",\"-8\",\"\",\"Cloudy\"\r\n\"-54.00\",\"47.30\",\"ARGENTIA
        A\",\"8400100\",\"1965-01-19 08:30\",\"1965\",\"01\",\"19\",\"08:30\",\"-1.7\",\"\",\"-5.6\",\"\",\"75\",\"\",\"20\",\"\",\"23\",\"\",\"16.1\",\"\",\"101.69\",\"\",\"\",\"\",\"-8\",\"\",\"Cloudy\"\r\n\"-54.00\",\"47.30\",\"ARGENTIA
        A\",\"8400100\",\"1965-01-19 09:30\",\"1965\",\"01\",\"19\",\"09:30\",\"-1.7\",\"\",\"-5.0\",\"\",\"78\",\"\",\"16\",\"\",\"23\",\"\",\"16.1\",\"\",\"101.56\",\"\",\"\",\"\",\"-8\",\"\",\"Snow
        Showers\"\r\n\"-54.00\",\"47.30\",\"ARGENTIA A\",\"8400100\",\"1965-01-19
        10:30\",\"1965\",\"01\",\"19\",\"10:30\",\"-1.1\",\"\",\"-5.0\",\"\",\"75\",\"\",\"16\",\"\",\"19\",\"\",\"16.1\",\"\",\"101.46\",\"\",\"\",\"\",\"-6\",\"\",\"Cloudy\"\r\n\"-54.00\",\"47.30\",\"ARGENTIA
        A\",\"8400100\",\"1965-01-19 11:30\",\"1965\",\"01\",\"19\",\"11:30\",\"0.0\",\"\",\"-3.9\",\"\",\"75\",\"\",\"18\",\"\",\"39\",\"\",\"16.1\",\"\",\"101.22\",\"\",\"\",\"\",\"-7\",\"\",\"Cloudy\"\r\n\"-54.00\",\"47.30\",\"ARGENTIA
        A\",\"8400100\",\"1965-01-19 12:30\",\"1965\",\"01\",\"19\",\"12:30\",\"0.6\",\"\",\"-3.3\",\"\",\"75\",\"\",\"18\",\"\",\"39\",\"\",\"16.1\",\"\",\"101.02\",\"\",\"\",\"\",\"\",\"\",\"Mostly
        Cloudy\"\r\n\"-54.00\",\"47.30\",\"ARGENTIA A\",\"8400100\",\"1965-01-19 13:30\",\"1965\",\"01\",\"19\",\"13:30\",\"0.6\",\"\",\"-3.3\",\"\",\"75\",\"\",\"14\",\"\",\"29\",\"\",\"16.1\",\"\",\"100.71\",\"\",\"\",\"\",\"\",\"\",\"Cloudy\"\r\n\"-54.00\",\"47.30\",\"ARGENTIA
        A\",\"8400100\",\"1965-01-19 14:30\",\"1965\",\"01\",\"19\",\"14:30\",\"0.6\",\"\",\"-3.3\",\"\",\"75\",\"\",\"14\",\"\",\"24\",\"\",\"16.1\",\"\",\"100.51\",\"\",\"\",\"\",\"\",\"\",\"Cloudy\"\r\n\"-54.00\",\"47.30\",\"ARGENTIA
        A\",\"8400100\",\"1965-01-19 15:30\",\"1965\",\"01\",\"19\",\"15:30\",\"0.6\",\"\",\"-1.7\",\"\",\"85\",\"\",\"18\",\"\",\"14\",\"\",\"4.0\",\"\",\"100.34\",\"\",\"\",\"\",\"\",\"\",\"Snow,Ice
        Pellets\"\r\n\"-54.00\",\"47.30\",\"ARGENTIA A\",\"8400100\",\"1965-01-19
        16:30\",\"1965\",\"01\",\"19\",\"16:30\",\"1.1\",\"\",\"0.0\",\"\",\"92\",\"\",\"14\",\"\",\"26\",\"\",\"3.2\",\"\",\"100.03\",\"\",\"\",\"\",\"\",\"\",\"Snow,Ice
        Pellets\"\r\n\"-54.00\",\"47.30\",\"ARGENTIA A\",\"8400100\",\"1965-01-19
        17:30\",\"1965\",\"01\",\"19\",\"17:30\",\"1.7\",\"\",\"1.1\",\"\",\"96\",\"\",\"16\",\"\",\"71\",\"\",\"11.3\",\"\",\"99.73\",\"\",\"\",\"\",\"\",\"\",\"Rain\"\r\n\"-54.00\",\"47.30\",\"ARGENTIA
        A\",\"8400100\",\"1965-01-19 18:30\",\"1965\",\"01\",\"19\",\"18:30\",\"2.8\",\"\",\"1.7\",\"\",\"92\",\"\",\"16\",\"\",\"48\",\"\",\"11.3\",\"\",\"99.46\",\"\",\"\",\"\",\"\",\"\",\"Rain\"\r\n\"-54.00\",\"47.30\",\"ARGENTIA
        A\",\"8400100\",\"1965-01-19 19:30\",\"1965\",\"01\",\"19\",\"19:30\",\"2.2\",\"\",\"0.0\",\"\",\"85\",\"\",\"20\",\"\",\"40\",\"\",\"12.9\",\"\",\"99.46\",\"\",\"\",\"\",\"\",\"\",\"Cloudy\"\r\n\"-54.00\",\"47.30\",\"ARGENTIA
        A\",\"8400100\",\"1965-01-19 20:30\",\"1965\",\"01\",\"19\",\"20:30\",\"2.2\",\"\",\"0.0\",\"\",\"85\",\"\",\"23\",\"\",\"51\",\"\",\"12.9\",\"\",\"99.39\",\"\",\"\",\"\",\"\",\"\",\"Cloudy\"\r\n\"-54.00\",\"47.30\",\"ARGENTIA
        A\",\"8400100\",\"1965-01-19 21:30\",\"1965\",\"01\",\"19\",\"21:30\",\"0.6\",\"\",\"-5.0\",\"\",\"66\",\"\",\"23\",\"\",\"74\",\"\",\"12.9\",\"\",\"99.32\",\"\",\"\",\"\",\"\",\"\",\"Cloudy\"\r\n\"-54.00\",\"47.30\",\"ARGENTIA
        A\",\"8400100\",\"1965-01-19 22:30\",\"1965\",\"01\",\"19\",\"22:30\",\"-1.1\",\"\",\"-5.0\",\"\",\"75\",\"\",\"23\",\"\",\"77\",\"\",\"12.9\",\"\",\"99.19\",\"\",\"\",\"\",\"-11\",\"\",\"Mostly
        Cloudy\"\r\n\"-54.00\",\"47.30\",\"ARGENTIA A\",\"8400100\",\"1965-01-19 23:30\",\"1965\",\"01\",\"19\",\"23:30\",\"-0.6\",\"\",\"-5.0\",\"\",\"72\",\"\",\"23\",\"\",\"85\",\"\",\"4.8\",\"\",\"99.02\",\"\",\"\",\"\",\"-11\",\"\",\"Snow
        Showers,Blowing Snow\"\r\n\"-54.00\",\"47.30\",\"ARGENTIA A\",\"8400100\",\"1965-01-20
        00:30\",\"1965\",\"01\",\"20\",\"00:30\",\"-0.6\",\"\",\"-4.4\",\"\",\"75\",\"\",\"25\",\"\",\"100\",\"\",\"11.3\",\"\",\"99.05\",\"\",\"\",\"\",\"-12\",\"\",\"Cloudy\"\r\n\"-54.00\",\"47.30\",\"ARGENTIA
        A\",\"8400100\",\"1965-01-20 01:30\",\"1965\",\"01\",\"20\",\"01:30\",\"-1.7\",\"\",\"-6.7\",\"\",\"69\",\"\",\"27\",\"\",\"109\",\"\",\"8.0\",\"\",\"99.29\",\"\",\"\",\"\",\"-13\",\"\",\"Snow
        Showers,Blowing Snow\"\r\n\"-54.00\",\"47.30\",\"ARGENTIA A\",\"8400100\",\"1965-01-20
        02:30\",\"1965\",\"01\",\"20\",\"02:30\",\"-1.7\",\"\",\"-8.3\",\"\",\"60\",\"\",\"27\",\"\",\"105\",\"\",\"12.9\",\"\",\"99.63\",\"\",\"\",\"\",\"-13\",\"\",\"Mostly
        Cloudy\"\r\n\"-54.00\",\"47.30\",\"ARGENTIA A\",\"8400100\",\"1965-01-20 03:30\",\"1965\",\"01\",\"20\",\"03:30\",\"-2.2\",\"\",\"-9.4\",\"\",\"58\",\"\",\"27\",\"\",\"97\",\"\",\"12.9\",\"\",\"99.93\",\"\",\"\",\"\",\"-14\",\"\",\"Mostly
        Cloudy\"\r\n\"-54.00\",\"47.30\",\"ARGENTIA A\",\"8400100\",\"1965-01-20 04:30\",\"1965\",\"01\",\"20\",\"04:30\",\"-1.7\",\"\",\"-10.6\",\"\",\"51\",\"\",\"27\",\"\",\"87\",\"\",\"12.9\",\"\",\"100.17\",\"\",\"\",\"\",\"-13\",\"\",\"Mainly
        Clear\"\r\n\"-54.00\",\"47.30\",\"ARGENTIA A\",\"8400100\",\"1965-01-20 05:30\",\"1965\",\"01\",\"20\",\"05:30\",\"-1.7\",\"\",\"-8.9\",\"\",\"58\",\"\",\"27\",\"\",\"77\",\"\",\"12.9\",\"\",\"100.44\",\"\",\"\",\"\",\"-12\",\"\",\"Mostly
        Cloudy\"\r\n\"-54.00\",\"47.30\",\"ARGENTIA A\",\"8400100\",\"1965-01-20 06:30\",\"1965\",\"01\",\"20\",\"06:30\",\"-2.2\",\"\",\"-10.6\",\"\",\"53\",\"\",\"27\",\"\",\"71\",\"\",\"12.9\",\"\",\"100.58\",\"\",\"\",\"\",\"-12\",\"\",\"Cloudy\"\r\n\"-54.00\",\"47.30\",\"ARGENTIA
        A\",\"8400100\",\"1965-01-20 07:30\",\"1965\",\"01\",\"20\",\"07:30\",\"-2.8\",\"\",\"-10.6\",\"\",\"55\",\"\",\"27\",\"\",\"60\",\"\",\"12.9\",\"\",\"100.68\",\"\",\"\",\"\",\"-13\",\"\",\"Mostly
        Cloudy\"\r\n\"-54.00\",\"47.30\",\"ARGENTIA A\",\"8400100\",\"1965-01-20 08:30\",\"1965\",\"01\",\"20\",\"08:30\",\"-3.3\",\"\",\"-10.0\",\"\",\"60\",\"\",\"27\",\"\",\"60\",\"\",\"12.9\",\"\",\"100.88\",\"\",\"\",\"\",\"-13\",\"\",\"Mostly
        Cloudy\"\r\n\"-54.00\",\"47.30\",\"ARGENTIA A\",\"8400100\",\"1965-01-20 09:30\",\"1965\",\"01\",\"20\",\"09:30\",\"-2.8\",\"\",\"-12.2\",\"\",\"48\",\"\",\"29\",\"\",\"53\",\"\",\"12.9\",\"\",\"101.02\",\"\",\"\",\"\",\"-12\",\"\",\"Mainly
        Clear\"\r\n\"-54.00\",\"47.30\",\"ARGENTIA A\",\"8400100\",\"1965-01-20 10:30\",\"1965\",\"01\",\"20\",\"10:30\",\"-2.8\",\"\",\"-12.2\",\"\",\"48\",\"\",\"29\",\"\",\"56\",\"\",\"16.1\",\"\",\"101.25\",\"\",\"\",\"\",\"-12\",\"\",\"Mainly
        Clear\"\r\n\"-54.00\",\"47.30\",\"ARGENTIA A\",\"8400100\",\"1965-01-20 11:30\",\"1965\",\"01\",\"20\",\"11:30\",\"-2.2\",\"\",\"-10.6\",\"\",\"53\",\"\",\"27\",\"\",\"45\",\"\",\"16.1\",\"\",\"101.32\",\"\",\"\",\"\",\"-11\",\"\",\"Mainly
        Clear\"\r\n\"-54.00\",\"47.30\",\"ARGENTIA A\",\"8400100\",\"1965-01-20 12:30\",\"1965\",\"01\",\"20\",\"12:30\",\"-2.2\",\"\",\"-10.6\",\"\",\"53\",\"\",\"27\",\"\",\"45\",\"\",\"16.1\",\"\",\"101.32\",\"\",\"\",\"\",\"-11\",\"\",\"Mainly
        Clear\"\r\n\"-54.00\",\"47.30\",\"ARGENTIA A\",\"8400100\",\"1965-01-20 13:30\",\"1965\",\"01\",\"20\",\"13:30\",\"-2.8\",\"\",\"-9.4\",\"\",\"60\",\"\",\"27\",\"\",\"45\",\"\",\"0.0\",\"\",\"101.36\",\"\",\"\",\"\",\"-12\",\"\",\"Snow
        Showers\"\r\n\"-54.00\",\"47.30\",\"ARGENTIA A\",\"8400100\",\"1965-01-20
        14:30\",\"1965\",\"01\",\"20\",\"14:30\",\"-3.9\",\"\",\"-7.2\",\"\",\"78\",\"\",\"27\",\"\",\"56\",\"\",\"11.3\",\"\",\"101.36\",\"\",\"\",\"\",\"-14\",\"\",\"Snow
        Showers\"\r\n\"-54.00\",\"47.30\",\"ARGENTIA A\",\"8400100\",\"1965-01-20
        15:30\",\"1965\",\"01\",\"20\",\"15:30\",\"-3.3\",\"\",\"-7.8\",\"\",\"71\",\"\",\"27\",\"\",\"34\",\"\",\"9.7\",\"\",\"101.42\",\"\",\"\",\"\",\"-11\",\"\",\"Snow
        Showers\"\r\n\"-54.00\",\"47.30\",\"ARGENTIA A\",\"8400100\",\"1965-01-20
        16:30\",\"1965\",\"01\",\"20\",\"16:30\"\r\n\"-54.00\",\"47.30\",\"ARGENTIA
        A\",\"8400100\",\"1965-01-20 17:30\",\"1965\",\"01\",\"20\",\"17:30\",\"-2.8\",\"\",\"-7.8\",\"\",\"68\",\"\",\"27\",\"\",\"48\",\"\",\"12.9\",\"\",\"101.52\",\"\",\"\",\"\",\"-12\",\"\",\"Cloudy\"\r\n\"-54.00\",\"47.30\",\"ARGENTIA
        A\",\"8400100\",\"1965-01-20 18:30\",\"1965\",\"01\",\"20\",\"18:30\",\"-3.3\",\"\",\"-7.8\",\"\",\"71\",\"\",\"27\",\"\",\"43\",\"\",\"11.3\",\"\",\"101.52\",\"\",\"\",\"\",\"-12\",\"\",\"Snow
        Showers\"\r\n\"-54.00\",\"47.30\",\"ARGENTIA A\",\"8400100\",\"1965-01-20
        19:30\",\"1965\",\"01\",\"20\",\"19:30\",\"-2.8\",\"\",\"-10.0\",\"\",\"57\",\"\",\"27\",\"\",\"40\",\"\",\"12.9\",\"\",\"101.52\",\"\",\"\",\"\",\"-11\",\"\",\"Cloudy\"\r\n\"-54.00\",\"47.30\",\"ARGENTIA
        A\",\"8400100\",\"1965-01-20 20:30\",\"1965\",\"01\",\"20\",\"20:30\",\"-2.8\",\"\",\"-8.3\",\"\",\"66\",\"\",\"25\",\"\",\"40\",\"\",\"12.9\",\"\",\"101.56\",\"\",\"\",\"\",\"-11\",\"\",\"Cloudy\"\r\n\"-54.00\",\"47.30\",\"ARGENTIA
        A\",\"8400100\",\"1965-01-20 21:30\",\"1965\",\"01\",\"20\",\"21:30\",\"-2.8\",\"\",\"-8.3\",\"\",\"66\",\"\",\"25\",\"\",\"39\",\"\",\"12.9\",\"\",\"101.49\",\"\",\"\",\"\",\"-11\",\"\",\"Cloudy\"\r\n\"-54.00\",\"47.30\",\"ARGENTIA
        A\",\"8400100\",\"1965-01-20 22:30\",\"1965\",\"01\",\"20\",\"22:30\",\"-2.8\",\"\",\"-5.0\",\"\",\"85\",\"\",\"20\",\"\",\"34\",\"\",\"8.0\",\"\",\"101.36\",\"\",\"\",\"\",\"-11\",\"\",\"Snow
        Showers\"\r\n\"-54.00\",\"47.30\",\"ARGENTIA A\",\"8400100\",\"1965-01-20
        23:30\",\"1965\",\"01\",\"20\",\"23:30\",\"-3.3\",\"\",\"-5.0\",\"\",\"88\",\"\",\"18\",\"\",\"27\",\"\",\"8.0\",\"\",\"101.25\",\"\",\"\",\"\",\"-10\",\"\",\"Snow\"\r\n\"-54.00\",\"47.30\",\"ARGENTIA
        A\",\"8400100\",\"1965-01-21 00:30\",\"1965\",\"01\",\"21\",\"00:30\",\"-1.7\",\"\",\"-3.9\",\"\",\"85\",\"\",\"18\",\"\",\"34\",\"\",\"11.3\",\"\",\"101.02\",\"\",\"\",\"\",\"-9\",\"\",\"Snow\"\r\n\"-54.00\",\"47.30\",\"ARGENTIA
        A\",\"8400100\",\"1965-01-21 01:30\",\"1965\",\"01\",\"21\",\"01:30\",\"-1.1\",\"\",\"-3.3\",\"\",\"85\",\"\",\"16\",\"\",\"37\",\"\",\"12.9\",\"\",\"100.78\",\"\",\"\",\"\",\"-9\",\"\",\"Cloudy\"\r\n\"-54.00\",\"47.30\",\"ARGENTIA
        A\",\"8400100\",\"1965-01-21 02:30\",\"1965\",\"01\",\"21\",\"02:30\",\"-0.6\",\"\",\"-1.7\",\"\",\"92\",\"\",\"16\",\"\",\"39\",\"\",\"3.2\",\"\",\"100.71\",\"\",\"\",\"\",\"-8\",\"\",\"Snow\"\r\n\"-54.00\",\"47.30\",\"ARGENTIA
        A\",\"8400100\",\"1965-01-21 03:30\",\"1965\",\"01\",\"21\",\"03:30\",\"0.0\",\"\",\"-0.6\",\"\",\"96\",\"\",\"16\",\"\",\"34\",\"\",\"3.2\",\"\",\"100.31\",\"\",\"\",\"\",\"-7\",\"\",\"Snow\"\r\n\"-54.00\",\"47.30\",\"ARGENTIA
        A\",\"8400100\",\"1965-01-21 04:30\",\"1965\",\"01\",\"21\",\"04:30\",\"1.1\",\"\",\"0.6\",\"\",\"96\",\"\",\"16\",\"\",\"45\",\"\",\"8.0\",\"\",\"100.00\",\"\",\"\",\"\",\"\",\"\",\"Rain,Snow\"\r\n\"-54.00\",\"47.30\",\"ARGENTIA
        A\",\"8400100\",\"1965-01-21 05:30\",\"1965\",\"01\",\"21\",\"05:30\",\"1.7\",\"\",\"1.1\",\"\",\"96\",\"\",\"16\",\"\",\"48\",\"\",\"9.7\",\"\",\"99.76\",\"\",\"\",\"\",\"\",\"\",\"Rain\"\r\n\"-54.00\",\"47.30\",\"ARGENTIA
        A\",\"8400100\",\"1965-01-21 06:30\",\"1965\",\"01\",\"21\",\"06:30\",\"2.8\",\"\",\"2.2\",\"\",\"96\",\"\",\"16\",\"\",\"45\",\"\",\"12.9\",\"\",\"99.39\",\"\",\"\",\"\",\"\",\"\",\"Cloudy\"\r\n\"-54.00\",\"47.30\",\"ARGENTIA
        A\",\"8400100\",\"1965-01-21 07:30\",\"1965\",\"01\",\"21\",\"07:30\",\"4.4\",\"\",\"3.3\",\"\",\"92\",\"\",\"20\",\"\",\"47\",\"\",\"12.9\",\"\",\"99.26\",\"\",\"\",\"\",\"\",\"\",\"Cloudy\"\r\n\"-54.00\",\"47.30\",\"ARGENTIA
        A\",\"8400100\",\"1965-01-21 08:30\",\"1965\",\"01\",\"21\",\"08:30\",\"2.8\",\"\",\"1.1\",\"\",\"89\",\"\",\"23\",\"\",\"45\",\"\",\"11.3\",\"\",\"99.22\",\"\",\"\",\"\",\"\",\"\",\"Cloudy\"\r\n\"-54.00\",\"47.30\",\"ARGENTIA
        A\",\"8400100\",\"1965-01-21 09:30\",\"1965\",\"01\",\"21\",\"09:30\",\"1.7\",\"\",\"0.0\",\"\",\"89\",\"\",\"23\",\"\",\"48\",\"\",\"9.7\",\"\",\"99.09\",\"\",\"\",\"\",\"\",\"\",\"Fog\"\r\n\"-54.00\",\"47.30\",\"ARGENTIA
        A\",\"8400100\",\"1965-01-21 10:30\",\"1965\",\"01\",\"21\",\"10:30\",\"1.7\",\"\",\"0.0\",\"\",\"89\",\"\",\"23\",\"\",\"50\",\"\",\"8.0\",\"\",\"99.02\",\"\",\"\",\"\",\"\",\"\",\"Rain,Snow,Fog\"\r\n\"-54.00\",\"47.30\",\"ARGENTIA
        A\",\"8400100\",\"1965-01-21 11:30\",\"1965\",\"01\",\"21\",\"11:30\",\"0.6\",\"\",\"-0.6\",\"\",\"92\",\"\",\"23\",\"\",\"51\",\"\",\"9.7\",\"\",\"98.88\",\"\",\"\",\"\",\"\",\"\",\"Snow,Fog\"\r\n\"-54.00\",\"47.30\",\"ARGENTIA
        A\",\"8400100\",\"1965-01-21 12:30\",\"1965\",\"01\",\"21\",\"12:30\",\"0.0\",\"\",\"-0.6\",\"\",\"96\",\"\",\"25\",\"\",\"72\",\"\",\"3.2\",\"\",\"98.82\",\"\",\"\",\"\",\"-9\",\"\",\"Snow
        Showers\"\r\n\"-54.00\",\"47.30\",\"ARGENTIA A\",\"8400100\",\"1965-01-21
        13:30\",\"1965\",\"01\",\"21\",\"13:30\",\"-0.6\",\"\",\"-1.1\",\"\",\"96\",\"\",\"25\",\"\",\"68\",\"\",\"1.6\",\"\",\"98.82\",\"\",\"\",\"\",\"-10\",\"\",\"Snow\"\r\n\"-54.00\",\"47.30\",\"ARGENTIA
        A\",\"8400100\",\"1965-01-21 14:30\",\"1965\",\"01\",\"21\",\"14:30\",\"-0.6\",\"\",\"-1.7\",\"\",\"92\",\"\",\"25\",\"\",\"60\",\"\",\"2.4\",\"\",\"98.82\",\"\",\"\",\"\",\"-10\",\"\",\"Snow\"\r\n\"-54.00\",\"47.30\",\"ARGENTIA
        A\",\"8400100\",\"1965-01-21 15:30\",\"1965\",\"01\",\"21\",\"15:30\",\"-1.1\",\"\",\"-1.7\",\"\",\"96\",\"\",\"34\",\"\",\"37\",\"\",\"16.1\",\"\",\"99.05\",\"\",\"\",\"\",\"-9\",\"\",\"Cloudy\"\r\n\"-54.00\",\"47.30\",\"ARGENTIA
        A\",\"8400100\",\"1965-01-21 16:30\",\"1965\",\"01\",\"21\",\"16:30\",\"-0.6\",\"\",\"-3.9\",\"\",\"78\",\"\",\"32\",\"\",\"37\",\"\",\"16.1\",\"\",\"99.22\",\"\",\"\",\"\",\"-8\",\"\",\"Cloudy\"\r\n\"-54.00\",\"47.30\",\"ARGENTIA
        A\",\"8400100\",\"1965-01-21 17:30\",\"1965\",\"01\",\"21\",\"17:30\",\"-2.2\",\"\",\"-5.0\",\"\",\"81\",\"\",\"32\",\"\",\"40\",\"\",\"16.1\",\"\",\"99.56\",\"\",\"\",\"\",\"-10\",\"\",\"Cloudy\"\r\n\"-54.00\",\"47.30\",\"ARGENTIA
        A\",\"8400100\",\"1965-01-21 18:30\",\"1965\",\"01\",\"21\",\"18:30\",\"-2.2\",\"\",\"-6.1\",\"\",\"75\",\"\",\"32\",\"\",\"43\",\"\",\"16.1\",\"\",\"99.66\",\"\",\"\",\"\",\"-11\",\"\",\"Cloudy\"\r\n\"-54.00\",\"47.30\",\"ARGENTIA
        A\",\"8400100\",\"1965-01-21 19:30\",\"1965\",\"01\",\"21\",\"19:30\",\"-3.3\",\"\",\"-6.7\",\"\",\"78\",\"\",\"29\",\"\",\"47\",\"\",\"16.1\",\"\",\"99.87\",\"\",\"\",\"\",\"-12\",\"\",\"Mostly
        Cloudy\"\r\n\"-54.00\",\"47.30\",\"ARGENTIA A\",\"8400100\",\"1965-01-21 20:30\",\"1965\",\"01\",\"21\",\"20:30\",\"-3.3\",\"\",\"-8.9\",\"\",\"65\",\"\",\"32\",\"\",\"56\",\"\",\"16.1\",\"\",\"99.93\",\"\",\"\",\"\",\"-13\",\"\",\"Mostly
        Cloudy\"\r\n\"-54.00\",\"47.30\",\"ARGENTIA A\",\"8400100\",\"1965-01-21 21:30\",\"1965\",\"01\",\"21\",\"21:30\",\"-4.4\",\"\",\"-10.0\",\"\",\"65\",\"\",\"29\",\"\",\"45\",\"\",\"16.1\",\"\",\"100.00\",\"\",\"\",\"\",\"-14\",\"\",\"Mostly
        Cloudy\"\r\n\"-54.00\",\"47.30\",\"ARGENTIA A\",\"8400100\",\"1965-01-21 22:30\",\"1965\",\"01\",\"21\",\"22:30\",\"-6.7\",\"\",\"-11.7\",\"\",\"68\",\"\",\"29\",\"\",\"48\",\"\",\"16.1\",\"\",\"100.10\",\"\",\"\",\"\",\"-17\",\"\",\"Mostly
        Cloudy\"\r\n\"-54.00\",\"47.30\",\"ARGENTIA A\",\"8400100\",\"1965-01-21 23:30\",\"1965\",\"01\",\"21\",\"23:30\",\"-6.7\",\"\",\"-11.7\",\"\",\"68\",\"\",\"29\",\"\",\"56\",\"\",\"16.1\",\"\",\"100.17\",\"\",\"\",\"\",\"-18\",\"\",\"Mainly
        Clear\"\r\n\"-54.00\",\"47.30\",\"ARGENTIA A\",\"8400100\",\"1965-01-22 00:30\",\"1965\",\"01\",\"22\",\"00:30\",\"-6.1\",\"\",\"-11.1\",\"\",\"68\",\"\",\"29\",\"\",\"45\",\"\",\"16.1\",\"\",\"100.27\",\"\",\"\",\"\",\"-16\",\"\",\"Mainly
        Clear\"\r\n\"-54.00\",\"47.30\",\"ARGENTIA A\",\"8400100\",\"1965-01-22 01:30\",\"1965\",\"01\",\"22\",\"01:30\",\"-6.1\",\"\",\"-11.1\",\"\",\"68\",\"\",\"27\",\"\",\"51\",\"\",\"16.1\",\"\",\"100.31\",\"\",\"\",\"\",\"-17\",\"\",\"Mainly
        Clear\"\r\n\"-54.00\",\"47.30\",\"ARGENTIA A\",\"8400100\",\"1965-01-22 02:30\",\"1965\",\"01\",\"22\",\"02:30\",\"-6.1\",\"\",\"-11.1\",\"\",\"68\",\"\",\"27\",\"\",\"50\",\"\",\"16.1\",\"\",\"100.41\",\"\",\"\",\"\",\"-16\",\"\",\"Mostly
        Cloudy\"\r\n\"-54.00\",\"47.30\",\"ARGENTIA A\",\"8400100\",\"1965-01-22 03:30\",\"1965\",\"01\",\"22\",\"03:30\",\"-5.6\",\"\",\"-12.2\",\"\",\"59\",\"\",\"29\",\"\",\"51\",\"\",\"16.1\",\"\",\"100.41\",\"\",\"\",\"\",\"-16\",\"\",\"Mostly
        Cloudy\"\r\n\"-54.00\",\"47.30\",\"ARGENTIA A\",\"8400100\",\"1965-01-22 04:30\",\"1965\",\"01\",\"22\",\"04:30\",\"-5.6\",\"\",\"-11.7\",\"\",\"62\",\"\",\"29\",\"\",\"51\",\"\",\"16.1\",\"\",\"100.41\",\"\",\"\",\"\",\"-16\",\"\",\"Mostly
        Cloudy\"\r\n\"-54.00\",\"47.30\",\"ARGENTIA A\",\"8400100\",\"1965-01-22 05:30\",\"1965\",\"01\",\"22\",\"05:30\",\"-5.0\",\"\",\"-11.1\",\"\",\"62\",\"\",\"27\",\"\",\"43\",\"\",\"16.1\",\"\",\"100.41\",\"\",\"\",\"\",\"-14\",\"\",\"Mainly
        Clear\"\r\n\"-54.00\",\"47.30\",\"ARGENTIA A\",\"8400100\",\"1965-01-22 06:30\",\"1965\",\"01\",\"22\",\"06:30\",\"-5.0\",\"\",\"-10.6\",\"\",\"65\",\"\",\"27\",\"\",\"45\",\"\",\"16.1\",\"\",\"100.51\",\"\",\"\",\"\",\"-15\",\"\",\"Mostly
        Cloudy\"\r\n\"-54.00\",\"47.30\",\"ARGENTIA A\",\"8400100\",\"1965-01-22 07:30\",\"1965\",\"01\",\"22\",\"07:30\",\"-5.0\",\"\",\"-9.4\",\"\",\"71\",\"\",\"27\",\"\",\"37\",\"\",\"11.3\",\"\",\"100.54\",\"\",\"\",\"\",\"-14\",\"\",\"Cloudy\"\r\n\"-54.00\",\"47.30\",\"ARGENTIA
        A\",\"8400100\",\"1965-01-22 08:30\",\"1965\",\"01\",\"22\",\"08:30\",\"-4.4\",\"\",\"-8.3\",\"\",\"74\",\"\",\"27\",\"\",\"27\",\"\",\"3.2\",\"\",\"100.54\",\"\",\"\",\"\",\"-12\",\"\",\"Snow
        Showers,Blowing Snow\"\r\n\"-54.00\",\"47.30\",\"ARGENTIA A\",\"8400100\",\"1965-01-22
        09:30\",\"1965\",\"01\",\"22\",\"09:30\",\"-3.9\",\"\",\"-5.6\",\"\",\"88\",\"\",\"25\",\"\",\"47\",\"\",\"0.8\",\"\",\"100.51\",\"\",\"\",\"\",\"-13\",\"\",\"Snow
        Showers,Blowing Snow\"\r\n\"-54.00\",\"47.30\",\"ARGENTIA A\",\"8400100\",\"1965-01-22
        10:30\",\"1965\",\"01\",\"22\",\"10:30\",\"-3.3\",\"\",\"-6.1\",\"\",\"81\",\"\",\"25\",\"\",\"48\",\"\",\"6.4\",\"\",\"100.47\",\"\",\"\",\"\",\"-12\",\"\",\"Snow
        Showers\"\r\n\"-54.00\",\"47.30\",\"ARGENTIA A\",\"8400100\",\"1965-01-22
        11:30\",\"1965\",\"01\",\"22\",\"11:30\",\"-2.8\",\"\",\"-6.1\",\"\",\"78\",\"\",\"23\",\"\",\"37\",\"\",\"14.5\",\"\",\"100.34\",\"\",\"\",\"\",\"-11\",\"\",\"Cloudy\"\r\n\"-54.00\",\"47.30\",\"ARGENTIA
        A\",\"8400100\",\"1965-01-22 12:30\",\"1965\",\"01\",\"22\",\"12:30\",\"-2.2\",\"\",\"-5.6\",\"\",\"78\",\"\",\"23\",\"\",\"56\",\"\",\"3.2\",\"\",\"100.17\",\"\",\"\",\"\",\"-12\",\"\",\"Snow
        Showers,Blowing Snow\"\r\n\"-54.00\",\"47.30\",\"ARGENTIA A\",\"8400100\",\"1965-01-22
        13:30\",\"1965\",\"01\",\"22\",\"13:30\",\"-2.2\",\"\",\"-5.6\",\"\",\"78\",\"\",\"25\",\"\",\"61\",\"\",\"8.0\",\"\",\"100.07\",\"\",\"\",\"\",\"-12\",\"\",\"Snow
        Showers\"\r\n\"-54.00\",\"47.30\",\"ARGENTIA A\",\"8400100\",\"1965-01-22
        14:30\",\"1965\",\"01\",\"22\",\"14:30\",\"-2.2\",\"\",\"-4.4\",\"\",\"85\",\"\",\"25\",\"\",\"64\",\"\",\"1.6\",\"\",\"99.97\",\"\",\"\",\"\",\"-12\",\"\",\"Snow
        Showers,Blowing Snow\"\r\n\"-54.00\",\"47.30\",\"ARGENTIA A\",\"8400100\",\"1965-01-22
        15:30\",\"1965\",\"01\",\"22\",\"15:30\",\"-1.7\",\"\",\"-4.4\",\"\",\"81\",\"\",\"25\",\"\",\"61\",\"\",\"0.8\",\"\",\"99.87\",\"\",\"\",\"\",\"-11\",\"\",\"Snow
        Showers,Blowing Snow\"\r\n\"-54.00\",\"47.30\",\"ARGENTIA A\",\"8400100\",\"1965-01-22
        16:30\",\"1965\",\"01\",\"22\",\"16:30\",\"-1.1\",\"\",\"-3.3\",\"\",\"85\",\"\",\"25\",\"\",\"60\",\"\",\"1.2\",\"\",\"99.76\",\"\",\"\",\"\",\"-10\",\"\",\"Snow
        Showers,Blowing Snow\"\r\n\"-54.00\",\"47.30\",\"ARGENTIA A\",\"8400100\",\"1965-01-22
        17:30\",\"1965\",\"01\",\"22\",\"17:30\",\"-1.1\",\"\",\"-1.7\",\"\",\"96\",\"\",\"23\",\"\",\"64\",\"\",\"0.8\",\"\",\"99.63\",\"\",\"\",\"\",\"-11\",\"\",\"Snow
        Showers,Blowing Snow\"\r\n\"-54.00\",\"47.30\",\"ARGENTIA A\",\"8400100\",\"1965-01-22
        18:30\",\"1965\",\"01\",\"22\",\"18:30\",\"-0.6\",\"\",\"-2.2\",\"\",\"88\",\"\",\"23\",\"\",\"56\",\"\",\"1.2\",\"\",\"99.56\",\"\",\"\",\"\",\"-9\",\"\",\"Snow
        Showers,Blowing Snow\"\r\n\"-54.00\",\"47.30\",\"ARGENTIA A\",\"8400100\",\"1965-01-22
        19:30\",\"1965\",\"01\",\"22\",\"19:30\",\"-0.6\",\"\",\"-1.1\",\"\",\"96\",\"\",\"23\",\"\",\"60\",\"\",\"0.8\",\"\",\"99.46\",\"\",\"\",\"\",\"-10\",\"\",\"Snow,Blowing
        Snow\"\r\n\"-54.00\",\"47.30\",\"ARGENTIA A\",\"8400100\",\"1965-01-22 20:30\",\"1965\",\"01\",\"22\",\"20:30\",\"-0.6\",\"\",\"-1.1\",\"\",\"96\",\"\",\"23\",\"\",\"56\",\"\",\"3.2\",\"\",\"99.39\",\"\",\"\",\"\",\"-9\",\"\",\"Snow,Blowing
        Snow\"\r\n\"-54.00\",\"47.30\",\"ARGENTIA A\",\"8400100\",\"1965-01-22 21:30\",\"1965\",\"01\",\"22\",\"21:30\",\"-0.6\",\"\",\"-1.7\",\"\",\"92\",\"\",\"25\",\"\",\"47\",\"\",\"4.0\",\"\",\"99.29\",\"\",\"\",\"\",\"-9\",\"\",\"Snow,Blowing
        Snow\"\r\n\"-54.00\",\"47.30\",\"ARGENTIA A\",\"8400100\",\"1965-01-22 22:30\",\"1965\",\"01\",\"22\",\"22:30\",\"0.0\",\"\",\"-2.8\",\"\",\"82\",\"\",\"27\",\"\",\"50\",\"\",\"8.0\",\"\",\"99.09\",\"\",\"\",\"\",\"-8\",\"\",\"Snow\"\r\n\"-54.00\",\"47.30\",\"ARGENTIA
        A\",\"8400100\",\"1965-01-22 23:30\",\"1965\",\"01\",\"22\",\"23:30\",\"-0.6\",\"\",\"-5.6\",\"\",\"69\",\"\",\"27\",\"\",\"60\",\"\",\"12.9\",\"\",\"99.05\",\"\",\"\",\"\",\"-10\",\"\",\"Cloudy\"\r\n\"-54.00\",\"47.30\",\"ARGENTIA
        A\",\"8400100\",\"1965-01-23 00:30\",\"1965\",\"01\",\"23\",\"00:30\",\"-1.1\",\"\",\"-5.6\",\"\",\"72\",\"\",\"25\",\"\",\"48\",\"\",\"12.9\",\"\",\"99.05\",\"\",\"\",\"\",\"-9\",\"\",\"Cloudy\"\r\n\"-54.00\",\"47.30\",\"ARGENTIA
        A\",\"8400100\",\"1965-01-23 01:30\",\"1965\",\"01\",\"23\",\"01:30\",\"-2.2\",\"\",\"-8.9\",\"\",\"60\",\"\",\"27\",\"\",\"63\",\"\",\"11.3\",\"\",\"98.82\",\"\",\"\",\"\",\"-12\",\"\",\"Snow
        Showers\"\r\n\"-54.00\",\"47.30\",\"ARGENTIA A\",\"8400100\",\"1965-01-23
        02:30\",\"1965\",\"01\",\"23\",\"02:30\",\"-4.4\",\"\",\"-11.1\",\"\",\"60\",\"\",\"27\",\"\",\"72\",\"\",\"11.3\",\"\",\"99.05\",\"\",\"\",\"\",\"-16\",\"\",\"Cloudy\"\r\n\"-54.00\",\"47.30\",\"ARGENTIA
        A\",\"8400100\",\"1965-01-23 03:30\",\"1965\",\"01\",\"23\",\"03:30\",\"-7.8\",\"\",\"-13.3\",\"\",\"64\",\"\",\"29\",\"\",\"68\",\"\",\"11.3\",\"\",\"99.12\",\"\",\"\",\"\",\"-20\",\"\",\"Cloudy\"\r\n\"-54.00\",\"47.30\",\"ARGENTIA
        A\",\"8400100\",\"1965-01-23 04:30\",\"1965\",\"01\",\"23\",\"04:30\",\"-9.4\",\"\",\"-15.0\",\"\",\"64\",\"\",\"29\",\"\",\"68\",\"\",\"11.3\",\"\",\"99.22\",\"\",\"\",\"\",\"-22\",\"\",\"Mostly
        Cloudy\"\r\n\"-54.00\",\"47.30\",\"ARGENTIA A\",\"8400100\",\"1965-01-23 05:30\",\"1965\",\"01\",\"23\",\"05:30\",\"-10.6\",\"\",\"-18.9\",\"\",\"50\",\"\",\"29\",\"\",\"76\",\"\",\"6.4\",\"\",\"99.32\",\"\",\"\",\"\",\"-25\",\"\",\"Snow
        Showers,Blowing Snow\"\r\n\"-54.00\",\"47.30\",\"ARGENTIA A\",\"8400100\",\"1965-01-23
        06:30\",\"1965\",\"01\",\"23\",\"06:30\",\"-10.6\",\"\",\"-18.9\",\"\",\"50\",\"\",\"29\",\"\",\"74\",\"\",\"11.3\",\"\",\"99.46\",\"\",\"\",\"\",\"-24\",\"\",\"Mostly
        Cloudy\"\r\n\"-54.00\",\"47.30\",\"ARGENTIA A\",\"8400100\",\"1965-01-23 07:30\",\"1965\",\"01\",\"23\",\"07:30\",\"-11.1\",\"\",\"-18.9\",\"\",\"53\",\"\",\"29\",\"\",\"71\",\"\",\"19.3\",\"\",\"99.53\",\"\",\"\",\"\",\"-25\",\"\",\"Mainly
        Clear\"\r\n\"-54.00\",\"47.30\",\"ARGENTIA A\",\"8400100\",\"1965-01-23 08:30\",\"1965\",\"01\",\"23\",\"08:30\",\"-11.7\",\"\",\"-20.0\",\"\",\"50\",\"\",\"29\",\"\",\"71\",\"\",\"19.3\",\"\",\"99.63\",\"\",\"\",\"\",\"-26\",\"\",\"Mainly
        Clear\"\r\n\"-54.00\",\"47.30\",\"ARGENTIA A\",\"8400100\",\"1965-01-23 09:30\",\"1965\",\"01\",\"23\",\"09:30\",\"-12.2\",\"\",\"-19.4\",\"\",\"55\",\"\",\"29\",\"\",\"60\",\"\",\"19.3\",\"\",\"99.73\",\"\",\"\",\"\",\"-26\",\"\",\"Mostly
        Cloudy\"\r\n\"-54.00\",\"47.30\",\"ARGENTIA A\",\"8400100\",\"1965-01-23 10:30\",\"1965\",\"01\",\"23\",\"10:30\",\"-12.2\",\"\",\"-19.4\",\"\",\"55\",\"\",\"29\",\"\",\"68\",\"\",\"19.3\",\"\",\"99.76\",\"\",\"\",\"\",\"-26\",\"\",\"Mostly
        Cloudy\"\r\n\"-54.00\",\"47.30\",\"ARGENTIA A\",\"8400100\",\"1965-01-23 11:30\",\"1965\",\"01\",\"23\",\"11:30\",\"-12.2\",\"\",\"-19.4\",\"\",\"55\",\"\",\"29\",\"\",\"60\",\"\",\"16.1\",\"\",\"99.76\",\"\",\"\",\"\",\"-26\",\"\",\"Mostly
        Cloudy\"\r\n\"-54.00\",\"47.30\",\"ARGENTIA A\",\"8400100\",\"1965-01-23 12:30\",\"1965\",\"01\",\"23\",\"12:30\",\"-12.2\",\"\",\"-21.1\",\"\",\"48\",\"\",\"32\",\"\",\"63\",\"\",\"16.1\",\"\",\"99.80\",\"\",\"\",\"\",\"-26\",\"\",\"Mostly
        Cloudy\"\r\n\"-54.00\",\"47.30\",\"ARGENTIA A\",\"8400100\",\"1965-01-23 13:30\",\"1965\",\"01\",\"23\",\"13:30\",\"-12.2\",\"\",\"-22.2\",\"\",\"43\",\"\",\"29\",\"\",\"61\",\"\",\"16.1\",\"\",\"99.83\",\"\",\"\",\"\",\"-26\",\"\",\"Mostly
        Cloudy\"\r\n\"-54.00\",\"47.30\",\"ARGENTIA A\",\"8400100\",\"1965-01-23 14:30\",\"1965\",\"01\",\"23\",\"14:30\",\"-12.8\",\"\",\"-23.9\",\"\",\"39\",\"\",\"29\",\"\",\"50\",\"\",\"16.1\",\"\",\"99.87\",\"\",\"\",\"\",\"-26\",\"\",\"Mostly
        Cloudy\"\r\n\"-54.00\",\"47.30\",\"ARGENTIA A\",\"8400100\",\"1965-01-23 15:30\",\"1965\",\"01\",\"23\",\"15:30\",\"-13.3\",\"\",\"-22.8\",\"\",\"45\",\"\",\"29\",\"\",\"48\",\"\",\"19.3\",\"\",\"100.03\",\"\",\"\",\"\",\"-26\",\"\",\"Mainly
        Clear\"\r\n\"-54.00\",\"47.30\",\"ARGENTIA A\",\"8400100\",\"1965-01-23 16:30\",\"1965\",\"01\",\"23\",\"16:30\",\"-13.3\",\"\",\"-22.2\",\"\",\"47\",\"\",\"32\",\"\",\"56\",\"\",\"24.1\",\"\",\"100.20\",\"\",\"\",\"\",\"-27\",\"\",\"Mostly
        Cloudy\"\r\n\"-54.00\",\"47.30\",\"ARGENTIA A\",\"8400100\",\"1965-01-23 17:30\",\"1965\",\"01\",\"23\",\"17:30\",\"-13.3\",\"\",\"-23.3\",\"\",\"43\",\"\",\"32\",\"\",\"60\",\"\",\"19.3\",\"\",\"100.20\",\"\",\"\",\"\",\"-27\",\"\",\"Mainly
        Clear\"\r\n\"-54.00\",\"47.30\",\"ARGENTIA A\",\"8400100\",\"1965-01-23 18:30\",\"1965\",\"01\",\"23\",\"18:30\",\"-13.3\",\"\",\"-21.1\",\"\",\"52\",\"\",\"32\",\"\",\"56\",\"\",\"16.1\",\"\",\"100.31\",\"\",\"\",\"\",\"-27\",\"\",\"Mainly
        Clear\"\r\n\"-54.00\",\"47.30\",\"ARGENTIA A\",\"8400100\",\"1965-01-23 19:30\",\"1965\",\"01\",\"23\",\"19:30\",\"-12.8\",\"\",\"-19.4\",\"\",\"57\",\"\",\"32\",\"\",\"56\",\"\",\"16.1\",\"\",\"100.51\",\"\",\"\",\"\",\"-26\",\"\",\"Mainly
        Clear\"\r\n\"-54.00\",\"47.30\",\"ARGENTIA A\",\"8400100\",\"1965-01-23 20:30\",\"1965\",\"01\",\"23\",\"20:30\",\"-12.8\",\"\",\"-19.4\",\"\",\"58\",\"\",\"32\",\"\",\"58\",\"\",\"16.1\",\"\",\"100.54\",\"\",\"\",\"\",\"-26\",\"\",\"Mainly
        Clear\"\r\n\"-54.00\",\"47.30\",\"ARGENTIA A\",\"8400100\",\"1965-01-23 21:30\",\"1965\",\"01\",\"23\",\"21:30\",\"-12.2\",\"\",\"-18.3\",\"\",\"60\",\"\",\"32\",\"\",\"43\",\"\",\"16.1\",\"\",\"100.71\",\"\",\"\",\"\",\"-24\",\"\",\"Mostly
        Cloudy\"\r\n\"-54.00\",\"47.30\",\"ARGENTIA A\",\"8400100\",\"1965-01-23 22:30\",\"1965\",\"01\",\"23\",\"22:30\",\"-11.7\",\"\",\"-17.2\",\"\",\"63\",\"\",\"32\",\"\",\"37\",\"\",\"16.1\",\"\",\"100.78\",\"\",\"\",\"\",\"-23\",\"\",\"Mainly
        Clear\"\r\n\"-54.00\",\"47.30\",\"ARGENTIA A\",\"8400100\",\"1965-01-23 23:30\",\"1965\",\"01\",\"23\",\"23:30\",\"-10.6\",\"\",\"-16.7\",\"\",\"61\",\"\",\"34\",\"\",\"37\",\"\",\"16.1\",\"\",\"100.95\",\"\",\"\",\"\",\"-21\",\"\",\"Mainly
        Clear\"\r\n\"-54.00\",\"47.30\",\"ARGENTIA A\",\"8400100\",\"1965-01-24 00:30\",\"1965\",\"01\",\"24\",\"00:30\",\"-10.6\",\"\",\"-16.7\",\"\",\"61\",\"\",\"34\",\"\",\"34\",\"\",\"16.1\",\"\",\"100.98\",\"\",\"\",\"\",\"-21\",\"\",\"Mostly
        Cloudy\"\r\n\"-54.00\",\"47.30\",\"ARGENTIA A\",\"8400100\",\"1965-01-24 01:30\",\"1965\",\"01\",\"24\",\"01:30\",\"-10.0\",\"\",\"-16.1\",\"\",\"61\",\"\",\"34\",\"\",\"34\",\"\",\"16.1\",\"\",\"101.08\",\"\",\"\",\"\",\"-20\",\"\",\"Clear\"\r\n\"-54.00\",\"47.30\",\"ARGENTIA
        A\",\"8400100\",\"1965-01-24 02:30\",\"1965\",\"01\",\"24\",\"02:30\",\"-10.0\",\"\",\"-16.1\",\"\",\"61\",\"\",\"32\",\"\",\"37\",\"\",\"16.1\",\"\",\"101.12\",\"\",\"\",\"\",\"-20\",\"\",\"Clear\"\r\n\"-54.00\",\"47.30\",\"ARGENTIA
        A\",\"8400100\",\"1965-01-24 03:30\",\"1965\",\"01\",\"24\",\"03:30\",\"-9.4\",\"\",\"-17.2\",\"\",\"53\",\"\",\"29\",\"\",\"37\",\"\",\"16.1\",\"\",\"101.22\",\"\",\"\",\"\",\"-20\",\"\",\"Clear\"\r\n\"-54.00\",\"47.30\",\"ARGENTIA
        A\",\"8400100\",\"1965-01-24 04:30\",\"1965\",\"01\",\"24\",\"04:30\",\"-9.4\",\"\",\"-16.7\",\"\",\"56\",\"\",\"27\",\"\",\"23\",\"\",\"16.1\",\"\",\"101.32\",\"\",\"\",\"\",\"-18\",\"\",\"Clear\"\r\n\"-54.00\",\"47.30\",\"ARGENTIA
        A\",\"8400100\",\"1965-01-24 05:30\",\"1965\",\"01\",\"24\",\"05:30\",\"-9.4\",\"\",\"-15.6\",\"\",\"61\",\"\",\"32\",\"\",\"27\",\"\",\"16.1\",\"\",\"101.25\",\"\",\"\",\"\",\"-18\",\"\",\"Mainly
        Clear\"\r\n\"-54.00\",\"47.30\",\"ARGENTIA A\",\"8400100\",\"1965-01-24 06:30\",\"1965\",\"01\",\"24\",\"06:30\",\"-10.0\",\"\",\"-16.1\",\"\",\"61\",\"\",\"29\",\"\",\"26\",\"\",\"16.1\",\"\",\"101.32\",\"\",\"\",\"\",\"-19\",\"\",\"Mainly
        Clear\"\r\n\"-54.00\",\"47.30\",\"ARGENTIA A\",\"8400100\",\"1965-01-24 07:30\",\"1965\",\"01\",\"24\",\"07:30\",\"-10.0\",\"\",\"-15.6\",\"\",\"64\",\"\",\"29\",\"\",\"40\",\"\",\"16.1\",\"\",\"101.36\",\"\",\"\",\"\",\"-21\",\"\",\"Mainly
        Clear\"\r\n\"-54.00\",\"47.30\",\"ARGENTIA A\",\"8400100\",\"1965-01-24 08:30\",\"1965\",\"01\",\"24\",\"08:30\",\"-10.0\",\"\",\"-16.7\",\"\",\"58\",\"\",\"29\",\"\",\"60\",\"\",\"16.1\",\"\",\"101.39\",\"\",\"\",\"\",\"-23\",\"\",\"Mainly
        Clear\"\r\n\"-54.00\",\"47.30\",\"ARGENTIA A\",\"8400100\",\"1965-01-24 09:30\",\"1965\",\"01\",\"24\",\"09:30\",\"-10.0\",\"\",\"-18.9\",\"\",\"48\",\"\",\"32\",\"\",\"40\",\"\",\"24.1\",\"\",\"101.46\",\"\",\"\",\"\",\"-21\",\"\",\"Mainly
        Clear\"\r\n\"-54.00\",\"47.30\",\"ARGENTIA A\",\"8400100\",\"1965-01-24 10:30\",\"1965\",\"01\",\"24\",\"10:30\",\"-10.0\",\"\",\"-19.4\",\"\",\"46\",\"\",\"32\",\"\",\"47\",\"\",\"24.1\",\"\",\"101.46\",\"\",\"\",\"\",\"-21\",\"\",\"Mainly
        Clear\"\r\n\"-54.00\",\"47.30\",\"ARGENTIA A\",\"8400100\",\"1965-01-24 11:30\",\"1965\",\"01\",\"24\",\"11:30\",\"-10.0\",\"\",\"-22.2\",\"\",\"36\",\"\",\"32\",\"\",\"37\",\"\",\"24.1\",\"\",\"101.49\",\"\",\"\",\"\",\"-20\",\"\",\"Mainly
        Clear\"\r\n\"-54.00\",\"47.30\",\"ARGENTIA A\",\"8400100\",\"1965-01-24 12:30\",\"1965\",\"01\",\"24\",\"12:30\",\"-9.4\",\"\",\"-20.6\",\"\",\"40\",\"\",\"29\",\"\",\"39\",\"\",\"24.1\",\"\",\"101.49\",\"\",\"\",\"\",\"-20\",\"\",\"Mainly
        Clear\"\r\n\"-54.00\",\"47.30\",\"ARGENTIA A\",\"8400100\",\"1965-01-24 13:30\",\"1965\",\"01\",\"24\",\"13:30\",\"-9.4\",\"\",\"-20.6\",\"\",\"40\",\"\",\"32\",\"\",\"39\",\"\",\"24.1\",\"\",\"101.46\",\"\",\"\",\"\",\"-20\",\"\",\"Mainly
        Clear\"\r\n\"-54.00\",\"47.30\",\"ARGENTIA A\",\"8400100\",\"1965-01-24 14:30\",\"1965\",\"01\",\"24\",\"14:30\",\"-8.9\",\"\",\"-21.1\",\"\",\"36\",\"\",\"29\",\"\",\"40\",\"\",\"24.1\",\"\",\"101.46\",\"\",\"\",\"\",\"-19\",\"\",\"Mainly
        Clear\"\r\n\"-54.00\",\"47.30\",\"ARGENTIA A\",\"8400100\",\"1965-01-24 15:30\",\"1965\",\"01\",\"24\",\"15:30\",\"-8.9\",\"\",\"-20.6\",\"\",\"38\",\"\",\"32\",\"\",\"43\",\"\",\"24.1\",\"\",\"101.52\",\"\",\"\",\"\",\"-20\",\"\",\"Clear\"\r\n\"-54.00\",\"47.30\",\"ARGENTIA
        A\",\"8400100\",\"1965-01-24 16:30\",\"1965\",\"01\",\"24\",\"16:30\",\"-10.0\",\"\",\"-20.6\",\"\",\"42\",\"\",\"32\",\"\",\"47\",\"\",\"24.1\",\"\",\"101.56\",\"\",\"\",\"\",\"-21\",\"\",\"Clear\"\r\n\"-54.00\",\"47.30\",\"ARGENTIA
        A\",\"8400100\",\"1965-01-24 17:30\",\"1965\",\"01\",\"24\",\"17:30\",\"-10.0\",\"\",\"-20.6\",\"\",\"42\",\"\",\"32\",\"\",\"40\",\"\",\"24.1\",\"\",\"101.56\",\"\",\"\",\"\",\"-21\",\"\",\"Clear\"\r\n\"-54.00\",\"47.30\",\"ARGENTIA
        A\",\"8400100\",\"1965-01-24 18:30\",\"1965\",\"01\",\"24\",\"18:30\",\"-10.0\",\"\",\"-20.0\",\"\",\"44\",\"\",\"32\",\"\",\"37\",\"\",\"24.1\",\"\",\"101.63\",\"\",\"\",\"\",\"-20\",\"\",\"Clear\"\r\n\"-54.00\",\"47.30\",\"ARGENTIA
        A\",\"8400100\",\"1965-01-24 19:30\",\"1965\",\"01\",\"24\",\"19:30\",\"-9.4\",\"\",\"-18.3\",\"\",\"48\",\"\",\"34\",\"\",\"40\",\"\",\"24.1\",\"\",\"101.73\",\"\",\"\",\"\",\"-20\",\"\",\"Clear\"\r\n\"-54.00\",\"47.30\",\"ARGENTIA
        A\",\"8400100\",\"1965-01-24 20:30\",\"1965\",\"01\",\"24\",\"20:30\",\"-9.4\",\"\",\"-19.4\",\"\",\"44\",\"\",\"32\",\"\",\"39\",\"\",\"24.1\",\"\",\"101.69\",\"\",\"\",\"\",\"-20\",\"\",\"Clear\"\r\n\"-54.00\",\"47.30\",\"ARGENTIA
        A\",\"8400100\",\"1965-01-24 21:30\",\"1965\",\"01\",\"24\",\"21:30\",\"-9.4\",\"\",\"-17.8\",\"\",\"51\",\"\",\"34\",\"\",\"29\",\"\",\"24.1\",\"\",\"101.76\",\"\",\"\",\"\",\"-19\",\"\",\"Clear\"\r\n\"-54.00\",\"47.30\",\"ARGENTIA
        A\",\"8400100\",\"1965-01-24 22:30\",\"1965\",\"01\",\"24\",\"22:30\",\"-10.0\",\"\",\"-18.3\",\"\",\"51\",\"\",\"34\",\"\",\"34\",\"\",\"24.1\",\"\",\"101.80\",\"\",\"\",\"\",\"-20\",\"\",\"Mainly
        Clear\"\r\n\"-54.00\",\"47.30\",\"ARGENTIA A\",\"8400100\",\"1965-01-24 23:30\",\"1965\",\"01\",\"24\",\"23:30\",\"-10.0\",\"\",\"-18.3\",\"\",\"51\",\"\",\"34\",\"\",\"29\",\"\",\"24.1\",\"\",\"101.80\",\"\",\"\",\"\",\"-19\",\"\",\"Mainly
        Clear\"\r\n\"-54.00\",\"47.30\",\"ARGENTIA A\",\"8400100\",\"1965-01-25 00:30\",\"1965\",\"01\",\"25\",\"00:30\",\"-11.1\",\"\",\"-18.3\",\"\",\"55\",\"\",\"34\",\"\",\"23\",\"\",\"24.1\",\"\",\"101.80\",\"\",\"\",\"\",\"-20\",\"\",\"Mainly
        Clear\"\r\n\"-54.00\",\"47.30\",\"ARGENTIA A\",\"8400100\",\"1965-01-25 01:30\",\"1965\",\"01\",\"25\",\"01:30\",\"-11.1\",\"\",\"-17.8\",\"\",\"58\",\"\",\"29\",\"\",\"26\",\"\",\"24.1\",\"\",\"101.83\",\"\",\"\",\"\",\"-20\",\"\",\"Clear\"\r\n\"-54.00\",\"47.30\",\"ARGENTIA
        A\",\"8400100\",\"1965-01-25 02:30\",\"1965\",\"01\",\"25\",\"02:30\",\"-11.1\",\"\",\"-18.3\",\"\",\"55\",\"\",\"32\",\"\",\"19\",\"\",\"24.1\",\"\",\"101.80\",\"\",\"\",\"\",\"-19\",\"\",\"Mainly
        Clear\"\r\n\"-54.00\",\"47.30\",\"ARGENTIA A\",\"8400100\",\"1965-01-25 03:30\",\"1965\",\"01\",\"25\",\"03:30\",\"-11.7\",\"\",\"-16.7\",\"\",\"66\",\"\",\"36\",\"\",\"19\",\"\",\"24.1\",\"\",\"101.80\",\"\",\"\",\"\",\"-20\",\"\",\"Mainly
        Clear\"\r\n\"-54.00\",\"47.30\",\"ARGENTIA A\",\"8400100\",\"1965-01-25 04:30\",\"1965\",\"01\",\"25\",\"04:30\",\"-11.1\",\"\",\"-16.7\",\"\",\"64\",\"\",\"32\",\"\",\"11\",\"\",\"24.1\",\"\",\"101.76\",\"\",\"\",\"\",\"-17\",\"\",\"Mainly
        Clear\"\r\n\"-54.00\",\"47.30\",\"ARGENTIA A\",\"8400100\",\"1965-01-25 05:30\",\"1965\",\"01\",\"25\",\"05:30\",\"-11.1\",\"\",\"-16.7\",\"\",\"64\",\"\",\"9\",\"\",\"16\",\"\",\"24.1\",\"\",\"101.69\",\"\",\"\",\"\",\"-18\",\"\",\"Mainly
        Clear\"\r\n\"-54.00\",\"47.30\",\"ARGENTIA A\",\"8400100\",\"1965-01-25 06:30\",\"1965\",\"01\",\"25\",\"06:30\",\"-12.8\",\"\",\"-16.7\",\"\",\"73\",\"\",\"9\",\"\",\"13\",\"\",\"24.1\",\"\",\"101.69\",\"\",\"\",\"\",\"-20\",\"\",\"Mostly
        Cloudy\"\r\n\"-54.00\",\"47.30\",\"ARGENTIA A\",\"8400100\",\"1965-01-25 07:30\",\"1965\",\"01\",\"25\",\"07:30\",\"-12.2\",\"\",\"-16.7\",\"\",\"69\",\"\",\"9\",\"\",\"14\",\"\",\"19.3\",\"\",\"101.73\",\"\",\"\",\"\",\"-19\",\"\",\"Mostly
        Cloudy\"\r\n\"-54.00\",\"47.30\",\"ARGENTIA A\",\"8400100\",\"1965-01-25 08:30\",\"1965\",\"01\",\"25\",\"08:30\",\"-12.8\",\"\",\"-16.1\",\"\",\"76\",\"\",\"7\",\"\",\"19\",\"\",\"19.3\",\"\",\"101.63\",\"\",\"\",\"\",\"-21\",\"\",\"Mostly
        Cloudy\"\r\n\"-54.00\",\"47.30\",\"ARGENTIA A\",\"8400100\",\"1965-01-25 09:30\",\"1965\",\"01\",\"25\",\"09:30\",\"-12.2\",\"\",\"-16.1\",\"\",\"73\",\"\",\"7\",\"\",\"19\",\"\",\"19.3\",\"\",\"101.59\",\"\",\"\",\"\",\"-20\",\"\",\"Cloudy\"\r\n\"-54.00\",\"47.30\",\"ARGENTIA
        A\",\"8400100\",\"1965-01-25 10:30\",\"1965\",\"01\",\"25\",\"10:30\",\"-10.6\",\"\",\"-16.7\",\"\",\"61\",\"\",\"9\",\"\",\"23\",\"\",\"19.3\",\"\",\"101.42\",\"\",\"\",\"\",\"-19\",\"\",\"Cloudy\"\r\n\"-54.00\",\"47.30\",\"ARGENTIA
        A\",\"8400100\",\"1965-01-25 11:30\",\"1965\",\"01\",\"25\",\"11:30\",\"-8.9\",\"\",\"-16.7\",\"\",\"53\",\"\",\"11\",\"\",\"23\",\"\",\"19.3\",\"\",\"101.39\",\"\",\"\",\"\",\"-17\",\"\",\"Cloudy\"\r\n\"-54.00\",\"47.30\",\"ARGENTIA
        A\",\"8400100\",\"1965-01-25 12:30\",\"1965\",\"01\",\"25\",\"12:30\",\"-7.8\",\"\",\"-13.3\",\"\",\"64\",\"\",\"11\",\"\",\"23\",\"\",\"19.3\",\"\",\"101.29\",\"\",\"\",\"\",\"-16\",\"\",\"Cloudy\"\r\n\"-54.00\",\"47.30\",\"ARGENTIA
        A\",\"8400100\",\"1965-01-25 13:30\",\"1965\",\"01\",\"25\",\"13:30\",\"-6.7\",\"\",\"-11.7\",\"\",\"68\",\"\",\"9\",\"\",\"23\",\"\",\"19.3\",\"\",\"101.19\",\"\",\"\",\"\",\"-14\",\"\",\"Cloudy\"\r\n\"-54.00\",\"47.30\",\"ARGENTIA
        A\",\"8400100\",\"1965-01-25 14:30\",\"1965\",\"01\",\"25\",\"14:30\",\"-5.6\",\"\",\"-11.1\",\"\",\"65\",\"\",\"11\",\"\",\"19\",\"\",\"19.3\",\"\",\"101.05\",\"\",\"\",\"\",\"-12\",\"\",\"Cloudy\"\r\n\"-54.00\",\"47.30\",\"ARGENTIA
        A\",\"8400100\",\"1965-01-25 15:30\",\"1965\",\"01\",\"25\",\"15:30\",\"-5.6\",\"\",\"-10.6\",\"\",\"68\",\"\",\"9\",\"\",\"27\",\"\",\"19.3\",\"\",\"100.95\",\"\",\"\",\"\",\"-13\",\"\",\"Cloudy\"\r\n\"-54.00\",\"47.30\",\"ARGENTIA
        A\",\"8400100\",\"1965-01-25 16:30\",\"1965\",\"01\",\"25\",\"16:30\",\"-5.6\",\"\",\"-10.6\",\"\",\"68\",\"\",\"9\",\"\",\"37\",\"\",\"19.3\",\"\",\"100.81\",\"\",\"\",\"\",\"-15\",\"\",\"Cloudy\"\r\n\"-54.00\",\"47.30\",\"ARGENTIA
        A\",\"8400100\",\"1965-01-25 17:30\",\"1965\",\"01\",\"25\",\"17:30\",\"-5.6\",\"\",\"-10.0\",\"\",\"71\",\"\",\"9\",\"\",\"29\",\"\",\"19.3\",\"\",\"100.78\",\"\",\"\",\"\",\"-14\",\"\",\"Cloudy\"\r\n\"-54.00\",\"47.30\",\"ARGENTIA
        A\",\"8400100\",\"1965-01-25 18:30\",\"1965\",\"01\",\"25\",\"18:30\",\"-5.6\",\"\",\"-9.4\",\"\",\"74\",\"\",\"9\",\"\",\"37\",\"\",\"16.1\",\"\",\"100.78\",\"\",\"\",\"\",\"-15\",\"\",\"Cloudy\"\r\n\"-54.00\",\"47.30\",\"ARGENTIA
        A\",\"8400100\",\"1965-01-25 19:30\",\"1965\",\"01\",\"25\",\"19:30\",\"-5.0\",\"\",\"-8.9\",\"\",\"74\",\"\",\"9\",\"\",\"39\",\"\",\"16.1\",\"\",\"100.75\",\"\",\"\",\"\",\"-14\",\"\",\"Cloudy\"\r\n\"-54.00\",\"47.30\",\"ARGENTIA
        A\",\"8400100\",\"1965-01-25 20:30\",\"1965\",\"01\",\"25\",\"20:30\",\"-4.4\",\"\",\"-7.8\",\"\",\"78\",\"\",\"9\",\"\",\"35\",\"\",\"16.1\",\"\",\"100.71\",\"\",\"\",\"\",\"-13\",\"\",\"Cloudy\"\r\n\"-54.00\",\"47.30\",\"ARGENTIA
        A\",\"8400100\",\"1965-01-25 21:30\",\"1965\",\"01\",\"25\",\"21:30\",\"-4.4\",\"\",\"-8.3\",\"\",\"74\",\"\",\"9\",\"\",\"37\",\"\",\"16.1\",\"\",\"100.61\",\"\",\"\",\"\",\"-13\",\"\",\"Cloudy\"\r\n\"-54.00\",\"47.30\",\"ARGENTIA
        A\",\"8400100\",\"1965-01-25 22:30\",\"1965\",\"01\",\"25\",\"22:30\",\"-4.4\",\"\",\"-8.3\",\"\",\"74\",\"\",\"9\",\"\",\"37\",\"\",\"16.1\",\"\",\"100.58\",\"\",\"\",\"\",\"-13\",\"\",\"Cloudy\"\r\n\"-54.00\",\"47.30\",\"ARGENTIA
        A\",\"8400100\",\"1965-01-25 23:30\",\"1965\",\"01\",\"25\",\"23:30\",\"-3.9\",\"\",\"-8.3\",\"\",\"71\",\"\",\"9\",\"\",\"37\",\"\",\"16.1\",\"\",\"100.51\",\"\",\"\",\"\",\"-12\",\"\",\"Cloudy\"\r\n\"-54.00\",\"47.30\",\"ARGENTIA
        A\",\"8400100\",\"1965-01-26 00:30\",\"1965\",\"01\",\"26\",\"00:30\",\"-4.4\",\"\",\"-7.8\",\"\",\"78\",\"\",\"7\",\"\",\"37\",\"\",\"6.4\",\"\",\"100.51\",\"\",\"\",\"\",\"-13\",\"\",\"Snow\"\r\n\"-54.00\",\"47.30\",\"ARGENTIA
        A\",\"8400100\",\"1965-01-26 01:30\",\"1965\",\"01\",\"26\",\"01:30\",\"-3.9\",\"\",\"-7.8\",\"\",\"74\",\"\",\"7\",\"\",\"40\",\"\",\"3.2\",\"\",\"100.47\",\"\",\"\",\"\",\"-13\",\"\",\"Snow,Blowing
        Snow\"\r\n\"-54.00\",\"47.30\",\"ARGENTIA A\",\"8400100\",\"1965-01-26 02:30\",\"1965\",\"01\",\"26\",\"02:30\",\"-4.4\",\"\",\"-6.1\",\"\",\"88\",\"\",\"9\",\"\",\"43\",\"\",\"1.6\",\"\",\"100.44\",\"\",\"\",\"\",\"-14\",\"\",\"Snow,Blowing
        Snow\"\r\n\"-54.00\",\"47.30\",\"ARGENTIA A\",\"8400100\",\"1965-01-26 03:30\",\"1965\",\"01\",\"26\",\"03:30\",\"-3.9\",\"\",\"-5.6\",\"\",\"88\",\"\",\"5\",\"\",\"40\",\"\",\"1.6\",\"\",\"100.41\",\"\",\"\",\"\",\"-13\",\"\",\"Snow,Blowing
        Snow\"\r\n\"-54.00\",\"47.30\",\"ARGENTIA A\",\"8400100\",\"1965-01-26 04:30\",\"1965\",\"01\",\"26\",\"04:30\",\"-3.9\",\"\",\"-5.0\",\"\",\"92\",\"\",\"5\",\"\",\"47\",\"\",\"1.2\",\"\",\"100.41\",\"\",\"\",\"\",\"-13\",\"\",\"Snow,Blowing
        Snow\"\r\n\"-54.00\",\"47.30\",\"ARGENTIA A\",\"8400100\",\"1965-01-26 05:30\",\"1965\",\"01\",\"26\",\"05:30\",\"-3.9\",\"\",\"-5.0\",\"\",\"92\",\"\",\"5\",\"\",\"48\",\"\",\"1.2\",\"\",\"100.41\",\"\",\"\",\"\",\"-13\",\"\",\"Snow,Blowing
        Snow\"\r\n\"-54.00\",\"47.30\",\"ARGENTIA A\",\"8400100\",\"1965-01-26 06:30\",\"1965\",\"01\",\"26\",\"06:30\",\"-3.3\",\"\",\"-4.4\",\"\",\"92\",\"\",\"5\",\"\",\"47\",\"\",\"1.2\",\"\",\"100.41\",\"\",\"\",\"\",\"-12\",\"\",\"Snow,Blowing
        Snow\"\r\n\"-54.00\",\"47.30\",\"ARGENTIA A\",\"8400100\",\"1965-01-26 07:30\",\"1965\",\"01\",\"26\",\"07:30\",\"-2.8\",\"\",\"-4.4\",\"\",\"88\",\"\",\"5\",\"\",\"40\",\"\",\"1.6\",\"\",\"100.44\",\"\",\"\",\"\",\"-11\",\"\",\"Snow,Blowing
        Snow\"\r\n\"-54.00\",\"47.30\",\"ARGENTIA A\",\"8400100\",\"1965-01-26 08:30\",\"1965\",\"01\",\"26\",\"08:30\",\"-2.8\",\"\",\"-4.4\",\"\",\"88\",\"\",\"5\",\"\",\"43\",\"\",\"1.2\",\"\",\"100.47\",\"\",\"\",\"\",\"-11\",\"\",\"Snow,Blowing
        Snow\"\r\n\"-54.00\",\"47.30\",\"ARGENTIA A\",\"8400100\",\"1965-01-26 09:30\",\"1965\",\"01\",\"26\",\"09:30\",\"-2.2\",\"\",\"-3.3\",\"\",\"92\",\"\",\"5\",\"\",\"56\",\"\",\"0.8\",\"\",\"100.47\",\"\",\"\",\"\",\"-12\",\"\",\"Snow,Blowing
        Snow\"\r\n\"-54.00\",\"47.30\",\"ARGENTIA A\",\"8400100\",\"1965-01-26 10:30\",\"1965\",\"01\",\"26\",\"10:30\",\"-1.1\",\"\",\"-2.8\",\"\",\"88\",\"\",\"5\",\"\",\"51\",\"\",\"0.8\",\"\",\"100.51\",\"\",\"\",\"\",\"-10\",\"\",\"Snow,Blowing
        Snow\"\r\n\"-54.00\",\"47.30\",\"ARGENTIA A\",\"8400100\",\"1965-01-26 11:30\",\"1965\",\"01\",\"26\",\"11:30\",\"-1.1\",\"\",\"-2.2\",\"\",\"92\",\"\",\"2\",\"\",\"56\",\"\",\"0.8\",\"\",\"100.51\",\"\",\"\",\"\",\"-10\",\"\",\"Snow,Blowing
        Snow\"\r\n\"-54.00\",\"47.30\",\"ARGENTIA A\",\"8400100\",\"1965-01-26 12:30\",\"1965\",\"01\",\"26\",\"12:30\",\"-0.6\",\"\",\"-1.1\",\"\",\"96\",\"\",\"2\",\"\",\"47\",\"\",\"0.8\",\"\",\"100.47\",\"\",\"\",\"\",\"-9\",\"\",\"Snow,Blowing
        Snow\"\r\n\"-54.00\",\"47.30\",\"ARGENTIA A\",\"8400100\",\"1965-01-26 13:30\",\"1965\",\"01\",\"26\",\"13:30\",\"0.0\",\"\",\"-0.6\",\"\",\"96\",\"\",\"2\",\"\",\"50\",\"\",\"0.8\",\"\",\"100.47\",\"\",\"\",\"\",\"-8\",\"\",\"Snow,Blowing
        Snow\"\r\n\"-54.00\",\"47.30\",\"ARGENTIA A\",\"8400100\",\"1965-01-26 14:30\",\"1965\",\"01\",\"26\",\"14:30\",\"0.0\",\"\",\"-0.6\",\"\",\"96\",\"\",\"2\",\"\",\"48\",\"\",\"0.8\",\"\",\"100.54\",\"\",\"\",\"\",\"-8\",\"\",\"Snow,Blowing
        Snow\"\r\n\"-54.00\",\"47.30\",\"ARGENTIA A\",\"8400100\",\"1965-01-26 15:30\",\"1965\",\"01\",\"26\",\"15:30\",\"0.0\",\"\",\"0.0\",\"\",\"100\",\"\",\"2\",\"\",\"48\",\"\",\"1.2\",\"\",\"100.61\",\"\",\"\",\"\",\"-8\",\"\",\"Snow,Blowing
        Snow\"\r\n\"-54.00\",\"47.30\",\"ARGENTIA A\",\"8400100\",\"1965-01-26 16:30\",\"1965\",\"01\",\"26\",\"16:30\",\"0.0\",\"\",\"0.0\",\"\",\"100\",\"\",\"5\",\"\",\"43\",\"\",\"1.2\",\"\",\"100.64\",\"\",\"\",\"\",\"-8\",\"\",\"Snow,Blowing
        Snow\"\r\n\"-54.00\",\"47.30\",\"ARGENTIA A\",\"8400100\",\"1965-01-26 17:30\",\"1965\",\"01\",\"26\",\"17:30\",\"0.6\",\"\",\"0.6\",\"\",\"100\",\"\",\"2\",\"\",\"48\",\"\",\"1.6\",\"\",\"100.78\",\"\",\"\",\"\",\"\",\"\",\"Snow,Blowing
        Snow\"\r\n\"-54.00\",\"47.30\",\"ARGENTIA A\",\"8400100\",\"1965-01-26 18:30\",\"1965\",\"01\",\"26\",\"18:30\",\"0.6\",\"\",\"0.6\",\"\",\"100\",\"\",\"5\",\"\",\"45\",\"\",\"3.2\",\"\",\"100.85\",\"\",\"\",\"\",\"\",\"\",\"Snow\"\r\n\"-54.00\",\"47.30\",\"ARGENTIA
        A\",\"8400100\",\"1965-01-26 19:30\",\"1965\",\"01\",\"26\",\"19:30\",\"1.1\",\"\",\"0.6\",\"\",\"96\",\"\",\"5\",\"\",\"40\",\"\",\"3.2\",\"\",\"100.91\",\"\",\"\",\"\",\"\",\"\",\"Snow\"\r\n\"-54.00\",\"47.30\",\"ARGENTIA
        A\",\"8400100\",\"1965-01-26 20:30\",\"1965\",\"01\",\"26\",\"20:30\",\"1.1\",\"\",\"0.6\",\"\",\"96\",\"\",\"5\",\"\",\"39\",\"\",\"3.2\",\"\",\"101.05\",\"\",\"\",\"\",\"\",\"\",\"Rain,Snow\"\r\n\"-54.00\",\"47.30\",\"ARGENTIA
        A\",\"8400100\",\"1965-01-26 21:30\",\"1965\",\"01\",\"26\",\"21:30\",\"1.1\",\"\",\"1.1\",\"\",\"100\",\"\",\"5\",\"\",\"29\",\"\",\"4.8\",\"\",\"101.15\",\"\",\"\",\"\",\"\",\"\",\"Rain,Snow\"\r\n\"-54.00\",\"47.30\",\"ARGENTIA
        A\",\"8400100\",\"1965-01-26 22:30\",\"1965\",\"01\",\"26\",\"22:30\",\"2.2\",\"\",\"1.1\",\"\",\"92\",\"\",\"5\",\"\",\"27\",\"\",\"9.7\",\"\",\"101.12\",\"\",\"\",\"\",\"\",\"\",\"Rain\"\r\n\"-54.00\",\"47.30\",\"ARGENTIA
        A\",\"8400100\",\"1965-01-26 23:30\",\"1965\",\"01\",\"26\",\"23:30\",\"1.7\",\"\",\"0.6\",\"\",\"92\",\"\",\"5\",\"\",\"34\",\"\",\"11.3\",\"\",\"101.08\",\"\",\"\",\"\",\"\",\"\",\"Cloudy\"\r\n\"-54.00\",\"47.30\",\"ARGENTIA
        A\",\"8400100\",\"1965-01-27 00:30\",\"1965\",\"01\",\"27\",\"00:30\",\"1.1\",\"\",\"0.0\",\"\",\"92\",\"\",\"5\",\"\",\"29\",\"\",\"16.1\",\"\",\"101.08\",\"\",\"\",\"\",\"\",\"\",\"Mainly
        Clear\"\r\n\"-54.00\",\"47.30\",\"ARGENTIA A\",\"8400100\",\"1965-01-27 01:30\",\"1965\",\"01\",\"27\",\"01:30\",\"1.1\",\"\",\"0.0\",\"\",\"92\",\"\",\"5\",\"\",\"27\",\"\",\"16.1\",\"\",\"101.08\",\"\",\"\",\"\",\"\",\"\",\"Mostly
        Cloudy\"\r\n\"-54.00\",\"47.30\",\"ARGENTIA A\",\"8400100\",\"1965-01-27 02:30\",\"1965\",\"01\",\"27\",\"02:30\",\"1.1\",\"\",\"0.0\",\"\",\"92\",\"\",\"5\",\"\",\"29\",\"\",\"16.1\",\"\",\"101.08\",\"\",\"\",\"\",\"\",\"\",\"Mostly
        Cloudy\"\r\n\"-54.00\",\"47.30\",\"ARGENTIA A\",\"8400100\",\"1965-01-27 03:30\",\"1965\",\"01\",\"27\",\"03:30\",\"0.6\",\"\",\"0.0\",\"\",\"96\",\"\",\"2\",\"\",\"27\",\"\",\"16.1\",\"\",\"101.08\",\"\",\"\",\"\",\"\",\"\",\"Mostly
        Cloudy\"\r\n\"-54.00\",\"47.30\",\"ARGENTIA A\",\"8400100\",\"1965-01-27 04:30\",\"1965\",\"01\",\"27\",\"04:30\",\"0.6\",\"\",\"0.6\",\"\",\"100\",\"\",\"5\",\"\",\"23\",\"\",\"16.1\",\"\",\"101.12\",\"\",\"\",\"\",\"\",\"\",\"Cloudy\"\r\n\"-54.00\",\"47.30\",\"ARGENTIA
        A\",\"8400100\",\"1965-01-27 05:30\",\"1965\",\"01\",\"27\",\"05:30\",\"1.7\",\"\",\"1.1\",\"\",\"96\",\"\",\"5\",\"\",\"24\",\"\",\"16.1\",\"\",\"101.12\",\"\",\"\",\"\",\"\",\"\",\"Cloudy\"\r\n\"-54.00\",\"47.30\",\"ARGENTIA
        A\",\"8400100\",\"1965-01-27 06:30\",\"1965\",\"01\",\"27\",\"06:30\",\"1.7\",\"\",\"1.1\",\"\",\"96\",\"\",\"7\",\"\",\"27\",\"\",\"16.1\",\"\",\"101.08\",\"\",\"\",\"\",\"\",\"\",\"Cloudy\"\r\n\"-54.00\",\"47.30\",\"ARGENTIA
        A\",\"8400100\",\"1965-01-27 07:30\",\"1965\",\"01\",\"27\",\"07:30\",\"1.7\",\"\",\"1.1\",\"\",\"96\",\"\",\"7\",\"\",\"27\",\"\",\"12.9\",\"\",\"101.12\",\"\",\"\",\"\",\"\",\"\",\"Cloudy\"\r\n\"-54.00\",\"47.30\",\"ARGENTIA
        A\",\"8400100\",\"1965-01-27 08:30\",\"1965\",\"01\",\"27\",\"08:30\",\"1.7\",\"\",\"1.1\",\"\",\"96\",\"\",\"5\",\"\",\"19\",\"\",\"12.9\",\"\",\"101.12\",\"\",\"\",\"\",\"\",\"\",\"Mostly
        Cloudy\"\r\n\"-54.00\",\"47.30\",\"ARGENTIA A\",\"8400100\",\"1965-01-27 09:30\",\"1965\",\"01\",\"27\",\"09:30\",\"2.2\",\"\",\"1.7\",\"\",\"96\",\"\",\"7\",\"\",\"21\",\"\",\"14.5\",\"\",\"101.12\",\"\",\"\",\"\",\"\",\"\",\"Mostly
        Cloudy\"\r\n\"-54.00\",\"47.30\",\"ARGENTIA A\",\"8400100\",\"1965-01-27 10:30\",\"1965\",\"01\",\"27\",\"10:30\",\"2.8\",\"\",\"1.7\",\"\",\"92\",\"\",\"9\",\"\",\"26\",\"\",\"14.5\",\"\",\"101.12\",\"\",\"\",\"\",\"\",\"\",\"Mostly
        Cloudy\"\r\n\"-54.00\",\"47.30\",\"ARGENTIA A\",\"8400100\",\"1965-01-27 11:30\",\"1965\",\"01\",\"27\",\"11:30\",\"3.3\",\"\",\"1.7\",\"\",\"89\",\"\",\"9\",\"\",\"26\",\"\",\"14.5\",\"\",\"100.95\",\"\",\"\",\"\",\"\",\"\",\"Mostly
        Cloudy\"\r\n\"-54.00\",\"47.30\",\"ARGENTIA A\",\"8400100\",\"1965-01-27 12:30\",\"1965\",\"01\",\"27\",\"12:30\",\"3.9\",\"\",\"3.3\",\"\",\"96\",\"\",\"9\",\"\",\"29\",\"\",\"14.5\",\"\",\"100.88\",\"\",\"\",\"\",\"\",\"\",\"Cloudy\"\r\n\"-54.00\",\"47.30\",\"ARGENTIA
        A\",\"8400100\",\"1965-01-27 13:30\",\"1965\",\"01\",\"27\",\"13:30\",\"3.9\",\"\",\"2.8\",\"\",\"92\",\"\",\"9\",\"\",\"21\",\"\",\"14.5\",\"\",\"100.78\",\"\",\"\",\"\",\"\",\"\",\"Mostly
        Cloudy\"\r\n\"-54.00\",\"47.30\",\"ARGENTIA A\",\"8400100\",\"1965-01-27 14:30\",\"1965\",\"01\",\"27\",\"14:30\",\"3.9\",\"\",\"2.2\",\"\",\"89\",\"\",\"11\",\"\",\"26\",\"\",\"16.1\",\"\",\"100.71\",\"\",\"\",\"\",\"\",\"\",\"Mostly
        Cloudy\"\r\n\"-54.00\",\"47.30\",\"ARGENTIA A\",\"8400100\",\"1965-01-27 15:30\",\"1965\",\"01\",\"27\",\"15:30\",\"3.9\",\"\",\"1.7\",\"\",\"85\",\"\",\"11\",\"\",\"23\",\"\",\"12.9\",\"\",\"100.71\",\"\",\"\",\"\",\"\",\"\",\"Cloudy\"\r\n\"-54.00\",\"47.30\",\"ARGENTIA
        A\",\"8400100\",\"1965-01-27 16:30\",\"1965\",\"01\",\"27\",\"16:30\",\"3.3\",\"\",\"1.1\",\"\",\"85\",\"\",\"9\",\"\",\"27\",\"\",\"14.5\",\"\",\"100.68\",\"\",\"\",\"\",\"\",\"\",\"Cloudy\"\r\n\"-54.00\",\"47.30\",\"ARGENTIA
        A\",\"8400100\",\"1965-01-27 17:30\",\"1965\",\"01\",\"27\",\"17:30\",\"2.8\",\"\",\"0.6\",\"\",\"85\",\"\",\"9\",\"\",\"26\",\"\",\"14.5\",\"\",\"100.64\",\"\",\"\",\"\",\"\",\"\",\"Cloudy\"\r\n\"-54.00\",\"47.30\",\"ARGENTIA
        A\",\"8400100\",\"1965-01-27 18:30\",\"1965\",\"01\",\"27\",\"18:30\",\"2.2\",\"\",\"0.6\",\"\",\"89\",\"\",\"9\",\"\",\"23\",\"\",\"14.5\",\"\",\"100.61\",\"\",\"\",\"\",\"\",\"\",\"Cloudy\"\r\n\"-54.00\",\"47.30\",\"ARGENTIA
        A\",\"8400100\",\"1965-01-27 19:30\",\"1965\",\"01\",\"27\",\"19:30\",\"2.2\",\"\",\"0.6\",\"\",\"89\",\"\",\"11\",\"\",\"26\",\"\",\"12.9\",\"\",\"100.41\",\"\",\"\",\"\",\"\",\"\",\"Cloudy\"\r\n\"-54.00\",\"47.30\",\"ARGENTIA
        A\",\"8400100\",\"1965-01-27 20:30\",\"1965\",\"01\",\"27\",\"20:30\",\"2.2\",\"\",\"0.0\",\"\",\"85\",\"\",\"11\",\"\",\"26\",\"\",\"12.9\",\"\",\"100.31\",\"\",\"\",\"\",\"\",\"\",\"Cloudy\"\r\n\"-54.00\",\"47.30\",\"ARGENTIA
        A\",\"8400100\",\"1965-01-27 21:30\",\"1965\",\"01\",\"27\",\"21:30\",\"2.2\",\"\",\"0.0\",\"\",\"85\",\"\",\"11\",\"\",\"26\",\"\",\"12.9\",\"\",\"100.24\",\"\",\"\",\"\",\"\",\"\",\"Cloudy\"\r\n\"-54.00\",\"47.30\",\"ARGENTIA
        A\",\"8400100\",\"1965-01-27 22:30\",\"1965\",\"01\",\"27\",\"22:30\",\"2.2\",\"\",\"0.0\",\"\",\"85\",\"\",\"11\",\"\",\"26\",\"\",\"12.9\",\"\",\"100.03\",\"\",\"\",\"\",\"\",\"\",\"Rain
        Showers\"\r\n\"-54.00\",\"47.30\",\"ARGENTIA A\",\"8400100\",\"1965-01-27
        23:30\",\"1965\",\"01\",\"27\",\"23:30\",\"2.2\",\"\",\"0.6\",\"\",\"89\",\"\",\"11\",\"\",\"43\",\"\",\"12.9\",\"\",\"99.83\",\"\",\"\",\"\",\"\",\"\",\"Cloudy\"\r\n\"-54.00\",\"47.30\",\"ARGENTIA
        A\",\"8400100\",\"1965-01-28 00:30\",\"1965\",\"01\",\"28\",\"00:30\",\"2.2\",\"\",\"1.1\",\"\",\"92\",\"\",\"14\",\"\",\"40\",\"\",\"12.9\",\"\",\"99.70\",\"\",\"\",\"\",\"\",\"\",\"Rain\"\r\n\"-54.00\",\"47.30\",\"ARGENTIA
        A\",\"8400100\",\"1965-01-28 01:30\",\"1965\",\"01\",\"28\",\"01:30\",\"2.2\",\"\",\"1.1\",\"\",\"92\",\"\",\"11\",\"\",\"37\",\"\",\"11.3\",\"\",\"99.42\",\"\",\"\",\"\",\"\",\"\",\"Rain\"\r\n\"-54.00\",\"47.30\",\"ARGENTIA
        A\",\"8400100\",\"1965-01-28 02:30\",\"1965\",\"01\",\"28\",\"02:30\",\"2.2\",\"\",\"1.7\",\"\",\"96\",\"\",\"11\",\"\",\"40\",\"\",\"12.9\",\"\",\"99.26\",\"\",\"\",\"\",\"\",\"\",\"Rain\"\r\n\"-54.00\",\"47.30\",\"ARGENTIA
        A\",\"8400100\",\"1965-01-28 03:30\",\"1965\",\"01\",\"28\",\"03:30\",\"2.8\",\"\",\"2.2\",\"\",\"96\",\"\",\"14\",\"\",\"48\",\"\",\"4.8\",\"\",\"99.09\",\"\",\"\",\"\",\"\",\"\",\"Rain,Fog\"\r\n\"-54.00\",\"47.30\",\"ARGENTIA
        A\",\"8400100\",\"1965-01-28 04:30\",\"1965\",\"01\",\"28\",\"04:30\",\"2.8\",\"\",\"2.8\",\"\",\"100\",\"\",\"14\",\"\",\"48\",\"\",\"4.8\",\"\",\"98.92\",\"\",\"\",\"\",\"\",\"\",\"Rain,Fog\"\r\n\"-54.00\",\"47.30\",\"ARGENTIA
        A\",\"8400100\",\"1965-01-28 05:30\",\"1965\",\"01\",\"28\",\"05:30\",\"2.8\",\"\",\"2.8\",\"\",\"100\",\"\",\"14\",\"\",\"48\",\"\",\"4.8\",\"\",\"98.82\",\"\",\"\",\"\",\"\",\"\",\"Rain,Fog\"\r\n\"-54.00\",\"47.30\",\"ARGENTIA
        A\",\"8400100\",\"1965-01-28 06:30\",\"1965\",\"01\",\"28\",\"06:30\",\"2.8\",\"\",\"2.8\",\"\",\"100\",\"\",\"18\",\"\",\"37\",\"\",\"4.8\",\"\",\"98.92\",\"\",\"\",\"\",\"\",\"\",\"Rain,Fog\"\r\n\"-54.00\",\"47.30\",\"ARGENTIA
        A\",\"8400100\",\"1965-01-28 07:30\",\"1965\",\"01\",\"28\",\"07:30\",\"0.6\",\"\",\"0.6\",\"\",\"100\",\"\",\"20\",\"\",\"34\",\"\",\"2.4\",\"\",\"98.95\",\"\",\"\",\"\",\"\",\"\",\"Rain,Fog\"\r\n\"-54.00\",\"47.30\",\"ARGENTIA
        A\",\"8400100\",\"1965-01-28 08:30\",\"1965\",\"01\",\"28\",\"08:30\",\"0.6\",\"\",\"0.0\",\"\",\"96\",\"\",\"23\",\"\",\"34\",\"\",\"4.8\",\"\",\"98.88\",\"\",\"\",\"\",\"\",\"\",\"Rain,Fog\"\r\n\"-54.00\",\"47.30\",\"ARGENTIA
        A\",\"8400100\",\"1965-01-28 09:30\",\"1965\",\"01\",\"28\",\"09:30\",\"0.6\",\"\",\"0.0\",\"\",\"96\",\"\",\"20\",\"\",\"37\",\"\",\"4.0\",\"\",\"98.88\",\"\",\"\",\"\",\"\",\"\",\"Snow,Fog\"\r\n\"-54.00\",\"47.30\",\"ARGENTIA
        A\",\"8400100\",\"1965-01-28 10:30\",\"1965\",\"01\",\"28\",\"10:30\",\"0.6\",\"\",\"0.6\",\"\",\"100\",\"\",\"20\",\"\",\"47\",\"\",\"8.0\",\"\",\"98.95\",\"\",\"\",\"\",\"\",\"\",\"Fog\"\r\n\"-54.00\",\"47.30\",\"ARGENTIA
        A\",\"8400100\",\"1965-01-28 11:30\",\"1965\",\"01\",\"28\",\"11:30\",\"0.6\",\"\",\"-1.1\",\"\",\"89\",\"\",\"23\",\"\",\"39\",\"\",\"14.5\",\"\",\"98.95\",\"\",\"\",\"\",\"\",\"\",\"Cloudy\"\r\n\"-54.00\",\"47.30\",\"ARGENTIA
        A\",\"8400100\",\"1965-01-28 12:30\",\"1965\",\"01\",\"28\",\"12:30\",\"0.6\",\"\",\"-1.7\",\"\",\"85\",\"\",\"23\",\"\",\"43\",\"\",\"14.5\",\"\",\"98.98\",\"\",\"\",\"\",\"\",\"\",\"Mostly
        Cloudy\"\r\n\"-54.00\",\"47.30\",\"ARGENTIA A\",\"8400100\",\"1965-01-28 13:30\",\"1965\",\"01\",\"28\",\"13:30\",\"0.0\",\"\",\"-0.6\",\"\",\"96\",\"\",\"23\",\"\",\"43\",\"\",\"4.8\",\"\",\"99.02\",\"\",\"\",\"\",\"-8\",\"\",\"Snow
        Showers\"\r\n\"-54.00\",\"47.30\",\"ARGENTIA A\",\"8400100\",\"1965-01-28
        14:30\",\"1965\",\"01\",\"28\",\"14:30\",\"0.0\",\"\",\"-0.6\",\"\",\"96\",\"\",\"23\",\"\",\"47\",\"\",\"3.2\",\"\",\"99.05\",\"\",\"\",\"\",\"-8\",\"\",\"Snow
        Showers\"\r\n\"-54.00\",\"47.30\",\"ARGENTIA A\",\"8400100\",\"1965-01-28
        15:30\",\"1965\",\"01\",\"28\",\"15:30\",\"-0.6\",\"\",\"-1.7\",\"\",\"92\",\"\",\"23\",\"\",\"56\",\"\",\"6.4\",\"\",\"99.12\",\"\",\"\",\"\",\"-9\",\"\",\"Snow
        Showers\"\r\n\"-54.00\",\"47.30\",\"ARGENTIA A\",\"8400100\",\"1965-01-28
        16:30\",\"1965\",\"01\",\"28\",\"16:30\",\"-0.6\",\"\",\"-3.9\",\"\",\"78\",\"\",\"23\",\"\",\"48\",\"\",\"11.3\",\"\",\"99.26\",\"\",\"\",\"\",\"-9\",\"\",\"Mostly
        Cloudy\"\r\n\"-54.00\",\"47.30\",\"ARGENTIA A\",\"8400100\",\"1965-01-28 17:30\",\"1965\",\"01\",\"28\",\"17:30\",\"-0.6\",\"\",\"-5.0\",\"\",\"72\",\"\",\"23\",\"\",\"56\",\"\",\"14.5\",\"\",\"99.29\",\"\",\"\",\"\",\"-9\",\"\",\"Mostly
        Cloudy\"\r\n\"-54.00\",\"47.30\",\"ARGENTIA A\",\"8400100\",\"1965-01-28 18:30\",\"1965\",\"01\",\"28\",\"18:30\",\"-0.6\",\"\",\"-8.3\",\"\",\"56\",\"\",\"23\",\"\",\"60\",\"\",\"12.9\",\"\",\"99.36\",\"\",\"\",\"\",\"-10\",\"\",\"Mostly
        Cloudy\"\r\n\"-54.00\",\"47.30\",\"ARGENTIA A\",\"8400100\",\"1965-01-28 19:30\",\"1965\",\"01\",\"28\",\"19:30\",\"-1.1\",\"\",\"-5.6\",\"\",\"72\",\"\",\"23\",\"\",\"51\",\"\",\"12.9\",\"\",\"99.42\",\"\",\"\",\"\",\"-10\",\"\",\"Mostly
        Cloudy\"\r\n\"-54.00\",\"47.30\",\"ARGENTIA A\",\"8400100\",\"1965-01-28 20:30\",\"1965\",\"01\",\"28\",\"20:30\",\"-1.7\",\"\",\"-3.9\",\"\",\"85\",\"\",\"23\",\"\",\"60\",\"\",\"11.3\",\"\",\"99.42\",\"\",\"\",\"\",\"-11\",\"\",\"Snow
        Showers\"\r\n\"-54.00\",\"47.30\",\"ARGENTIA A\",\"8400100\",\"1965-01-28
        21:30\",\"1965\",\"01\",\"28\",\"21:30\",\"-1.1\",\"\",\"-5.0\",\"\",\"75\",\"\",\"23\",\"\",\"60\",\"\",\"12.9\",\"\",\"99.46\",\"\",\"\",\"\",\"-10\",\"\",\"Mostly
        Cloudy\"\r\n\"-54.00\",\"47.30\",\"ARGENTIA A\",\"8400100\",\"1965-01-28 22:30\",\"1965\",\"01\",\"28\",\"22:30\",\"-1.7\",\"\",\"-4.4\",\"\",\"81\",\"\",\"20\",\"\",\"40\",\"\",\"9.7\",\"\",\"99.53\",\"\",\"\",\"\",\"-10\",\"\",\"Snow
        Showers,Blowing Snow\"\r\n\"-54.00\",\"47.30\",\"ARGENTIA A\",\"8400100\",\"1965-01-28
        23:30\",\"1965\",\"01\",\"28\",\"23:30\",\"-1.1\",\"\",\"-6.1\",\"\",\"69\",\"\",\"23\",\"\",\"61\",\"\",\"12.9\",\"\",\"99.59\",\"\",\"\",\"\",\"-10\",\"\",\"Mostly
        Cloudy\"\r\n\"-54.00\",\"47.30\",\"ARGENTIA A\",\"8400100\",\"1965-01-29 00:30\",\"1965\",\"01\",\"29\",\"00:30\",\"-2.2\",\"\",\"-6.7\",\"\",\"72\",\"\",\"23\",\"\",\"60\",\"\",\"12.9\",\"\",\"99.66\",\"\",\"\",\"\",\"-12\",\"\",\"Cloudy\"\r\n\"-54.00\",\"47.30\",\"ARGENTIA
        A\",\"8400100\",\"1965-01-29 01:30\",\"1965\",\"01\",\"29\",\"01:30\",\"-1.7\",\"\",\"-6.7\",\"\",\"69\",\"\",\"27\",\"\",\"60\",\"\",\"12.9\",\"\",\"99.76\",\"\",\"\",\"\",\"-11\",\"\",\"Cloudy\"\r\n\"-54.00\",\"47.30\",\"ARGENTIA
        A\",\"8400100\",\"1965-01-29 02:30\",\"1965\",\"01\",\"29\",\"02:30\",\"-2.2\",\"\",\"-8.3\",\"\",\"63\",\"\",\"25\",\"\",\"63\",\"\",\"12.9\",\"\",\"99.87\",\"\",\"\",\"\",\"-12\",\"\",\"Mostly
        Cloudy\"\r\n\"-54.00\",\"47.30\",\"ARGENTIA A\",\"8400100\",\"1965-01-29 03:30\",\"1965\",\"01\",\"29\",\"03:30\",\"-1.7\",\"\",\"-3.9\",\"\",\"85\",\"\",\"25\",\"\",\"68\",\"\",\"16.1\",\"\",\"99.90\",\"\",\"\",\"\",\"-12\",\"\",\"Mainly
        Clear\"\r\n\"-54.00\",\"47.30\",\"ARGENTIA A\",\"8400100\",\"1965-01-29 04:30\",\"1965\",\"01\",\"29\",\"04:30\",\"-1.7\",\"\",\"-10.6\",\"\",\"51\",\"\",\"25\",\"\",\"63\",\"\",\"16.1\",\"\",\"100.03\",\"\",\"\",\"\",\"-11\",\"\",\"Mainly
        Clear\"\r\n\"-54.00\",\"47.30\",\"ARGENTIA A\",\"8400100\",\"1965-01-29 05:30\",\"1965\",\"01\",\"29\",\"05:30\",\"-1.7\",\"\",\"-10.0\",\"\",\"53\",\"\",\"25\",\"\",\"60\",\"\",\"19.3\",\"\",\"100.10\",\"\",\"\",\"\",\"-11\",\"\",\"Mainly
        Clear\"\r\n\"-54.00\",\"47.30\",\"ARGENTIA A\",\"8400100\",\"1965-01-29 06:30\",\"1965\",\"01\",\"29\",\"06:30\",\"-2.2\",\"\",\"-8.3\",\"\",\"63\",\"\",\"23\",\"\",\"40\",\"\",\"16.1\",\"\",\"100.14\",\"\",\"\",\"\",\"-10\",\"\",\"Mainly
        Clear\"\r\n\"-54.00\",\"47.30\",\"ARGENTIA A\",\"8400100\",\"1965-01-29 07:30\",\"1965\",\"01\",\"29\",\"07:30\",\"-1.7\",\"\",\"-7.8\",\"\",\"63\",\"\",\"23\",\"\",\"43\",\"\",\"16.1\",\"\",\"100.20\",\"\",\"\",\"\",\"-10\",\"\",\"Mainly
        Clear\"\r\n\"-54.00\",\"47.30\",\"ARGENTIA A\",\"8400100\",\"1965-01-29 08:30\",\"1965\",\"01\",\"29\",\"08:30\",\"-1.1\",\"\",\"-7.8\",\"\",\"60\",\"\",\"20\",\"\",\"47\",\"\",\"16.1\",\"\",\"100.27\",\"\",\"\",\"\",\"-9\",\"\",\"Mainly
        Clear\"\r\n\"-54.00\",\"47.30\",\"ARGENTIA A\",\"8400100\",\"1965-01-29 09:30\",\"1965\",\"01\",\"29\",\"09:30\",\"-1.7\",\"\",\"-3.9\",\"\",\"85\",\"\",\"18\",\"\",\"40\",\"\",\"6.4\",\"\",\"100.27\",\"\",\"\",\"\",\"-10\",\"\",\"Snow
        Showers\"\r\n\"-54.00\",\"47.30\",\"ARGENTIA A\",\"8400100\",\"1965-01-29
        10:30\",\"1965\",\"01\",\"29\",\"10:30\",\"-1.1\",\"\",\"-2.8\",\"\",\"88\",\"\",\"18\",\"\",\"40\",\"\",\"3.2\",\"\",\"100.27\",\"\",\"\",\"\",\"-9\",\"\",\"Snow
        Showers\"\r\n\"-54.00\",\"47.30\",\"ARGENTIA A\",\"8400100\",\"1965-01-29
        11:30\",\"1965\",\"01\",\"29\",\"11:30\",\"-0.6\",\"\",\"-1.7\",\"\",\"92\",\"\",\"20\",\"\",\"47\",\"\",\"3.2\",\"\",\"100.24\",\"\",\"\",\"\",\"-9\",\"\",\"Snow
        Showers\"\r\n\"-54.00\",\"47.30\",\"ARGENTIA A\",\"8400100\",\"1965-01-29
        12:30\",\"1965\",\"01\",\"29\",\"12:30\",\"1.1\",\"\",\"-2.8\",\"\",\"75\",\"\",\"20\",\"\",\"56\",\"\",\"11.3\",\"\",\"100.17\",\"\",\"\",\"\",\"\",\"\",\"Mainly
        Clear\"\r\n\"-54.00\",\"47.30\",\"ARGENTIA A\",\"8400100\",\"1965-01-29 13:30\",\"1965\",\"01\",\"29\",\"13:30\",\"1.7\",\"\",\"-2.8\",\"\",\"72\",\"\",\"18\",\"\",\"58\",\"\",\"14.5\",\"\",\"100.10\",\"\",\"\",\"\",\"\",\"\",\"Mostly
        Cloudy\"\r\n\"-54.00\",\"47.30\",\"ARGENTIA A\",\"8400100\",\"1965-01-29 14:30\",\"1965\",\"01\",\"29\",\"14:30\",\"1.7\",\"\",\"-1.7\",\"\",\"78\",\"\",\"20\",\"\",\"51\",\"\",\"14.5\",\"\",\"100.10\",\"\",\"\",\"\",\"\",\"\",\"Cloudy\"\r\n\"-54.00\",\"47.30\",\"ARGENTIA
        A\",\"8400100\",\"1965-01-29 15:30\",\"1965\",\"01\",\"29\",\"15:30\",\"2.2\",\"\",\"-1.1\",\"\",\"79\",\"\",\"18\",\"\",\"63\",\"\",\"9.7\",\"\",\"100.10\",\"\",\"\",\"\",\"\",\"\",\"Snow
        Showers\"\r\n\"-54.00\",\"47.30\",\"ARGENTIA A\",\"8400100\",\"1965-01-29
        16:30\",\"1965\",\"01\",\"29\",\"16:30\",\"1.1\",\"\",\"-1.1\",\"\",\"85\",\"\",\"20\",\"\",\"60\",\"\",\"3.2\",\"\",\"100.10\",\"\",\"\",\"\",\"\",\"\",\"Snow
        Showers\"\r\n\"-54.00\",\"47.30\",\"ARGENTIA A\",\"8400100\",\"1965-01-29
        17:30\",\"1965\",\"01\",\"29\",\"17:30\",\"-0.6\",\"\",\"-0.6\",\"\",\"100\",\"\",\"23\",\"\",\"40\",\"\",\"0.4\",\"\",\"100.20\",\"\",\"\",\"\",\"-8\",\"\",\"Snow
        Showers,Blowing Snow\"\r\n\"-54.00\",\"47.30\",\"ARGENTIA A\",\"8400100\",\"1965-01-29
        18:30\",\"1965\",\"01\",\"29\",\"18:30\",\"-1.7\",\"\",\"-1.7\",\"\",\"100\",\"\",\"23\",\"\",\"34\",\"\",\"1.6\",\"\",\"100.31\",\"\",\"\",\"\",\"-9\",\"\",\"Snow,Blowing
        Snow\"\r\n\"-54.00\",\"47.30\",\"ARGENTIA A\",\"8400100\",\"1965-01-29 19:30\",\"1965\",\"01\",\"29\",\"19:30\",\"-2.2\",\"\",\"-2.8\",\"\",\"96\",\"\",\"20\",\"\",\"37\",\"\",\"4.8\",\"\",\"100.31\",\"\",\"\",\"\",\"-10\",\"\",\"Snow,Blowing
        Snow\"\r\n\"-54.00\",\"47.30\",\"ARGENTIA A\",\"8400100\",\"1965-01-29 20:30\",\"1965\",\"01\",\"29\",\"20:30\",\"-1.7\",\"\",\"-3.3\",\"\",\"88\",\"\",\"20\",\"\",\"34\",\"\",\"12.9\",\"\",\"100.41\",\"\",\"\",\"\",\"-9\",\"\",\"Cloudy\"\r\n\"-54.00\",\"47.30\",\"ARGENTIA
        A\",\"8400100\",\"1965-01-29 21:30\",\"1965\",\"01\",\"29\",\"21:30\",\"-1.7\",\"\",\"-4.4\",\"\",\"81\",\"\",\"23\",\"\",\"23\",\"\",\"12.9\",\"\",\"100.41\",\"\",\"\",\"\",\"-8\",\"\",\"Cloudy\"\r\n\"-54.00\",\"47.30\",\"ARGENTIA
        A\",\"8400100\",\"1965-01-29 22:30\",\"1965\",\"01\",\"29\",\"22:30\",\"-1.7\",\"\",\"-4.4\",\"\",\"81\",\"\",\"20\",\"\",\"27\",\"\",\"6.4\",\"\",\"100.41\",\"\",\"\",\"\",\"-8\",\"\",\"Snow
        Showers\"\r\n\"-54.00\",\"47.30\",\"ARGENTIA A\",\"8400100\",\"1965-01-29
        23:30\",\"1965\",\"01\",\"29\",\"23:30\",\"-1.7\",\"\",\"-3.9\",\"\",\"85\",\"\",\"20\",\"\",\"24\",\"\",\"6.4\",\"\",\"100.41\",\"\",\"\",\"\",\"-8\",\"\",\"Snow\"\r\n\"-54.00\",\"47.30\",\"ARGENTIA
        A\",\"8400100\",\"1965-01-30 00:30\",\"1965\",\"01\",\"30\",\"00:30\",\"-2.2\",\"\",\"-3.9\",\"\",\"88\",\"\",\"18\",\"\",\"21\",\"\",\"4.8\",\"\",\"100.34\",\"\",\"\",\"\",\"-8\",\"\",\"Snow\"\r\n\"-54.00\",\"47.30\",\"ARGENTIA
        A\",\"8400100\",\"1965-01-30 01:30\",\"1965\",\"01\",\"30\",\"01:30\",\"-2.2\",\"\",\"-3.9\",\"\",\"88\",\"\",\"16\",\"\",\"14\",\"\",\"3.2\",\"\",\"100.31\",\"\",\"\",\"\",\"-7\",\"\",\"Snow\"\r\n\"-54.00\",\"47.30\",\"ARGENTIA
        A\",\"8400100\",\"1965-01-30 02:30\",\"1965\",\"01\",\"30\",\"02:30\",\"-1.7\",\"\",\"-2.8\",\"\",\"92\",\"\",\"16\",\"\",\"14\",\"\",\"1.6\",\"\",\"100.34\",\"\",\"\",\"\",\"-6\",\"\",\"Snow\"\r\n\"-54.00\",\"47.30\",\"ARGENTIA
        A\",\"8400100\",\"1965-01-30 03:30\",\"1965\",\"01\",\"30\",\"03:30\",\"-0.6\",\"\",\"-1.1\",\"\",\"96\",\"\",\"16\",\"\",\"26\",\"\",\"1.2\",\"\",\"100.24\",\"\",\"\",\"\",\"-7\",\"\",\"Snow\"\r\n\"-54.00\",\"47.30\",\"ARGENTIA
        A\",\"8400100\",\"1965-01-30 04:30\",\"1965\",\"01\",\"30\",\"04:30\",\"0.0\",\"\",\"0.0\",\"\",\"100\",\"\",\"16\",\"\",\"23\",\"\",\"2.4\",\"\",\"100.07\",\"\",\"\",\"\",\"-6\",\"\",\"Snow\"\r\n\"-54.00\",\"47.30\",\"ARGENTIA
        A\",\"8400100\",\"1965-01-30 05:30\",\"1965\",\"01\",\"30\",\"05:30\",\"0.0\",\"\",\"0.0\",\"\",\"100\",\"\",\"18\",\"\",\"23\",\"\",\"4.8\",\"\",\"99.87\",\"\",\"\",\"\",\"-6\",\"\",\"Snow\"\r\n\"-54.00\",\"47.30\",\"ARGENTIA
        A\",\"8400100\",\"1965-01-30 06:30\",\"1965\",\"01\",\"30\",\"06:30\",\"0.0\",\"\",\"0.0\",\"\",\"100\",\"\",\"18\",\"\",\"23\",\"\",\"4.8\",\"\",\"99.76\",\"\",\"\",\"\",\"-6\",\"\",\"Snow\"\r\n\"-54.00\",\"47.30\",\"ARGENTIA
        A\",\"8400100\",\"1965-01-30 07:30\",\"1965\",\"01\",\"30\",\"07:30\",\"0.6\",\"\",\"0.0\",\"\",\"96\",\"\",\"18\",\"\",\"27\",\"\",\"11.3\",\"\",\"99.90\",\"\",\"\",\"\",\"\",\"\",\"Cloudy\"\r\n\"-54.00\",\"47.30\",\"ARGENTIA
        A\",\"8400100\",\"1965-01-30 08:30\",\"1965\",\"01\",\"30\",\"08:30\",\"0.6\",\"\",\"0.0\",\"\",\"96\",\"\",\"20\",\"\",\"32\",\"\",\"11.3\",\"\",\"99.93\",\"\",\"\",\"\",\"\",\"\",\"Cloudy\"\r\n\"-54.00\",\"47.30\",\"ARGENTIA
        A\",\"8400100\",\"1965-01-30 09:30\",\"1965\",\"01\",\"30\",\"09:30\",\"0.0\",\"\",\"-0.6\",\"\",\"96\",\"\",\"20\",\"\",\"34\",\"\",\"3.2\",\"\",\"100.00\",\"\",\"\",\"\",\"-7\",\"\",\"Snow
        Showers\"\r\n\"-54.00\",\"47.30\",\"ARGENTIA A\",\"8400100\",\"1965-01-30
        10:30\",\"1965\",\"01\",\"30\",\"10:30\",\"-0.6\",\"\",\"-0.6\",\"\",\"100\",\"\",\"20\",\"\",\"43\",\"\",\"0.8\",\"\",\"100.00\",\"\",\"\",\"\",\"-8\",\"\",\"Moderate
        Snow Showers\"\r\n\"-54.00\",\"47.30\",\"ARGENTIA A\",\"8400100\",\"1965-01-30
        11:30\",\"1965\",\"01\",\"30\",\"11:30\",\"-1.1\",\"\",\"-1.1\",\"\",\"100\",\"\",\"23\",\"\",\"47\",\"\",\"0.8\",\"\",\"100.03\",\"\",\"\",\"\",\"-9\",\"\",\"Snow
        Showers,Blowing Snow\"\r\n\"-54.00\",\"47.30\",\"ARGENTIA A\",\"8400100\",\"1965-01-30
        12:30\",\"1965\",\"01\",\"30\",\"12:30\",\"-2.8\",\"\",\"-4.4\",\"\",\"88\",\"\",\"27\",\"\",\"56\",\"\",\"9.7\",\"\",\"100.07\",\"\",\"\",\"\",\"-12\",\"\",\"Blowing
        Snow\"\r\n\"-54.00\",\"47.30\",\"ARGENTIA A\",\"8400100\",\"1965-01-30 13:30\",\"1965\",\"01\",\"30\",\"13:30\",\"-3.3\",\"\",\"-7.8\",\"\",\"71\",\"\",\"27\",\"\",\"51\",\"\",\"16.1\",\"\",\"100.17\",\"\",\"\",\"\",\"-13\",\"\",\"Mostly
        Cloudy\"\r\n\"-54.00\",\"47.30\",\"ARGENTIA A\",\"8400100\",\"1965-01-30 14:30\",\"1965\",\"01\",\"30\",\"14:30\",\"-6.1\",\"\",\"-6.7\",\"\",\"96\",\"\",\"27\",\"\",\"56\",\"\",\"0.2\",\"\",\"100.37\",\"\",\"\",\"\",\"-17\",\"\",\"Snow
        Showers,Blowing Snow\"\r\n\"-54.00\",\"47.30\",\"ARGENTIA A\",\"8400100\",\"1965-01-30
        15:30\",\"1965\",\"01\",\"30\",\"15:30\",\"-6.1\",\"\",\"-12.2\",\"\",\"62\",\"\",\"25\",\"\",\"56\",\"\",\"16.1\",\"\",\"100.47\",\"\",\"\",\"\",\"-17\",\"\",\"Cloudy\"\r\n\"-54.00\",\"47.30\",\"ARGENTIA
        A\",\"8400100\",\"1965-01-30 16:30\",\"1965\",\"01\",\"30\",\"16:30\",\"-6.7\",\"\",\"-14.4\",\"\",\"54\",\"\",\"25\",\"\",\"60\",\"\",\"16.1\",\"\",\"100.75\",\"\",\"\",\"\",\"-18\",\"\",\"Cloudy\"\r\n\"-54.00\",\"47.30\",\"ARGENTIA
        A\",\"8400100\",\"1965-01-30 17:30\",\"1965\",\"01\",\"30\",\"17:30\",\"-7.2\",\"\",\"-13.3\",\"\",\"62\",\"\",\"25\",\"\",\"47\",\"\",\"16.1\",\"\",\"100.81\",\"\",\"\",\"\",\"-18\",\"\",\"Mostly
        Cloudy\"\r\n\"-54.00\",\"47.30\",\"ARGENTIA A\",\"8400100\",\"1965-01-30 18:30\",\"1965\",\"01\",\"30\",\"18:30\",\"-7.2\",\"\",\"-13.9\",\"\",\"59\",\"\",\"25\",\"\",\"50\",\"\",\"16.1\",\"\",\"100.88\",\"\",\"\",\"\",\"-18\",\"\",\"Mostly
        Cloudy\"\r\n\"-54.00\",\"47.30\",\"ARGENTIA A\",\"8400100\",\"1965-01-30 19:30\",\"1965\",\"01\",\"30\",\"19:30\",\"-6.7\",\"\",\"-12.2\",\"\",\"65\",\"\",\"25\",\"\",\"51\",\"\",\"16.1\",\"\",\"100.98\",\"\",\"\",\"\",\"-17\",\"\",\"Mostly
        Cloudy\"\r\n\"-54.00\",\"47.30\",\"ARGENTIA A\",\"8400100\",\"1965-01-30 20:30\",\"1965\",\"01\",\"30\",\"20:30\",\"-6.1\",\"\",\"-10.6\",\"\",\"71\",\"\",\"25\",\"\",\"48\",\"\",\"16.1\",\"\",\"101.05\",\"\",\"\",\"\",\"-16\",\"\",\"Cloudy\"\r\n\"-54.00\",\"47.30\",\"ARGENTIA
        A\",\"8400100\",\"1965-01-30 21:30\",\"1965\",\"01\",\"30\",\"21:30\",\"-5.6\",\"\",\"-8.9\",\"\",\"77\",\"\",\"25\",\"\",\"40\",\"\",\"3.2\",\"\",\"101.12\",\"\",\"\",\"\",\"-15\",\"\",\"Snow
        Showers\"\r\n\"-54.00\",\"47.30\",\"ARGENTIA A\",\"8400100\",\"1965-01-30
        22:30\",\"1965\",\"01\",\"30\",\"22:30\",\"-4.4\",\"\",\"-10.6\",\"\",\"62\",\"\",\"23\",\"\",\"45\",\"\",\"16.1\",\"\",\"101.12\",\"\",\"\",\"\",\"-14\",\"\",\"Mostly
        Cloudy\"\r\n\"-54.00\",\"47.30\",\"ARGENTIA A\",\"8400100\",\"1965-01-30 23:30\",\"1965\",\"01\",\"30\",\"23:30\",\"-3.9\",\"\",\"-10.0\",\"\",\"62\",\"\",\"23\",\"\",\"48\",\"\",\"16.1\",\"\",\"101.12\",\"\",\"\",\"\",\"-13\",\"\",\"Mostly
        Cloudy\"\r\n\"-54.00\",\"47.30\",\"ARGENTIA A\",\"8400100\",\"1965-01-31 00:30\",\"1965\",\"01\",\"31\",\"00:30\",\"-3.9\",\"\",\"-7.8\",\"\",\"74\",\"\",\"20\",\"\",\"39\",\"\",\"16.1\",\"\",\"101.02\",\"\",\"\",\"\",\"-13\",\"\",\"Mostly
        Cloudy\"\r\n\"-54.00\",\"47.30\",\"ARGENTIA A\",\"8400100\",\"1965-01-31 01:30\",\"1965\",\"01\",\"31\",\"01:30\",\"-3.3\",\"\",\"-10.0\",\"\",\"60\",\"\",\"23\",\"\",\"37\",\"\",\"12.9\",\"\",\"101.02\",\"\",\"\",\"\",\"-12\",\"\",\"Cloudy\"\r\n\"-54.00\",\"47.30\",\"ARGENTIA
        A\",\"8400100\",\"1965-01-31 02:30\",\"1965\",\"01\",\"31\",\"02:30\",\"-3.9\",\"\",\"-6.1\",\"\",\"85\",\"\",\"25\",\"\",\"37\",\"\",\"12.9\",\"\",\"101.12\",\"\",\"\",\"\",\"-12\",\"\",\"Snow
        Showers\"\r\n\"-54.00\",\"47.30\",\"ARGENTIA A\",\"8400100\",\"1965-01-31
        03:30\",\"1965\",\"01\",\"31\",\"03:30\",\"-3.3\",\"\",\"-6.7\",\"\",\"78\",\"\",\"23\",\"\",\"34\",\"\",\"12.9\",\"\",\"101.05\",\"\",\"\",\"\",\"-11\",\"\",\"Cloudy\"\r\n\"-54.00\",\"47.30\",\"ARGENTIA
        A\",\"8400100\",\"1965-01-31 04:30\",\"1965\",\"01\",\"31\",\"04:30\",\"-3.9\",\"\",\"-6.1\",\"\",\"85\",\"\",\"20\",\"\",\"24\",\"\",\"12.9\",\"\",\"101.02\",\"\",\"\",\"\",\"-11\",\"\",\"Cloudy\"\r\n\"-54.00\",\"47.30\",\"ARGENTIA
        A\",\"8400100\",\"1965-01-31 05:30\",\"1965\",\"01\",\"31\",\"05:30\",\"-4.4\",\"\",\"-6.1\",\"\",\"88\",\"\",\"18\",\"\",\"23\",\"\",\"2.4\",\"\",\"101.02\",\"\",\"\",\"\",\"-11\",\"\",\"Snow
        Showers\"\r\n\"-54.00\",\"47.30\",\"ARGENTIA A\",\"8400100\",\"1965-01-31
        06:30\",\"1965\",\"01\",\"31\",\"06:30\",\"-4.4\",\"\",\"-5.6\",\"\",\"92\",\"\",\"16\",\"\",\"24\",\"\",\"3.2\",\"\",\"100.98\",\"\",\"\",\"\",\"-11\",\"\",\"Snow
        Showers\"\r\n\"-54.00\",\"47.30\",\"ARGENTIA A\",\"8400100\",\"1965-01-31
        07:30\",\"1965\",\"01\",\"31\",\"07:30\",\"-4.4\",\"\",\"-6.1\",\"\",\"88\",\"\",\"16\",\"\",\"23\",\"\",\"4.0\",\"\",\"100.88\",\"\",\"\",\"\",\"-11\",\"\",\"Snow
        Showers\"\r\n\"-54.00\",\"47.30\",\"ARGENTIA A\",\"8400100\",\"1965-01-31
        08:30\",\"1965\",\"01\",\"31\",\"08:30\",\"-5.0\",\"\",\"-6.1\",\"\",\"92\",\"\",\"11\",\"\",\"27\",\"\",\"1.2\",\"\",\"100.75\",\"\",\"\",\"\",\"-13\",\"\",\"Snow\"\r\n\"-54.00\",\"47.30\",\"ARGENTIA
        A\",\"8400100\",\"1965-01-31 09:30\",\"1965\",\"01\",\"31\",\"09:30\",\"-5.6\",\"\",\"-6.1\",\"\",\"96\",\"\",\"9\",\"\",\"29\",\"\",\"0.8\",\"\",\"100.54\",\"\",\"\",\"\",\"-14\",\"\",\"Moderate
        Snow\"\r\n\"-54.00\",\"47.30\",\"ARGENTIA A\",\"8400100\",\"1965-01-31 10:30\",\"1965\",\"01\",\"31\",\"10:30\",\"-5.0\",\"\",\"-5.6\",\"\",\"96\",\"\",\"11\",\"\",\"26\",\"\",\"0.2\",\"\",\"100.61\",\"\",\"\",\"\",\"-12\",\"\",\"Heavy
        Snow\"\r\n\"-54.00\",\"47.30\",\"ARGENTIA A\",\"8400100\",\"1965-01-31 11:30\",\"1965\",\"01\",\"31\",\"11:30\",\"-5.0\",\"\",\"-5.6\",\"\",\"96\",\"\",\"9\",\"\",\"19\",\"\",\"0.2\",\"\",\"100.51\",\"\",\"\",\"\",\"-11\",\"\",\"Heavy
        Snow\"\r\n\"-54.00\",\"47.30\",\"ARGENTIA A\",\"8400100\",\"1965-01-31 12:30\",\"1965\",\"01\",\"31\",\"12:30\",\"-4.4\",\"\",\"-5.0\",\"\",\"96\",\"\",\"5\",\"\",\"26\",\"\",\"0.8\",\"\",\"100.20\",\"\",\"\",\"\",\"-12\",\"\",\"Moderate
        Snow\"\r\n\"-54.00\",\"47.30\",\"ARGENTIA A\",\"8400100\",\"1965-01-31 13:30\",\"1965\",\"01\",\"31\",\"13:30\",\"-4.4\",\"\",\"-5.0\",\"\",\"96\",\"\",\"36\",\"\",\"37\",\"\",\"0.6\",\"\",\"100.10\",\"\",\"\",\"\",\"-13\",\"\",\"Moderate
        Snow\"\r\n\"-54.00\",\"47.30\",\"ARGENTIA A\",\"8400100\",\"1965-01-31 14:30\",\"1965\",\"01\",\"31\",\"14:30\",\"-3.9\",\"\",\"-4.4\",\"\",\"96\",\"\",\"36\",\"\",\"45\",\"\",\"1.2\",\"\",\"100.03\",\"\",\"\",\"\",\"-13\",\"\",\"Snow\"\r\n\"-54.00\",\"47.30\",\"ARGENTIA
        A\",\"8400100\",\"1965-01-31 15:30\",\"1965\",\"01\",\"31\",\"15:30\",\"-3.3\",\"\",\"-5.0\",\"\",\"88\",\"\",\"5\",\"\",\"45\",\"\",\"11.3\",\"\",\"100.00\",\"\",\"\",\"\",\"-12\",\"\",\"Mostly
        Cloudy\"\r\n\"-54.00\",\"47.30\",\"ARGENTIA A\",\"8400100\",\"1965-01-31 16:30\",\"1965\",\"01\",\"31\",\"16:30\",\"-2.8\",\"\",\"-3.9\",\"\",\"92\",\"\",\"36\",\"\",\"40\",\"\",\"11.3\",\"\",\"100.14\",\"\",\"\",\"\",\"-11\",\"\",\"Cloudy\"\r\n\"-54.00\",\"47.30\",\"ARGENTIA
        A\",\"8400100\",\"1965-01-31 17:30\",\"1965\",\"01\",\"31\",\"17:30\",\"-2.8\",\"\",\"-3.9\",\"\",\"92\",\"\",\"2\",\"\",\"40\",\"\",\"11.3\",\"\",\"100.17\",\"\",\"\",\"\",\"-11\",\"\",\"Cloudy\"\r\n\"-54.00\",\"47.30\",\"ARGENTIA
        A\",\"8400100\",\"1965-01-31 18:30\",\"1965\",\"01\",\"31\",\"18:30\",\"-2.8\",\"\",\"-4.4\",\"\",\"88\",\"\",\"2\",\"\",\"27\",\"\",\"11.3\",\"\",\"100.31\",\"\",\"\",\"\",\"-10\",\"\",\"Cloudy\"\r\n\"-54.00\",\"47.30\",\"ARGENTIA
        A\",\"8400100\",\"1965-01-31 19:30\",\"1965\",\"01\",\"31\",\"19:30\",\"-2.8\",\"\",\"-5.0\",\"\",\"85\",\"\",\"2\",\"\",\"24\",\"\",\"11.3\",\"\",\"100.31\",\"\",\"\",\"\",\"-9\",\"\",\"Cloudy\"\r\n\"-54.00\",\"47.30\",\"ARGENTIA
        A\",\"8400100\",\"1965-01-31 20:30\",\"1965\",\"01\",\"31\",\"20:30\",\"-2.8\",\"\",\"-5.0\",\"\",\"85\",\"\",\"2\",\"\",\"24\",\"\",\"11.3\",\"\",\"100.34\",\"\",\"\",\"\",\"-9\",\"\",\"Cloudy\"\r\n\"-54.00\",\"47.30\",\"ARGENTIA
        A\",\"8400100\",\"1965-01-31 21:30\",\"1965\",\"01\",\"31\",\"21:30\",\"-2.8\",\"\",\"-5.0\",\"\",\"85\",\"\",\"5\",\"\",\"19\",\"\",\"11.3\",\"\",\"100.41\",\"\",\"\",\"\",\"-9\",\"\",\"Cloudy\"\r\n\"-54.00\",\"47.30\",\"ARGENTIA
        A\",\"8400100\",\"1965-01-31 22:30\",\"1965\",\"01\",\"31\",\"22:30\",\"-2.8\",\"\",\"-5.6\",\"\",\"81\",\"\",\"7\",\"\",\"23\",\"\",\"11.3\",\"\",\"100.31\",\"\",\"\",\"\",\"-9\",\"\",\"Cloudy\"\r\n\"-54.00\",\"47.30\",\"ARGENTIA
        A\",\"8400100\",\"1965-01-31 23:30\",\"1965\",\"01\",\"31\",\"23:30\",\"-3.3\",\"\",\"-5.6\",\"\",\"85\",\"\",\"5\",\"\",\"32\",\"\",\"11.3\",\"\",\"100.17\",\"\",\"\",\"\",\"-11\",\"\",\"Cloudy\"\r\n"
  recorded_at: 2021-04-15 19:46:10 GMT
  recorded_with: vcr/0.6.0, webmockr/0.8.0
- request:
    method: get
    uri: https://climate.weather.gc.ca/climate_data/bulk_data_e.html?format=txt&stationID=6556&timeframe=1&submit=Download%2BData
    body:
      encoding: ''
      string: ''
    headers:
      Accept: application/json, text/xml, application/xml, */*
  response:
    status:
      status_code: 200
      category: Success
      reason: OK
      message: 'Success: (200) OK'
    headers:
      date: Thu, 15 Apr 2021 19:46:10 GMT
      server: Apache/2.4.29 (Ubuntu)
      strict-transport-security: max-age=63072000; preload
      expires: Mon, 26 Jul 1997 05:00:00 GMT
      cache-control: private
      pragma: public
      content-disposition: attachment; filename="en_climate_hourly_metadata_NL_8400100.txt"
      vary: Accept-Encoding
      content-encoding: gzip
      content-length: '337'
      content-type: application/force-download
    body:
      encoding: UTF-8
      file: no
      string: "\uFEFFStation Name\t\tARGENTIA A\r\nProvince\t\tNEWFOUNDLAND\r\nLatitude\t\t47.30\r\nLongitude\t\t-54.00\r\nElevation\t\t13.70\r\nClimate
        Identifier\t8400100\r\nWMO Identifier\t\t\r\nTC Identifier\t\t\r\n\"If Local
        Standard Time (LST) was selected, add 1 hour to adjust for Daylight Saving
        Time where and when it is observed.\"\r\n\r\nLegend\r\nE\tEstimated\r\nM\tMissing\r\nNA\tNot
        Available*\r\n[empty]\tIndicates an unobserved value\r\n\r\n*https://climate.weather.gc.ca/FAQ_e.html#Q5"
  recorded_at: 2021-04-15 19:46:10 GMT
  recorded_with: vcr/0.6.0, webmockr/0.8.0
